id,name,kana,area,category,lat,lng,zoom,url,image,description,受入員数,所要時間,開催場所,電話番号,住所,営業時間,定休日,料金,アクセス,駐車場,ウェブサイト,オンライン予約,体験内容,最少催行人員,注意事項,駐車場：台数,駐車場：大型バスの駐車,駐車場：備考,受付期間,備考,メールアドレス,関連資料,決済方法,開催期間
detail_1082,瑞源寺,ずいげんじ,"あわら・坂井・福井市,福井市",歴史・文化体験,36.055573,136.198965,17,https://www.fuku-e.com/spot/detail_1082.html,https://www.fuku-e.com/lsc/upfile/spot/0000/1082/1082_2_l.jpg,臨済宗妙心寺派に属する禅宗寺院。泰澄大師が天平宝字年間に、現鯖江市吉江に建立と伝わる。その後荒廃するも、江戸時代に入って第五代七代福井藩主松平吉品公が復興、現在地に移転。本堂、書院が福井城本丸御殿の遺構として、県の文化財に指定されている。9…,お問い合わせ下さい。,お問い合わせ下さい。,瑞源寺,瑞源寺 0776-35-1868,福井県福井市足羽5-10-17,9:00～17:00(本堂、書院内部)※外観はいつでも自由にご覧いただけます。,無休　※法要や行事中、あるいは住職不在時はご案内できません。あらかじめお電話でご連絡ください。(TEL0776-35-1868),拝観料:200円,JR福井駅よりすまいるバスにて足羽・照手方面行き「笏谷」下車徒歩3分。またはJR福井駅よりタクシー10分,あり,http://www.zuigenji.com/home/home.htm,https://www.jalan.net/kankou/spt_guide000000203304/,,,,,,,,,,,,
detail_1087,大安禅寺,だいあんぜんじ,"あわら・坂井・福井市,福井市",歴史・文化体験,36.102003,136.167816,14,https://www.fuku-e.com/spot/detail_1087.html,https://www.fuku-e.com/lsc/upfile/spot/0000/1087/1087_3_l.jpg,万治元年(1658)に第4代福井藩主・松平光通が、当時の高僧・大愚禅師に帰依して建てた臨済宗妙心寺派の寺で、歴代福井藩主の菩提寺として知られ、現在も、当時そのままの姿をとどめています。数百点にもおよぶ文化財が保存され、本堂裏には門に葵の紋を配し、…,最大９０名（法話）,60分～120分（応相談）,"〒910-0044
福井県福井市田ノ谷町21-4
大安禅寺",大安禅寺 0776-59-1014,福井県福井市田ﾉ谷町21-4,9:00～17:00　(受付は16:30まで),無　※法話別,拝観料あり,JR福井駅前から鮎川線または川西・三国線京福バス「大安寺門前」下車徒歩15分/北陸自動車道福井北ICから車で25分,あり,"https://daianzenji.jp/reiwa/,https://fuku-iro.jp/fukuiromikke/daianzenji-2/,https://fuku-iro.jp/fukuiromikke/daianzenji/",https://www.jalan.net/kankou/spt_18201aj2200026026/,写経、座禅、法話など（応相談）,10人（10人以下応相談）,体験コースにより内容が異なります。詳細はホームページをご覧ください。,,,,,,,,,
detail_1095,越前二の宮 劔神社（剣神社）,えちぜんにのみや つるぎじんじゃ,"丹南,越前町",歴史・文化体験,35.957828,136.055395,16,https://www.fuku-e.com/spot/detail_1095.html,https://www.fuku-e.com/lsc/upfile/spot/0000/1095/1095_2_l.jpg,劔神社は1161年に平清盛によって焼かれてしまいましたが、1164年に清盛の嫡男である平重盛が社殿を復興し、境内の小松建勲神社には平重盛が祀られています。劔神社は1800年の歴史を有する越前国の二の宮（一の宮は敦賀の気比神宮）であり、毎年多くの初詣客…,,"30分～60分
",,0778-36-0404,福井県越前町織田113-1,参拝自由／社務所　7:00～19:00,,,JR武生駅から福鉄バス越前海岸方面(織田経由)行き「明神前」下車すぐ/北陸自動車道武生または鯖江ICから車で30分,あり,https://www.tsurugi-jinja.jp/,,,,,"境内入り口：数台分
越前町織田文化歴史館：50台",隣接する「越前町織田文化歴史館」の駐車場をご利用ください,,,,,,,
detail_1192,はたや記念館　ゆめおーれ勝山,はたやきねんかんゆめおーれかつやま,"永平寺・奥越,勝山市","ものづくり体験,歴史・文化体験",36.0617763,136.5031408,16,https://www.fuku-e.com/spot/detail_1192.html,https://www.fuku-e.com/lsc/upfile/spot/0000/1192/1192_3_l.jpg,はたや記念館「ゆめおーれ勝山」は、大人からこどもまで楽しめる織物ミュージアム。明治38年(1905年)から平成10年(1998年)まで勝山の中堅機業場として操業していた建物を保存・活用したもので、勝山市指定文化財、国の近代化遺産に認定されています。1階はま…,"(1)手織り体験 80人
(2)まゆ玉クラフト体験 80人
(3)麻糸コースター織り体験 数人","(1)手織り体験 30分程度
(2)まゆ玉クラフト体験 40分程度
(3)麻糸コースター織り体験 40～90分程度",,0779-87-1200　　FAX　0779-87-1221（はたや記念館　ゆめおーれ勝山）,福井県勝山市昭和町1-7-40,"9:00～17:00　
※カフェは10:00～19:00",水曜日(祝日の場合は翌日)、年末年始(12/29～1/2),"入館無料
手織体験　500円
まゆ玉クラフト体験　500円
麻糸コースター織り体験　700円",中部縦貫自動車道勝山ICから車で10分/えちぜん鉄道勝山駅からコミュニティバス等乗車～ゆめおーれ勝山前下車,あり,http://www.city.katsuyama.fukui.jp/hataya/,,"(1)手織り体験 500円
(2)まゆ玉クラフト体験 500円
(3)麻糸コースター織り体験 700円",,"予約受付時間:9:00～16:00
講師有
個人は、即受付。団体は電話受付※麻糸コースター織り体験は団体不可",30,,,,,,,,
detail_1275,スキージャム勝山,すきーじゃむかつやま,"永平寺・奥越,勝山市",バリアフリー,36.073368,136.555611,16,https://www.fuku-e.com/spot/detail_1275.html,https://www.fuku-e.com/lsc/upfile/spot/0000/1275/1275_4_l.jpg,"スキージャム勝山は、勝山市の法恩寺山にある西日本最大級のスキー場です。平成5年(1993年)に開業し、初・中・上級全13コ-スのバラエティに富んだコースと、充実した設備のレストハウスや温泉があります。コース全長は、5,800メートルありロングクルージング…",,,,"東急リゾ-トサービス  スキージャム勝山
TEL:0779-87-6109",福井県勝山市170-70,"【ウインターシーズン】
12月中旬～4月上旬
【グリーンシーズン】
4月下旬～10月上旬",【ウインターシーズン】無休【グリーンシーズン】無休※11月はスキー場準備のため休業,"【ウインターシーズン】
リフト料金(1日券)
大人5,300円
シニア(50歳以上)4,700円
グランドシニア(60歳以上)4,200円
小学生3,400円
キンダー(3歳～未就学児)1,800円
ビギッズパーク1,000円(3歳未満無料)

【グリーンシーズン】
バーベキュー　1人前2800円～
ものづくり体験　1作品 1500円～
など",中部縦貫自動車道勝山ICから法恩寺山有料道路経由で車で20分,あり,http://www.skijam.jp/,,,,,3400,,"ウィンターシーズン駐車料金：1,000円(除雪協力金含む)
グリーンシーズン駐車料金：無料",,,,,,
detail_1450,シーパーク丹生,しーぱーくにゅう,"若狭路,美浜町",漁業体験・魚釣り,35.699186,135.9754,16,https://www.fuku-e.com/spot/detail_1450.html,https://www.fuku-e.com/lsc/upfile/spot/0000/1450/1450_1_l.jpg,地元の定置網で獲れた魚を中心に生簀に放流しており、初心者から釣りマニアまで、気軽に釣りをお楽しみいただけます。中物釣りと小物釣りが中心で、大きな生簀でハマチやタイ、グレやアジなどを釣っていただけます。また、団体のお客様は事前予約(有料)によ…,,最大4時間,"シーパーク丹生
（福井県三方郡美浜町丹生）","シーパーク丹生
0770-39-1900",福井県美浜町丹生,"7:00～15:00
(受付は13:00まで)
※釣り時間は14:45まで","毎週木曜日(祝日の場合は翌平日)
冬季休業
※天候等により臨時休業の場合あり","小物釣り
2時間（上限10尾まで）/2,500円
4時間（上限20尾まで）/4,500円
※4時間は平日限定
中物釣り
3時間（上限２尾）/4,000円
大物釣り
上限1尾まで/4,000円
波止釣り
4時間
大人1000円
小学生以下500円",舞鶴若狭自動車道若狭美浜ICより車で約25分,,http://www1.kl.mmnet-ai.ne.jp/~nyu/seapark.html,,"魚釣り
（小物釣り、中物釣り、大物釣り、波止釣り）",,お問合せ先：0770-39-1900,,,,4月下旬～12月上旬,,,,,
detail_1451,新庄渓流の里,しんじょうけいりゅうのさと,"若狭路,美浜町",漁業体験・魚釣り,35.530976,135.979397,16,https://www.fuku-e.com/spot/detail_1451.html,https://www.fuku-e.com/lsc/upfile/spot/0000/1451/1451_1_l.jpg,家族や友だちと一緒につかみ取り、釣りやバーベキューを楽しめます。初心者でも簡単に釣ることができ、釣った魚をその場で炭焼きで食べることもできます。新緑・紅葉、澄んだ水、あふれる太陽の下で日常を忘れてのんびりとしたひとときを過ごせます。新鮮な…,,"制限時間なし
（ちょい釣りは2時間まで）","渓流の里
（福井県三方郡美浜町新庄286-5-1）","渓流の里
0770-32-5580",福井県美浜町新庄286-5-1,"日の出から午後6:00
ただし冬期は日没まで",無休(食事処渓流苑は月曜定休),"渓流釣り入川券
一般4,000円
女性及び小人2,500円
ちょい釣り2,000円（2時間まで）
つかみどり(ニジマス1尾200円　アマゴ1尾300円　イワナ1尾300円)
貸し竿(1式300円)
えさ(500～700円)
バーベキュー(1区画8名様分2,000円　肉野菜セット(1人前)1,200円)",舞鶴若狭自動車道若狭美浜ICより車で約40分,あり,https://keiryunosato.jimdofree.com/,,渓流釣り、つかみどり,,ご予約・お問合せ：0770-32-5580,100,,,"日の出から午後6:00
（冬期は日没まで）",,,,,
detail_1452,ひるが海上釣堀,ひるがかいじょうつりぼり,"若狭路,美浜町",漁業体験・魚釣り,35.613876,135.895696,16,https://www.fuku-e.com/spot/detail_1452.html,https://www.fuku-e.com/lsc/upfile/spot/0000/1452/1452_3_l.jpg,地元の漁業協同組合が営業する釣り堀です。定置網で獲れた魚を放流しており、鯛、ひらめ、はまち等を釣ることができます。釣り場は湾内沿岸にあるので、ファミリーなど、どなたでも安心して楽しむことができます。目の前には日本海が広がっており、釣りの合…,,3時間～,"ひるが海上釣堀
（福井県三方郡美浜町日向2-55）",美浜町漁業協同組合 0770-32-1146,福井県美浜町日向2-55,"7:00～15:00
※詳しくはお問い合わせください。","毎週水曜日
※祝日の場合は翌営業日が休園
※悪天候の場合、臨時休園あり
12月～3月の営業はお問合せください。",,舞鶴若狭自動車道若狭美浜ICより車で約25分,あり,https://blog.goo.ne.jp/hiruga-turi,,"魚釣り
（岸壁釣り、いかだ釣堀）",,お問合せ先：0770-32-1146,40,,,"3月下旬～12月下旬
7:00～15:00","入園料(3時間　えさ別　大人3,700円　小人2,600円)
えさ代500円～
いかだ釣掘(貸切予約制　1組5～9名（中学生以上）　1イケス50,000円～（予算に応じます。）)",,,,
detail_1454,フィッシングランド日向,ふぃっしんぐらんどひるが,"若狭路,美浜町",漁業体験・魚釣り,35.599723406481324,135.88695287704468,16,https://www.fuku-e.com/spot/detail_1454.html,https://www.fuku-e.com/lsc/upfile/spot/0000/1454/1454_2_l.jpg,三方五湖の一つ日向湖にある釣り堀です。初級者から上級者まで幅広く楽しむことができ、また家族連れでも楽しむことができます。周辺には昔ながらの港町の風景が広がり、田舎の情緒をたっぷり味わうことができます。,,"～4時間
※コースによって変わります。","フィッシングランド日向
（福井県三方郡美浜町日向33-4）","フィッシングランド日向
0770-45-2929",福井県美浜町日向33-4,"上級コース：7:00～14:00
マニアコース：7:00～11:00
受付
上級コース6:30まで
マニアコース6:00まで
貸し切りコース5:30まで
※曜日、季節によって変更あり",2月～3月末までの営業はお問合せください。,"上級コース
12,000円
女性10,000円
小学生以下6,000円
マニアコース
6,000円
女性5,000円
小学生以下4,000円
貸し竿1,000円",舞鶴若狭自動車道若狭美浜ICより車で約30分,,https://fl-hiruga.com/,,"魚釣り
（上級コース、マニアコース）",,"完全予約制
お問合せ先：0770-45-2929",,,,3月～1月末,完全予約制,,,,
detail_1455,フィッシングレインボー,ふぃっしんぐれいんぼー,"若狭路,美浜町",漁業体験・魚釣り,35.603648,135.885582,16,https://www.fuku-e.com/spot/detail_1455.html,https://www.fuku-e.com/lsc/upfile/spot/0000/1455/1455_2_l.jpg,三方五湖の一つ日向湖で、初心者から上級者まで気軽に釣りを楽しむことができます。釣りの合間に目に映る風景からは漁師町の風情を感じることができます。,,5時間半,"フィッシングレインボー
（福井県三方郡美浜町日向）","事務局
0770-45-2841
予約専用
090-3293-0427",福井県美浜町日向33-4,"3月中旬～4月中旬
第1部　 6:30～12:00
4月中旬～10月末
第1部　 6:00～11:30
第2部　 12:00～17:30
11月
第1部　 6:30～12:00
第2部　 12:30～17:00
12月～1月末
第1部　 7:00～12:30","毎週木曜日
2月～3月中旬
8月15日～16日
12月31日～1月3日","乗り合い個人利用料金
大人　12,000円
女性　10,000円 
子供　6,000円
釣り放題
釣り時間は約5時間半 
 
",舞鶴若狭自動車道若狭美浜ICより車で約30分,あり,http://www.fishing-r.com/,,魚釣り,,"完全予約制
お問合せ先：090-3293-0427
メール：f-rainbow@fishing-r.com
",40,,,3月中旬～1月末,完全予約制,,,,
detail_1518,越前水仙群生地,えちぜんすいせんぐんせいち,"あわら・坂井・福井市,丹南,福井市,越前町,南越前町","自然・スポーツ体験,歴史・文化体験",35.981835728144134,135.96327071796875,14,https://www.fuku-e.com/spot/detail_1518.html,https://www.fuku-e.com/lsc/upfile/spot/0000/1518/1518_2_l.jpg,「越前水仙」とは、越前海岸に咲く日本水仙の総称。千葉県房総半島、兵庫県淡路島と並び日本三大群生地のひとつとして数えられ、その面積は日本一を誇ります。冬が訪れるころ、水仙たちは寒さから身を守るように寄り添いながら、海岸風景を白く清々とつつみ…,,,,越前町観光連盟 0778-37-1234,福井県越前町,,,,北陸自動車道福井ICから車で約70分、鯖江ICから車で約60分、武生ICから車で約60分、敦賀ICから車で約80分　※所在地により時間が異なります,,"https://www.town-echizen.jp/spot/spot01Detail.php?id=262,https://www.town-echizen.jp/pages/?id=7",,,,,,,,,,,,,
detail_1519,越前陶芸村,えちぜんとうげいむら,"丹南,越前町","ものづくり体験,歴史・文化体験",35.935418,136.060183,16,https://www.fuku-e.com/spot/detail_1519.html,https://www.fuku-e.com/lsc/upfile/spot/0000/1519/1519_8_l.jpg,広大な陶芸公園の各所に桜が植えられているため、見ごろの時期には公園内どこでも桜を眺めながら散策できる。4月中旬には「越前陶芸村しだれ桜まつり」、5月下旬には「越前陶芸まつり」などイベントも多く開催される。・・★越前陶芸村で開催しているイベント…,,,,福井県陶芸館 0778-32-2174,福井県越前町小曽原,入園自由,無休,無料,"JR武生駅から織田行き福鉄バス　陶芸村口下車、徒歩10分
北陸自動車道武生ＩＣから国道8号線、365号線経由約30分",,"http://www.tougeikan.jp/,https://www.fuku-e.com/fukutabi/detail_128.html",,,,,,,,,,,,,
detail_1543,福井総合植物園プラントピア,ふくいそうごうしょくぶつえんぷらんとぴあ,"丹南,越前町","ものづくり体験,自然・スポーツ体験",35.968775,136.118901,16,https://www.fuku-e.com/spot/detail_1543.html,https://www.fuku-e.com/lsc/upfile/spot/0000/1543/1543_3_l.jpg,"日本海側最大規模の25ヘクタール広さを持つ植物園です。自然の地形を生かした植物園であり、植物館を併設しています。来園者に分かりやすいように、園内には、サクラ園、ドングリ園、ロックガーデンなど計35の植物コーナーが設けられ、計3,000種の植物が植え…",,,,0778-34-1120,福井県越前町朝日17-3-1,9:00～17:00(入園受付は16時まで),毎週火曜日(祝日の場合はその翌日)、年末年始,"大人310円、高校生・中学生200円、小学生100円
団体料金有り（30名以上）

※　障がい者料金について
身体障害者手帳、精神障害者福祉手帳、療育手帳などお持ちの方が施設をご利用される場合、受付時に手帳をご提示頂くことで、障がい者料金をご利用になれます。また、歩行困難な方、介助が必要な方は、お付き添いの方１名様まで、入園無料となります。","★公共交通機関の場合：福井鉄道神明駅下車　福鉄バス鯖浦線乗車約15分～朝日バス停下車後徒歩10分
★車の場合：北陸自動車道鯖江I.Cから約30分",あり,"http://www.fukui-bot.jp/,https://www.echizenkk.jp/plantpia,https://www.facebook.com/fukuibotanicalgarden/",,,,,,,,,,,,,
detail_1585,めがねミュージアム,めがねみゅーじあむ,"丹南,鯖江市",,35.9498359,136.1896025,15,https://www.fuku-e.com/spot/detail_1585.html,https://www.fuku-e.com/lsc/upfile/spot/0000/1585/1585_8_l.jpg,福井県は、国内生産フレームの9割以上のシェアを持つめがねの産地です。その産地ならではのめがねを扱うアンテナショップ。また、純国産フレームや、チタンやプラスティックを材料にしためがね以外の製品の展示販売、糸のこぎりを使って世界でひとつだけの自…,,,,0778-42-8311,福井県鯖江市新横江2-3-4 めがね会館,"ショップ10:00～19:00
博物館、工房10:00～17:00
カフェ10:00～16:00",毎週水曜日(祝日除く)・年末年始,"入場料無料
体験料金:(1)めがね手作り体験22,000円～(レンズ代別)
(2)コロナにより中止中
(3)めがねdeコラージュ1,800円～",北陸道鯖江ICから約3分、 JR鯖江駅から徒歩約10分,あり,"https://www.megane.gr.jp/museum/,https://www.fuku-e.com/feature/megane",,,,,50,,,,,,,,
detail_1614,越前古窯博物館,えちぜんこようはくぶつかん,"丹南,越前町","ものづくり体験,歴史・文化体験",35.9358695,136.0594626,16,https://www.fuku-e.com/spot/detail_1614.html,https://www.fuku-e.com/lsc/upfile/spot/0000/1614/1614_1_l.jpg,越前古窯博物館は、国登録有形文化財を展示する「資料館」、福井の古民家を移築した「旧水野家住宅」、本格的な茶室「天心堂」・「天心庵」から構成されます。資料館では国登録有形文化財「福井県陶磁器資料(水野コレクション)」を展示して平安時代から近現…,,,,"0778-32-2174
（FAX:0778-32-2279）",福井県越前町小曽原107-1-169,"開館時間9:00～17:00　　
＊入館は16:30まで
",月曜日(休日を除く)、休日の翌日(土・日・休日を除く)、年末年始,"スペシャルパスポート(福井県陶芸館・越前古窯博物館+呈茶)1,000円
共通入館券(福井県陶芸館・越前古窯博物館)500円 
越前古窯博物館 資料館 300円   

呈茶
お抹茶　生菓子付　600円
お抹茶　干菓子付　400円
","バス
　　○JR武生駅より・・・約30分
 　　　福鉄バス(武生・越前海岸線)
 　　　「かれい崎行」「陶芸村口」下車/片道640円
 　　○福鉄線神明駅より・・・約30分
 　　　福鉄バス(鯖浦線)
 　　　「かれい崎行」「陶芸村口」下車/片道710円

　高速道路
 　　○武生インター(京都・名古屋方面)より・・・約30分
 　　○鯖江インター(金沢方面)より・・・約30分
 　　○敦賀インター(名神・舞若道)より・・・305号線利用　約50分
",あり,https://www.tougeikan.jp/koyou/,,,,,50,,,,,,,,
detail_1617,ツリーピクニックアドベンチャーいけだ,つりーぴくにっくあどべんちゃーいけだ,"丹南,池田町",自然・スポーツ体験,35.8624071,136.3672554,16,https://www.fuku-e.com/spot/detail_1617.html,https://www.fuku-e.com/lsc/upfile/spot/0000/1617/1617_1_l.jpg,池田町の志津原エリアの山林にある日本最大級の冒険の森。鳥の視点で大空にはばたく全長約1kmの「メガジップライン」、樹上を空中散歩できる「アドベンチャーパーク」、足羽川の源流を下る全長2.1kmの「アドベンチャーボート」など、木に触れ、森を飛び、川…,,体験コースによって異なります。ホームページでご確認ください。,,"ツリーピクニックアドベンチャーいけだ
0778-44-7474",福井県池田町志津原28-16,10:00～17:00,"■3月中旬～12月上旬は火曜日定休(GW・夏休み期間は無休)
■1月中旬～2月は土・日・月曜のみ営業
■12月上旬～1月上旬および3月上旬は休業","・体験
　・体験コースによって異なります。ホームページでご確認ください。
・宿泊料金
　・コテージ:1棟19,000円～(定員5名)
　・キャビン:1棟32,000円～(定員12名)
　・樹上テント:1サイト16,000円～(定員4名※2名での利用がおすすめ)",北陸自動車道「武生IC」または「鯖江IC」から車で35分/北陸自動車道「福井IC」から車で40分,あり,https://www.picnic.ikeda-kibou.com/,,"・メガジップライン
・アドベンチャーパーク（ディスカバリーコース、キッズコース、リトルキッズコース、ツリークライムコース）
・アドベンチャーボート",,インターネットまたは電話予約,200,,,,,mailto:info@picnic.ikeda-kibou.com,,,
detail_1622,おさかな集積所おとと（手ぶらでOK！海釣り体験）,おさかなしゅうせきじょおとと,"あわら・坂井・福井市,坂井市",漁業体験・魚釣り,36.2234313,136.1358034,15,https://www.fuku-e.com/experience/detail_1622.html,https://www.fuku-e.com/lsc/upfile/spot/0000/1622/1622_6_l.jpg,釣人向けのサービスを展開する当店では、釣った魚を捌いて、食べる事が出来ます。また、魚の現金買取もしており、全国の釣人から注目の施設です。初心者向けに展開する完全手ぶらOKでインストラクター付きの「海釣り体験教室」は、毎年数百名が参加する大人…,午前の部・午後の部それぞれ15名,3時間程度,,"0776-82-8557
",福井県坂井市三国町宿3-7-22(みくに隠居処内),[午前の部]9:00～12:00,毎週木曜日(夏季・祝日営業),"海釣り体験教室:6,380円/1セット",えちぜん鉄道(三国・東尋坊方面)終点「三国港駅」から徒歩7分,あり,https://mikuni-ototo.jp/,,手ぶらでOK！親子で楽しむ海釣り体験教室,,,16(店舗正面2、裏6、裏通り専用8),,,（2022年）4月1日～10月31日まで,海釣り体験教室は、毎年4月1日～10月31日で開催しています。1セット2名まで利用可能で、同伴は無料です。大手体験予約サイト「アソビュー」でゴールドグランプリ賞を受賞した大好評の釣り体験です。,,/lsc/upfile/spot/0000/1622/1622_1_file.pdf,,
detail_1651,池田町立クライミングウォール,いけだちょうりつくらいみんぐうぉーる,"丹南,池田町",自然・スポーツ体験,35.8578858,136.3039849,14,https://www.fuku-e.com/spot/detail_1651.html,https://www.fuku-e.com/lsc/upfile/spot/0000/1651/1651_1_l.jpg,元小学校の体育館の中に3種類のウォールを配した全天候型クライミング施設。バラエティに富んだコース設計の「ボルダリングウォール」、高さ約14メートルの天井まで登れる「リードウォール」、国際規格と同等のコースを体験できる「スピードウォール」があり…,,,,池田町立クライミングウォール/農村de合宿キャンプセンター　0778-44-6181,福井県池田町菅生23-42(農村de合宿キャンプセンター併設),10:00～21:00,水曜日、年末年始,"登録料1,500円(初回のみ)
体験1時間500円、2時間800円、1日1,100円、1ヶ月6,000円
※登録をしない一般利用は2時間1,800円",北陸自動車道「武生IC」から車で25分/北陸自動車道「鯖江IC」から車で35分/北陸自動車道「福井IC」から車で40分,あり,https://ikeda-climbing.jp/,,,,,30,,,,,,,,
detail_2001,越前そば道場,えちぜんそばどうじょう,"あわら・坂井・福井市,福井市",,36.0458913,136.193333,16,https://www.fuku-e.com/experience/detail_2001.html,https://www.fuku-e.com/common/images/ogImg.png,福井名物おろしそばを、そば食文化として伝承していこうと道場主・中山重成により日本で最初に作られました。おろしそばのルーツや効用などを知った上でそば打ち体験に挑戦していただけます。,,体験コースによって異なります。ホームページでご確認ください。,,"0776-36-3538（越前そば道場
電話(0776)36-3538
FAX (0776)35-3536）",福井県福井市福町31-1-19,10:00~17:00(要予約),不定休,そば打ち体験(1～4名)6000円(5名以上で1人に付き1500円プラス),JR福井駅前から江守の里行き京福バス「福町」下車徒歩5分/北陸自動車道福井ICから車で20分,あり,http://www.pilliken.jp/soba-dojo/,,そば打ち体験,,予約方法 : 電話またはFAXにてお申込,,,,受付時間 : 午前10時から午後5時まで,,,,,
detail_2002,みかん狩り,みかんがり,"若狭路,敦賀市",農業体験・フルーツ狩り,35.6479292241489,136.065386314156,18,https://www.fuku-e.com/experience/detail_2002.html,https://www.fuku-e.com/lsc/upfile/spot/0000/2002/2002_1_l.jpg,美しい海岸線を見ながらのみかん狩り。食べ放題、お土産つき。,,,,0770-47-6107（JA福井県敦賀美方基幹支店　営業指導課）,福井県敦賀市東浦地区,10月中旬~11月下旬,,"大人(中学生以上)　1,000円
小人(3歳～小学生)　700円
※団体(30名以上)の場合はそれぞれ1割引

",JR敦賀駅からコミュニティバス「東浦線」で東浦地区内下車/北陸自動車道敦賀ICから車で約25～35分,,http://www.turuga.org/places/mikan/mikan.html,,,,予約方法 : 電話にて予約,,,,,,,,,
detail_2003,地引網体験,じびきあみたいけん,"若狭路,敦賀市",漁業体験・魚釣り,35.654988,136.05796,16,https://www.fuku-e.com/experience/detail_2003.html,https://www.fuku-e.com/lsc/upfile/spot/0000/2003/2003_1_l.jpg,日本三大松原のひとつ、名勝「気比の松原」で地引網を体験しよう。どんな魚がとれるかはお楽しみ。もちろんとれた魚はすべてお持ち帰りOKです。とれた魚でバーベキューも楽しめます。(別料金。30名以上から),"30人より
(大人のみであれば、15人でもOK)",,,0770-23-0881（民宿とね）,福井県敦賀市松島町･名子,"4月下旬~11月上旬
9:00~15:00","悪天候(雨天や強風など)が予想されるとき、海開き期間中で場所の確保が出来ないときは、中止の可能性あり。
","漁師により異なります。
お問い合わせください。",JR敦賀駅からコミュニティバス「松原線」で「気比の松原」下車/北陸自動車道敦賀ICから車で約13分,,http://www.turuga.org/places/jibikiami/jibikiami.html,,,,予約方法 : 電話にて予約,,,,,海昇園 TEL:0770-22-5299　　伝平荘 TEL:0770-22-4236,,,,
detail_2004,ブルーパーク阿納,ぶるーぱーくあのう,"若狭路,小浜市",漁業体験・魚釣り,35.537010676492926,135.78683137893677,16,https://www.fuku-e.com/experience/detail_2004.html,https://www.fuku-e.com/lsc/upfile/spot/0000/2004/2004_2_l.jpg,釣堀で、マダイや小鯛の釣り体験を楽しんで、釣った魚のさばき体験やバーベキューもできます。,若狭の小鯛釣り放題は1名から、さばき体験は5名以上(要予約),3時間,,0770-54-3611（阿納体験民宿組合　0770-54-3610）,福井県小浜市阿納,"8:00~15:00
※上記時間外でも相談に応じます",12月～3月,"若狭の小鯛釣り放題　1人1時間3,500円
さばき体験　1人3,500円(5名以上で要予約)",JR小浜駅から車で約15分/舞鶴若狭自動車道小浜ICから車で約20分,あり,http://bluepark-ano.com/,,"若狭の小鯛釣り放題
さばき体験　など",,予約方法 : ホームページ内の「予約」フォームまたは電話にて,10,,,受付時間 : HPお問い合わせフォーム、お電話受付は9:00～17:00,,,,,
detail_2005,ツカモト民芸センター,つかもとみんげいせんたー,"若狭路,小浜市",ものづくり体験,35.5212461,135.7515434,16,https://www.fuku-e.com/spot/detail_2005.html,https://www.fuku-e.com/lsc/upfile/spot/0000/2005/2005_1_l.jpg,さまざまなうるし細工を展示・販売しており、またうるしダルマの絵付け体験もできる。,2～12人,約90分,,0770-52-2590（ツカモト民芸センター　0770-52-2590 ）,福井県小浜市福谷8-29-8,9:00~18:00,年末年始・毎週火曜日・水曜日(1、2月は体験のみお休み),入場料：無料　/　体験料：だるま絵付け　950円,JR小浜駅から車で10分/舞鶴若狭自動車道小浜ICから車で約15分,あり,,,"・だるま絵付け
",,予約方法 : 電話(絵付け体験のみ前日までに要予約),,,,,,,,,
detail_2006,箸のふるさと館ＷＡＫＡＳＡ,はしのふるさとかんわかさ,"若狭路,小浜市",ものづくり体験,35.522321,135.7515156,16,https://www.fuku-e.com/spot/detail_2006.html,https://www.fuku-e.com/lsc/upfile/spot/0000/2006/2006_1_l.jpg,若狭塗箸が約3000種類展示されていて、伝統の技を感じることができます。また、箸の研ぎ出し体験が人気で、自分だけの箸を作ることができます。毎年8月4日には恒例の箸まつりが行なわれます。,約30名(機械は10台なので一度に同時に出来る人数は10名),,,0770-52-1733（箸のふるさと館）,福井県小浜市福谷8-1-3,(平日)9:00~17:00､(日･祝日)9:00~16:00,年末年始・毎週木曜日,入場料：無料　/　体験料：1人700円(10名以上の場合は要予約),JR小浜駅から車で10分/舞鶴若狭自動車道小浜ICから車で約15分,あり,http://www.wakasa-hashi.com/,,箸とぎ体験,,予約方法 : 前日までに電話、HP、またはFAX( 0770-53-0043)よりご予約,,,,,大型バス駐車可,,,,
detail_2007,若狭工房,わかさこうぼう,"若狭路,小浜市",ものづくり体験,35.5014202,135.7377253,16,https://www.fuku-e.com/spot/detail_2007.html,https://www.fuku-e.com/lsc/upfile/spot/0000/2007/2007_1_l.jpg,若狭おばまの伝統工芸を肌で感じる。古くから伝統工芸を受け継ぐ匠たちがその技を実演すると共に、来館者が実際にオリジナル作品を製作体験することができます。,"1.若狭塗箸の研ぎ出し    　 75名　　　　　　　　　　　　                                                                                                                                          2.若狭めのう磨き 　         50名　                                                                                                                                                                                                             3.若狭めのう薄板の模様付け  20名　　　　　　　　　　　　　                                                                                                                                       4.若狭和紙色紙漉き 　       50名　　　　                                                                                                                                                                                        5.若狭和紙はがき漉き        50名
6.若狭和紙折染め 　        100名                                                                                                                                                                                                         ",約1時間～,,0770-53-1000（御食国若狭おばま食文化館）,福井県小浜市川崎3-4(食文化館2階),9:00~18:00(冬期11月~2月は9:00~17:00),毎週水曜日(祝日の場合は開館)、年末年始,"入場料：無料
体験料：1.若狭塗箸の研ぎ出し 1000円
 2.若狭めのう磨き 900円
3.若狭めのう薄板の模様付け 900円　　　　　　　　　　　　　                                                                                                                                       4.若狭和紙色紙漉き 900円
5.若狭和紙はがき漉き 900円
6.若狭和紙折染め 500円","JR小浜駅から車で約5分/舞鶴若狭自動車道小浜ICから車で約10分
",あり,http://www.wakasa-koubou.com/,,"1.若狭塗箸の研ぎ出し
2.若狭めのう磨き
3.若狭めのう薄板の模様付け
4.若狭和紙色紙漉き
5.若狭和紙はがき漉き
6.若狭和紙折染め",,予約方法 : ・HPお申込みフォームよりご予約　　　　                                                                                                                                                                                ・利用申込書をダウンロードしFAXでご予約 0770-53-1036　　                       ,,,,受付時間 : ・HPお申込みフォーム、FAXは24時間対応　　　　　                                                                                                                                                                ・お電話受付は11月~2月は9:00~16:00、それ以外は9:00~17:00,,,,,
detail_2008,若狭和紙の家,わかさわしのいえ,"若狭路,小浜市",ものづくり体験,35.4819595,135.7831748,16,https://www.fuku-e.com/spot/detail_2008.html,https://www.fuku-e.com/lsc/upfile/spot/0000/2008/2008_1_l.jpg,若狭和紙の手すき。色紙大の紙をすきます。,,コースごとに異なります。詳しくはHPをご覧ください。,,0770-56-0363（若狭和紙の家　0770-56-0363）,福井県小浜市遠敷4-406,10:00~17:00,毎週火曜(祝祭日は開館)、年末年始。その他不定休で休むこともあるので、来店前に電話でご確認お願い致します。,入場料：無料,JR東小浜駅から徒歩6分/舞鶴若狭自動車道小浜ICから車で約7分,あり,,,(体験はやめられたそうです。),,,,,,,,,,,
detail_2009,和泉前坂家族旅行村　前坂キャンプ場,いずみまえさかかぞくりょこうむらまえさかきゃんぷじょう,"永平寺・奥越,大野市",自然・スポーツ体験,35.946614,136.707545,16,https://www.fuku-e.com/experience/detail_2009.html,https://www.fuku-e.com/lsc/upfile/spot/0000/2009/2009_1_l.jpg,四方を山に囲まれた、家族、グループ向けの宿泊施設。テントでのキャンプやケビンでの宿泊が可能で、和泉の自然を満喫できます。トイレや炊事棟も完備しており、快適なキャンピングが可能です。施設内に流れる川では水泳や川魚のつかみとりも楽しめます。,制限なし(団体は要相談),,,0779-78-2248（和泉前坂家族旅行村管理事務所）,福井県大野市朝日前坂6-23,"4月下旬から10月末まで営業
チェックイン/12:00 
チェックアウト/10:00
DAYキャンプ8:00~17:00",11月～3月,"オートサイト4,500円～・テントサイト3,500円～・ケビンサイト8,000円・清掃協力費300円 / 大人￥2000・小人￥1000",JR九頭竜湖駅から前坂線市営バスにて「和泉前坂キャンプ場」下車徒歩1分/北陸自動車道福井ICから車で80分/東海北陸自動車道白鳥JCTから車で35分(中部縦貫道油坂峠道路経由),あり,http://maesaka-camp.sakura.ne.jp/,,カヌー体験(夏期),,予約方法 : 電話・メール(3日前まで),200,,,受付時間 : 常時可,,,,,
detail_2010,九頭竜国民休養地オートキャンプ場,くずりゅうこくみんきゅうようちおーときゃんぷじょう,"永平寺・奥越,大野市",自然・スポーツ体験,35.898751,136.653644,16,https://www.fuku-e.com/experience/detail_2010.html,https://www.fuku-e.com/lsc/upfile/spot/0000/2010/2010_1_l.jpg,“森林浴の森百選”に選ばれた大自然の森の中にあるオートキャンプ場。近くには小川が流れ、夏でも心地よい風が吹き自然を満喫できる環境で家族からグループまで楽しめる施設です。,"10名～
2名～",60分,,0779-78-2326（国民宿舎パークホテル九頭竜）,福井県大野市角野14-3,"4月下旬から10月中旬まで営業
12:00~翌12:00
DAYキャンプ10:00~17:00",無休,"入場料：テントサイト 3,600円 / 体験料金：30分300円、60分650円",北陸自動車道福井ICから車で70分/東海北陸自動車道白鳥JCTから車で30分(中部縦貫道油坂峠道路経由),あり,http://www.linx.co.jp/camp/htm/hokusin/2001.htm,,"さかなつかみとり(団体のみとなっています)
",,予約方法 : 1週間前にご予約お願い致します。,100,,,受付時間 : 10:00～16:00,,,,,
detail_2011,笛資料館,ふえしりょうかん,"永平寺・奥越,大野市","ものづくり体験,歴史・文化体験",35.904629,136.66011,16,https://www.fuku-e.com/spot/detail_2011.html,https://www.fuku-e.com/lsc/upfile/spot/0000/2011/2011_2_l.jpg,平治の乱に破れ、この地にかくまわれていた源義平が、上洛を決意し京に上る際、身ごもっていた妻に形見として一本の横笛を遺しました。その笛が「青葉の笛」として今に伝えられています。青葉の笛のレプリカをはじめ、篠笛、能管、竜笛や縄文・弥生時代の土…,25名,40分,,0779-78-2041（笛資料館）,福井県大野市朝日24-9,9:00~16:00,毎週月曜日(祝祭日の場合は翌日)・祝日の翌日冬季間(12月1日～3月31日),"入場料 : 大人:300円、団体(30名以上)150円、障がい者:150円、中学生以下:無料 / 体験料 : 3,000円(笛袋込)
",JR九頭竜湖駅から徒歩5分/北陸自動車道福井ICから車で70分/東海北陸道白鳥JCTから車で25分(中部縦貫道油坂峠道路経由),あり,https://www.city.ono.fukui.jp/kosodate/bunka-rekishi/hakubutsukan/kanko/huesiryoukan/fuesiryoukan.html,,笛づくり体験,,予約方法 : 一週間前までに電話予約,12,,,受付時間 : 9:00～16:00,,,,,
detail_2012,白山ワイナリー,はくさんわいなりー,"永平寺・奥越,大野市",農業体験・フルーツ狩り,35.986651,136.58139,16,https://www.fuku-e.com/spot/detail_2012.html,https://www.fuku-e.com/lsc/upfile/spot/0000/2012/2012_8_l.jpg,約7haの畑で、主に山ぶどうを栽培しており、醸造施設の見学や試飲(無料)を行っています。ブドウ畑の景色を眺めながらワインを試飲し、ゆったりとしたひと時を過ごしてください。,,30分程度(工房見学・レクチャー・体験),,0779-67-7111（(株)白山やまぶどうワイン）,福井県大野市落合2-24,9:00~16:30,日曜・祝日、年末年始(12/29～1/3),,福井ICを降り、国道158号線を大野方向へ約40時間,あり,http://www.yamabudou.co.jp/,,"6月～7月はブルーベリー摘み
8月下旬はぶどう狩り",,予約方法 : 電話,,,,受付時間 : 9:00～16:30,,,,,
detail_2013,ミルク工房奥越前,みるくこうぼうおくえちぜん,"永平寺・奥越,大野市",食品づくり体験,36.020184,136.573424,16,https://www.fuku-e.com/experience/detail_2013.html,https://www.fuku-e.com/lsc/upfile/spot/0000/2013/2013_1_l.jpg,奥越高原牧場の生乳を使ったアイスクリームを味わえるほか、レストランでの食事やBBQ、季節によってアルプス音楽祭やランタンナイトといったイベントも楽しめます。体験は要予約でアイスクリーム作りやバター作りができます。全天候型のテニスコートなどが完…,2～40名,30～120分,,0779-67-1166（ミルク工房奥越前）,福井県大野市南六呂師169字東上谷野,"体験時間
 1部:10:00~11:00
 2部:11:15~12:15
 3部:13:00~14:00
 4部:14:15~15:15",毎週月曜日。ただし、夏休み期間は定休日なし。,"アイスクリーム作り体験　670円
フルーツアイス作り体験　820円
バター作り体験　670円
カッテージ作り体験　670円",JR越前大野駅から六呂師行き京福バス「六呂師高原」下車/北陸自動車道福井または福井北ICから車で60分,あり,http://www.milk-koubou.com/index.php,,"アイスクリーム作り体験
フルーツアイス作り体験
バター作り体験
カッテージ作り体験",,予約方法 : 4日前までに電話にて予約,30,,,受付時間 : 9:00～17:00,,,,,
detail_2015,スキージャム勝山 (4月下旬～10月下旬),すきーじゃむかつやま,"永平寺・奥越,勝山市",自然・スポーツ体験,36.072967,136.555549,16,https://www.fuku-e.com/spot/detail_2015.html,https://www.fuku-e.com/lsc/upfile/spot/0000/2015/2015_2_l.jpg,大自然に囲まれた高原リゾートでバーベキューやセグウェイ体験、パークゴルフ、ものづくり体験など豊富なメニューを楽しめます。温泉、ホテルも併設しており、近隣には車で10分の福井県恐竜博物館とじっくり遊びつくすことができます。2022年グリーンシーズ…,"①5名／1回（1ツアー1組までのプライベートツアー）
⑤20名様以上の団体のみ対応
⑩20名以上の場合は問い合わせください。
⑫1サイト最大8名まで（1日2組限定）
⑬6台分
⑭午前午後1組4名様まで
⑮2人乗り　4艇　合計8名　1人乗り　4艇　合計4名",個人のお客様約20～30分　　団体様は約40分,,0779-87-6109（スキージャム勝山     　）,福井県勝山市170-70,"夏季アクティビティーメニュー10:00~16:00 
バーベキューガーデン 11:00~17:00(予約制)","4月下旬～10月下旬は毎週水曜日定休
10月下旬～12月中旬はスキー場準備のため休館","入場料：無料
体験料
①セグウェイ　5,500円/55分/1名
②わんぱく恐竜ランド　500円/1日/1名　※3歳以下無料
③芝そり　500円/1時間/1台
④サイクリング　1,000円/1時間/1台
⑤ものづくり体験　1作品 1,500円～
⑥パークゴルフ　大人1,000円/1人/18ホール　子供600円/1人/18ホール
⑦ドッグラン　500円/1日/1頭
⑧温水プール　大人850円　子供550円　レンタル水着 大人 800円　レンタル水着 子供 500円　スイミングキャップ 200円
⑨パラグライダー　「ふわっと体験」5,500円　「タンデムフライト」13,200円（保険料別）
⑩バーベキュー　1人前3,600円～
⑫グラマラスBBQ　「サイト使用料　7,000円～　「バーベキュープラン」5,000円～
⑬バギー　体験料金　4,500円（中学生以上）同乗料金　1,500円　※WEB予約限定で特典つき！
⑭ディスクゴルフ
　●ラウンド　9ホール…1,000円/1名　　18ホール…1,800円/1名　　1日回り放題…2,000円/1名
　●レンタル　ディスク1枚…500円　　セットレンタル（ミニバッグ、ディスク3枚）…1,500円
　●スクール　ラウンドレッスン…3,000円/1名（9ホールラウンド料込、レンタル別）
⑮カヤック　2人乗り　1艇　2,500円　1人乗り　1艇　1,500円",中部縦貫自動車道勝山ICから法恩寺山有料道路経由で車で20分,あり,"http://www.skijam.jp/,https://www.jamsports.jp/,https://www.skijam.jp/green/lp/bbq/","https://www.jalan.net/kankou/spt_18206ca3470058112/activity_plan/,https://skijam.resv.jp/reserve/calendar.php?x=1650588081,https://rado-op.jp/detail/18/null","①セグウェイ　1回55分　午前の部　10:30～　午後の部　13:30～
②わんぱく恐竜ランド　
③芝そり　
④サイクリング　
⑤ものづくり体験
⑥パークゴルフ
⑦ドッグラン
⑧温水プール
⑨パラグライダー　「ふわっと体験コース」9:00~10:00､10:00~11:00　「タンデムコース」 8:00~16:00
⑩バーベキューガーデン　11:00～17:00（最終受付15:30）※15分単位で受付可能
⑪ラウンジ伊炉里
⑫グラマラスBBQ　【完全予約制】1日2組限定（3日前までのWEB予約）
⑬バギー　GW期間…4/29(金)～5/8(日)　夏休み期間…7/23(土)～8/21(日)
⑭ディスクゴルフ　4/29（金）～10/30（日）の土日祝日のみ営業
※GW期間（4/29～5/8）、夏休み期間（7/16～8/28）は毎日営業予定
※平日は完全予約制
⑮カヤック　5/3（火）～5/5（木）予約制（0779-87-6109）※空きがあれば当日受付可能",,,3400,,,"①【完全予約制】4月29日（金）～10月30日（日）※土日祝日のみ営業（当日空きがあれば可）
②4/29（金）～10/30（日）※毎週水曜日は定休日
③4/29（金）～10/30（日）※毎週水曜日は定休日
④4/29（金）～10/30（日）の土日祝日のみ営業　※GW期間（4/29～5/8）、夏休み期間（7/16～8/28）は毎日営業予定
⑤【3日前までの完全予約制】4/29（金）～10/30（日）※20名様以上の団体のみ対応
⑥4/29（金）～10/30（日）※毎週水曜日は定休日
⑦4/29（金）～10/30（日）※毎週水曜日は定休日
⑧4月4日（月）～11月26日（土)　※6月5日（日）～17日（金)を除く。10:00～21:00まで（最終受付20:00）
⑨受付時間 : 半日体験の受付は開始時間の10分前までにお済ませ下さい。
⑩4/29（金）～10/30（日）※毎週水曜は定休日（GW、夏休み期間中は営業）※平日は事前予約制。当日受付不可。
⑪10:30 ～ 16:00　お食事メニューは 11:30
⑫11時～16時（ラストオーダー15時）
⑬8:00～16:30　1回50分（約15分のセーフティ講習含む）
⑭9:00～16:00　9ホール45～60分程度
⑮①10:30　②11:30　③13:30　④14:30　⑤15:30　1回約30分（5分程度の説明含む）",,,,,
detail_2017,ジャムスポーツパラグライダースクール,ぱらぐらいだー,"永平寺・奥越,勝山市",自然・スポーツ体験,36.0731194,136.5568944,16,https://www.fuku-e.com/spot/detail_2017.html,https://www.fuku-e.com/lsc/upfile/spot/0000/2017/2017_4_l.jpg,初心者にお勧めは、ふわっと体験コース。簡単な事前講習の後、初歩的な操作方法を実際に練習してふわっと浮く体験を数回チャレンジしていただけます。タンデムフライトはプロのパイロットとのんびりゆったり二人乗り遊覧飛行を楽しめます。,ホームページで確認可能,,,090-3766-8553（ジャムスポーツパラグライダースクール）,福井県勝山市170-70,"ふわっと体験コース
9:00~10:00､10:00~11:00
タンデムコース 8:00~16:00",天候により不定休(090-3766-8553ジャムスポーツまでお問い合わせください。),"入場料：無料
体験料：ふわっと体験 5,500円 タンデムフライト 13,200円(保険料別)",中部縦貫自動車道勝山ICから法恩寺山有料道路経由で車で20分,あり,http://www.jamsports.jp,,"ふわっと体験
タンデムフライト",,予約方法 : 電話およびホームページ,,,,受付時間 : 半日体験の受付は開始時間の10分前までにお済ませ下さい。,,,,,
detail_2018,どきどき恐竜発掘ランド,どきどききょうりゅうはっくつらんど,"永平寺・奥越,勝山市",恐竜,36.083073,136.509382,16,https://www.fuku-e.com/spot/detail_2018.html,https://www.fuku-e.com/lsc/upfile/spot/0000/2018/2018_4_l.jpg,勝山は日本を代表する恐竜化石発掘のまち。発掘現場から運ばれた岩で道具を使って発掘体験！貝や植物の化石はもちろん、運がよければ、まさしく恐竜の化石を探し当てることができます。どんな化石が出てくるかな。ワクワクドキドキ。毎日行っていますので親…,"各1回　60名　※4歳以上対象
※新型コロナウイルス拡大防止のため、定員数を減らしています",,,0779-88-8777（公園管理事務所）,福井県勝山市村岡町寺尾51-11,"3月下旬~11月中旬

★開催時間
1回目 9:30~
2回目 11:00~
3回目 13:30~
4回目 15:00~
(季節によって1日に行われる発掘体験の回数が変わります)
*予約制（当日空きがあれば参加可能）
詳しくはホームページでご確認ください",恐竜博物館休館日(第2，4水曜日)、体験会場整備日,入場料：かつやま恐竜の森公園へは無料 / 体験料金：4歳～中学生　530円(430円)、高校生 850円(630円)、大人　1050円(850円) ※(　)内は10名以上の団体料金,"・JR福井駅下車→えちぜん鉄道 勝山永平寺線「勝山行き」乗車(約1時間)→勝山駅下車→コミュニティバスにて約15分、またはタクシーにて約10分
・JR福井駅にてJR越美北線「越前大野」または「九頭竜湖」行きに乗りかえ→越前大野駅下車→タクシーにて約20分
・北陸自動車道 福井北JCT・IC→中部縦貫自動車道 勝山IC→一般道路 … 約15分
・東海北陸自動車道 白鳥ICから中部縦貫自動車道→国道158号→国道157号経由 … 約90分",あり,http://www.kyoryunomori.net/,,恐竜化石発掘体験,,予約方法 : HP、電話,990台(公園駐車場）,,,"受付時間 : 前日までに要予約
※空きがある場合は当日予約できます(電話のみ)",,,,現金　クレジットカード　電子マネー,
detail_2019,石田縞手織りセンター(鯖江市繊維会館),いしだじまておりせんたーさばえしせんいかいかん,"丹南,鯖江市",ものづくり体験,35.972714,136.17587,16,https://www.fuku-e.com/spot/detail_2019.html,https://www.fuku-e.com/lsc/upfile/spot/0000/2019/2019_1_l.jpg,幕末から大正時代にかけ木綿布産地として栄えた、繊維王国ふくいのルーツでもある石田縞 。その良さを再発見してもらおうということでセンターでは石田縞手織り体験ができ、バッタン機と呼ばれる古い織機も展示してあります。,"(1)同時に2名まで
(2)同時に5名まで
(3)先着10名",90分(貸出時間),,0778-52-1880（鯖江市繊維協会）,福井県鯖江市糺町32-1-1,"9:00~17:00(見学)
10:00~16:00(体験)",土・日・祝日・年末年始,入場料：無料,北陸自動車道鯖江ICから約15分、福武線神明駅から徒歩約5分,あり,http://s-senkyo.com/isida/isida.html,,"(1)石田縞手織り体験コーナー
(2)かんたんコースター作り体験
(3)石田縞織りを使った趣味のデザイン表装講座",,予約方法 : 電話,5,,,受付時間 : 土、日、祝日以外の9:00～17:00,,,,,
detail_2021,かわだ温泉 ラポーゼかわだ,かわだおんせんらぽーぜかわだ,"丹南,鯖江市",バリアフリー,35.947928,136.300543,16,https://www.fuku-e.com/experience/detail_2021.html,https://www.fuku-e.com/lsc/upfile/spot/0000/2021/2021_1_l.jpg,家族旅行に最適な滞在型アミューズメント施設です。そば打ちやパン作り、餅つき、パスタ作りなど、多彩な体験ができます。館内にあるかわだ温泉は、肌がすべすべになる重曹泉と動脈硬化防止に効能のある芒硝泉が同時に含まれる日本でも数例しかないという珍…,"日によって変更あり
お電話にてご相談ください",,,0778-65-0012（ラポーゼかわだ）,福井県鯖江市上河内町19-37-2,体験によって異なるため､HPまたはお電話にてご確認ください,毎週火曜日,"(1)1,500円
(2)2,500円(4人前)　※試食 1セット500円(要予約)
(3)2,500円(4人前) ※試食1セット500円(要予約)
(4)1,300円
(5)800円
(6)1,000円
(7)1,200円
(8)1,800円(2人前)　",JR鯖江駅からつつじバス「ラポーゼかわだ前」下車/北陸自動車道鯖江ICから車で約15分,あり,https://www.lapause.jp/,,"(1)水ようかん作り
(2)そば打ち
(3)うどん打ち
(4)ピザ作り
(5)パン
(6)3色パン作り
(7)山うに
(8)パスタ作り",,予約方法 : 電話・HP,100,,,受付時間 : 10:00～23:00,,,,,
detail_2022,芸妓・舞妓変身体験,げいぎ・まいこへんしんたいけん,"あわら・坂井・福井市,あわら市",歴史・文化体験,36.224112,136.192691,16,https://www.fuku-e.com/experience/detail_2022.html,https://www.fuku-e.com/lsc/upfile/spot/0000/2022/2022_1_l.jpg,あわら温泉の華と言われる芦原芸妓による着付けで、本物の着物と化粧で憧れの芸妓さん・舞妓さんに大変身！開催場所＊あわら湯のまち駅から徒歩３分親子やファミリー、記念日や自分へのご褒美で体験されるのもＯＫ。海外の方や、男性の方でも安心して変身で…,"各回　芸妓3名　舞妓3名
",2時間30分,伝統芸能館,0776-78-6767（あわら市観光協会）,福井県あわら市温泉1-203,"午前の部 9:00~11:30
午後の部 13:00~15:30
(各2時間半)
※その他の時間は､相談に応じます｡
",,"13,000円(人数により割引あり)
","JR芦原温泉駅から車/バスで約10分
えちぜん鉄道あわら湯のまち駅から徒歩2分",あり,https://awara.info/cat-sightseeing/,,"芸妓・舞妓変身体験
",,予約方法 : 電話、メール、ホームページ,5,,あわら湯のまち駅裏にある市営駐車場もご利用ください。,受付時間 : 8:30～17:00　3日前までに要予約,,,,,
detail_2023,朝倉梨栗園,あさくらなしくりえん,"あわら・坂井・福井市,あわら市",農業体験・フルーツ狩り,36.25668,136.19813,16,https://www.fuku-e.com/experience/detail_2023.html,https://www.fuku-e.com/lsc/upfile/spot/0000/2023/2023_1_l.jpg,"日本海を望む、8,000m^2の広大な園内で栗拾いはいかが？　名物おじさん(園主)が上手な栗ひろいを伝授　栗料理のレシピもご用意しています",50名,いちご摘み:30分,,"0776-79-1930（朝倉梨栗園
E-mail arinomi@asakuraya.com）",福井県あわら市城3-33,土日祝日:9時~16時  平日:10時~12時 (要予約)            ,月曜日(祝日の場合は開園、翌平日休園),"中学生以上300円、小学生以下無料(入園料)
持帰りの栗は、1200円/1ｋｇ",北陸自動車道金津ICから車で20分,,http://www.asakuraya.com/,,栗ひろい,,予約方法 : ホームページ、メール,,,,,,,,,
detail_2024,梨園よねくら,なしえんよねくら,"あわら・坂井・福井市,あわら市",農業体験・フルーツ狩り,36.262594,136.200356,16,https://www.fuku-e.com/spot/detail_2024.html,https://www.fuku-e.com/lsc/upfile/spot/0000/2024/2024_1_l.jpg,梨の産地芦原のとってもおいしい完熟梨が食べ放題！,300名,1時間位,,0776-79-1874（梨園よねくら）,福井県あわら市波松68-98,9:00~17:00,荒天休園,"大人1,000円、小学生600円　　　　幼児　400円",北陸自動車道金津ICから車で20分,あり,http://www.surfboard.co.jp/yonekura/,,梨狩り,,予約方法 : 電話(団体のみ),100,,,,,,,,
detail_2025,ブルーベリー狩り,ぶるーべりーがり,"あわら・坂井・福井市,あわら市",農業体験・フルーツ狩り,36.2301849,136.2255967,14,https://www.fuku-e.com/experience/detail_2025.html,https://www.fuku-e.com/lsc/upfile/spot/0000/2025/2025_1_l.jpg,7月下旬から8月いっぱいにかけてブルーベリーの摘み取りができます。シーズン中は無休です。(雨天時はお休み。)摘み取り園ではフレッシュブルーベリー、手作りブルーベリージャム、ソフトクリームなどの販売もしています。,50名,,,0776-73-3248（瑞香園）,福井県あわら市山十楽53-2-11,9:00~17:00(摘み取りの受付は8:30~11:00｡体験終了12時),シーズン中は無休,"中学生以上800円、小学生650円、1歳から未満児100円
畑のブルーベリーは、シーズン中変動がありますので、ＨＰまたはお電話にて確認ください。","電車の場合
JR北陸をご利用の場合　芦原温泉駅下車タクシーで約10分
えちぜん鉄道をご利用の場合　あわら湯のまち駅下車タクシーで約10分",あり,http://www1.fctv.ne.jp/～keimi-u/,,ブルーベリー狩り,,予約方法 : 電話(雨天中止となります。ご了承ください。),15,,,,"瑞香園は、白山連邦を望む、見晴らしの良いお店です。
昭和55年よりブルーベリー栽培をはじめ、旬の夏には、つみとり体験が出来ます。
「とことん手作り」をモットーに、手作りジャムや焼き菓子などの販売をしています。
また、見晴らしの良いカフェでブルーベリージュースを飲んだり、動物と触れあったり、幅広い世代のお客様が楽しんで頂けるような店作りを目指しています。",,,,
detail_2026,金津創作の森,かなづそうさくのもり,"あわら・坂井・福井市,あわら市",ものづくり体験,36.2315465,136.261817,15,https://www.fuku-e.com/experience/detail_2026.html,https://www.fuku-e.com/lsc/upfile/spot/0000/2026/2026_4_l.jpg,森の中の工房で、四季折々の自然を楽しみながら、様々な創作体験ができます。(1)竹細工体験:竹人形職人の山田信雄さんの指導で、水仙やトンボなどを制作できます。お家で作れる竹細工キットも販売しています。(2)陶芸体験:陶芸指導員が丁寧に教えますので、…,各体験によって異なります。詳しくはホームページを参照ください。,30分,,"（(1),(2),(3)金津創作の森 創作工房 0776-73-7802

(4)金津創作の森 ガラス工房 0776-73-7801
）",福井県あわら市宮谷57-2-19,各体験によって異なります｡詳しくはホームページをご覧ください｡,月曜日(祝日の場合は開館、翌平日休館)、年末年始,"入場料：無料
体験料：各体験によって異なります。詳しくはホームページを参照ください。","JR芦原温泉駅からタクシーで10分/JR細呂木駅から徒歩30分/北陸自動車道金津ICから車で5分
JR芦原温泉駅からあわらぐるっとバスで12分(土日祝のみ)",あり,http://sosaku.jp/workshop/,,"(1)竹細工体験
(2)陶芸体験
(3)ろうけつ染め体験
(4)吹きガラス体験",,予約方法 : 電話、ホームページ,250,,,受付時間 : 各体験によって異なります。詳しくはホームページを参照ください。,,,,,
detail_2027,乗馬体験,じょうばたいけん,"あわら・坂井・福井市,あわら市",自然・スポーツ体験,36.250487,136.224738,16,https://www.fuku-e.com/experience/detail_2027.html,https://www.fuku-e.com/lsc/upfile/spot/0000/2027/2027_1_l.jpg,馬と触れ合うことができる乗馬クラブです。馬に乗って歩くといつも見慣れた風景も新鮮に見え、気持ちのいい汗が流せます。今まで馬に乗ったことがないという初心者の方はえさやりを通して馬と触れ合うことが出来ます。　,,3時間,,0776-74-0081（乗馬クラブ　パ・ドゥドゥ）,福井県あわら市赤尾50-4-1,9:00~19:30,毎週火曜日(祝日の場合は翌日の水曜日)、年末年始,"体験乗馬(15分)3,000円
、(30分)5,000円
曳き馬(5分)1,000円
外乗(30分) 4,000円、(60分)8,000円",JR芦原温泉駅から車で約10分/北陸自動車道金津ICから車で約10分,,http://www.padodo.net/index.html,,"体験乗馬、曳き馬
、外乗",,予約方法 : 電話、ホームページ,,,,,,,,,
detail_2028,越前そばの里,えちぜんそばのさと,"丹南,越前市",食品づくり体験,35.9053634,136.2072032,16,https://www.fuku-e.com/spot/detail_2028.html,https://www.fuku-e.com/lsc/upfile/spot/0000/2028/2028_6_l.jpg,越前そば発祥の地で「そば打ち体験」にチャレンジ！！モニターを使った丁寧な指導で初めての方でも安心です。お子様もOK、家族で楽しめます。武生でそばといえば、おろしそば。大根おろしを入れたつゆでさっぱりと食べる食べ方は日本でもこの地方だけだとか…,お問い合わせ下さい。,約90分（そば打ち～お召し上がり～後片付けまで）,,0778-21-0272（越前そばの里）,福井県越前市真柄町7-37,9:30~16:00,1/1、1/2、1/3,"(1)一打ち 　税別1,800円(約2人前)
",北陸自動車道武生ICから車で2分,,https://www.echizensoba.co.jp,,"(1)そば打ち体験(午前の部10:00～11:30、午後の部12:30～14:00、15:00～16:30)
",,予約方法 : 電話またはHPから,,,,,,,,,
detail_2029,万葉そば道場,まんようそばどうじょう,"丹南,越前市",食品づくり体験,35.8832083,136.2294257,16,https://www.fuku-e.com/experience/detail_2029.html,https://www.fuku-e.com/lsc/upfile/spot/0000/2029/2029_1_l.jpg,自家栽培のそばの実を自家製粉したそば粉を使ってそば打ち体験ができます。自分で打って食べるそばの味は格別です。,お問い合わせ下さい,約3時間,,0778-27-1863（万葉そば道場）,福井県越前市上大坪町19-20,10:00~14:00,年始、毎週水曜日,"一人 3000円(500ｇ7食分)
一人 6,000円(1.0kg15食分)",北陸自動車道武生ICから車で15分,,,,そば打ち体験,,予約方法 : 電話予約,,,,,予約のみです,,,,
detail_2030,観光農園どんぐり山,かんこうのうえんどんぐりやま,"丹南,越前市",農業体験・フルーツ狩り,35.865242,136.062895,16,https://www.fuku-e.com/experience/detail_2030.html,https://www.fuku-e.com/lsc/upfile/spot/0000/2030/2030_1_l.jpg,自然とふれあえる体験型観光農園。県内で唯一各種のフルーツ狩りを楽しむことができ、自然を生かした体験ができる。さくらんぼにはオーナー制もあり。,ぶどう狩り:15名以上は要予約　　　　　　　さくらんぼ狩り:いずれの場合も要予約,2～3時間,,0778-28-1288（観光農園どんぐり山）,福井県越前市中山町11-1-1,"さくらんぼ狩り
6月上旬ごろ ~ 6月下旬ごろ

ぶどう狩り
8月上旬ごろ ~ 10月中旬ごろ
9:00~17:00",11月～4月末日,"・さくらんぼ狩り：小学生以上2,300円、3才以上1,000円 (※この価格で20分間お楽しみいただけます。)
・ぶどう狩り食べ放題：大人(中学生以上)1,300円、小学生以上800円、園児(3才以上)600円",北陸自動車道武生ICから車で30分,,http://www.donguriyama.jp/,,"さくらんぼ狩り
ぶどう狩り",,予約方法 : 予約専用番号　　　　　　　　　　　　　　　　　　　　　　080-4259-1288(受付12時～15時),,,,,"どんぐり山には、お客様に一本の木を選んでいただき、一年契約でその木からならば自由に摘果・収穫ができるオーナー制があります。
　あなたもオーナーになって、あなただけのフルーツを育ててみませんか？ たわわに実ったフルーツを、自分の手で収穫する喜びは格別ですよ！",,,,
detail_2031,タケフナイフビレッジ,たけふないふびれっじ,"丹南,越前市",ものづくり体験,35.887963,136.236553,16,https://www.fuku-e.com/spot/detail_2031.html,https://www.fuku-e.com/lsc/upfile/spot/0000/2031/2031_2_l.jpg,タケフナイフビレッジは13社の刃物会社が集まる越前打刃物の共同工房で、鍛冶や研ぎ職人の作業風景を無料で見学できる、全国でも珍しい産業観光総合施設です。越前打刃物の歴史紹介パネルや道具の展示のほか、2020年8月にOPENした新館では、ナイフや包丁、鎌…,"個人向けは1名より受付
団体は最低催行人数あり（要確認）",1〜6時間,,0778-27-7120（タケフナイフビレッジ協同組合）,福井県越前市余川町22-91,9:00~17:00,無休(年末年始は除く),"入場無料
体験料　600円～20,000円",北陸自動車道武生ICから車で10分,あり,http://www.takefu-knifevillage.jp/,,"（個人向け）包丁教室、研ぎ教室
（団体向け）ペーパーナイフ教室、キーホルダー教室、研ぎ教室",,"予約方法 : 個人向け　1週間前までにネットで予約
　　　　　団体向け　2週間前までに電話で予約",,,,受付時間 : 9時～17時,,,,,
detail_2032,越前和紙の里　パピルス館,えちぜんわしのさとぱぴるすかん,"丹南,越前市",ものづくり体験,35.9113244,136.2433045,16,https://www.fuku-e.com/spot/detail_2032.html,https://www.fuku-e.com/lsc/upfile/spot/0000/2032/2032_4_l.jpg,日本一の手すき和紙産地「越前和紙の里」を見学し、体験しよう。1500年の歴史のある紙すきの資料を一堂に展示した資料館「紙の文化博物館」で学び、伝統工芸士のワザを見ることのできる「卯立の工芸館」を見学し、「パピルス館」で世界に1枚しかない、あなた…,40～80名まで,120分,,0778-42-1363（パピルス館 0778-42-1363）,福井県越前市新在家町8-44,9:00~16:00,年末年始,"500円～
",JR武生駅から福鉄バス南越線「和紙の里」下車/北陸自動車道武生ICから車で10分,あり,http://www.echizenwashi.jp/features/papyrus.html,,紙漉き体験,,予約方法 : 電話・メールにて,,,,,,,,,
detail_2033,グラウンド・ゴルフ(清水植物園グラウンドゴルフ場),ぐらうんどごるふ,"あわら・坂井・福井市,坂井市",自然・スポーツ体験,36.2404787,136.1436646,16,https://www.fuku-e.com/experience/detail_2033.html,https://www.fuku-e.com/common/images/ogImg.png,全面天然芝72ホールの自然豊かなコース。当コースは植物園内にあるので、年間を通して水仙やしゃくなげ、桜などの木々や花々が楽しめます。その他、しゃくなげ園(4月20日～5月20日)や植木の展示即売場などがあり、ガーデニングが好きな方も楽しめます。,,2時間～5時間,,"0776-82-4128（株式会社清水植物園
FAX 0776-82-1893）",福井県坂井市三国町崎62-9,"8:30~17:00(要予約)
",無休(積雪がある場合は休館),"大人800円(福井県グラウンドゴルフ協会員の方500円)
小人(小学生以下)500円
貸し用具 クラブ100円　ボール100円",金津ICから車で17分/東尋坊から車で5分/加賀ICから車で30分,あり,https://yume-ki.com/groundgolf/,,,,予約方法 : 15名以上の団体は与作が必要TEL又はメール,50,可,,,当ゴルフ場は、(社)日本グラウンド・ゴルフ協会　の認定コースです　,,,,
detail_2034,大本山永平寺　参籠研修坐禅体験参禅・写経体験は、現在感染症対策の為休止中,だいほんざんえいへいじさんろうけんしゅうしゃきょうたいけん,"永平寺・奥越,永平寺町",歴史・文化体験,36.055686,136.355425,16,https://www.fuku-e.com/experience/detail_2034.html,https://www.fuku-e.com/lsc/upfile/spot/0000/2034/2034_1_l.jpg,参籠研修:修行僧の1日体験です。お寺に宿泊し、坐禅や朝課を体験していただきます。写経体験:姿勢を正しく、心静かに無心にお教を写していただく。ただそれだけで写経の功徳がいただけます。お手本は3種類。あなたにあった写経をどうぞ。,,2時間　(1時間コ-スあり),,0776-63-3102（大本山永平寺 総受処 0776-63-3102）,福井県永平寺町志比,お問い合せ下さい,無休,お問い合わせ下さい。,福井駅東口から京福バス「特急永平寺ライナー」で直通約30分/えちぜん鉄道福井駅から勝山永平寺線で「永平寺口駅」下車、京福バス「永平寺門前行」または「永平寺行」に乗り換えて終点下車、徒歩5分。(総計で約45分)/北陸自動車道福井北ICから中部縦貫道(無料区間)で永平寺参道IC下車、国道364号経由で車で15分。　,,https://daihonzan-eiheiji.com/,,"参籠研修
写経体験",,予約方法 : 電話にて,,,永平寺半杓橋近くにコインパーキング,,,,,,
detail_2035,そばの郷　池田屋,そばのさといけだや,"丹南,池田町",食品づくり体験,35.860261808938105,136.36513592883605,18,https://www.fuku-e.com/spot/detail_2035.html,https://www.fuku-e.com/lsc/upfile/spot/0000/2035/2035_1_l.jpg,※新型コロナウイルス感染拡大防止の為、当面の間体験の受入を中止します（2022年3月記）職人さんが本格的なそばの打ち方を丁寧に教えてくれます。福井名物「おろしそば」を自分の手で作って味わってみませんか。出来上がりがちょっと不格好でも味は格別です…,1～40人,1時間半～2時間,,0778-44-6878（そばの郷　池田屋）,福井県池田町土合皿尾14-7-1,10:00~17:00,火曜日、年末年始,"■そば打ち:3人まで1台3,300円(6皿分)で、4人目以降は1人増えるごとにプラス300円
■餅つき:1臼(白丸餅約20個分)あたり3,000円で、おろし餅・きなこ餅はプラス500円、豆餅・草餅はプラス1,000円、栃餅はプラス2,500円",北陸自動車道「武生IC」または「鯖江IC」から車で35分/北陸自動車道「福井IC」から車で40分,あり,http://fukui-ikedaya.sakura.ne.jp/,,"そば打ち
餅つき",,予約方法 : 電話予約,30,,,,,,,,
detail_2036,魚見手作りこんにゃく道場,うおみてづくりこんにゃくどうじょう,"丹南,池田町",食品づくり体験,35.8444531,136.2728755,16,https://www.fuku-e.com/experience/detail_2036.html,https://www.fuku-e.com/lsc/upfile/spot/0000/2036/2036_1_l.jpg,所要時間は約2時間。練って練って、さあ練って！歯ごたえ抜群の昔ながらの魚見流手作りこんにゃくに挑戦してみませんか。エプロン、三角巾はご持参ください。1週間前までに要予約。,4～25人,約1時間,,0778-44-6756（魚見手作りこんにゃく道場）,福井県池田町魚見13-6-1,夏季9:00～､冬季10:00～,不定休(希望日の1週間前までにご予約下さい),"こんにゃく作り体験　1人　中学生以上1,500円、小学生以下1,000円(体験料、おみやげ付)",北陸自動車道「武生IC」から車で30分/北陸自動車道「鯖江IC」から車で35分/北陸自動車道「福井IC」から車で45分/,あり,http://www.e-ikeda.jp/meet/p004050.html,,こんにゃく作り,4人,予約方法 : 電話予約,10,,,,※上記電話が不在で繋がらない場合は、いけだ農村観光協会(0778-44-8060)にお問い合わせください。,,,,
detail_2038,ウッドラボいけだ,うっどらぼいけだ,"丹南,池田町",自然・スポーツ体験,35.890434143407944,136.339335224823,16,https://www.fuku-e.com/spot/detail_2038.html,https://www.fuku-e.com/lsc/upfile/spot/0000/2038/2038_1_l.jpg,2020年10月に移転オープン。池田町の「木望のまちプロジェクト」の一環で作られた木工体験施設。ものづくりを始めたい初心者から、より深く楽しみたい熟練者まで、様々なかたちでものづくりが楽しめるコースが用意されています。,1～20人程度,30分～2時間（体験により異なる）,ウッドラボいけだ,0778-44-6270（ウッドラボいけだ）,福井県池田町池田9-6-1,9:00~17:00,水曜日、年末年始,"手書きキーホルダー作り800円、寄木キーホルダー作り800円、メッセージボート作り1,000円～、時計作り1,800円、カッティングボード作り2,000円～。※体験は事前要予約。
この他、お好きな作品を作るDIY利用(4時間1,000円)もできます。詳しくはお問い合わせください。",北陸自動車道「武生IC」または「鯖江IC」から車で30分/北陸自動車道「福井IC」から車で35分,あり,https://ikeda-kibou100.jp/project/woodlabo/,,木工クラフト,"1名
",予約方法 : 電話予約,20,,,随時受付,,,,,
detail_2039,今庄そば道場,いまじょうそばどうじょう,"丹南,南越前町",食品づくり体験,35.7495502,136.2030182,16,https://www.fuku-e.com/experience/detail_2039.html,https://www.fuku-e.com/lsc/upfile/spot/0000/2039/2039_1_l.jpg,そば通をうならせる今庄の「そば」は、厳しい自然と風土の中で丹念に栽培されています。今庄そば道場では、石臼でひいた純正のそば粉と天然の山芋を合わせ、湧き水で打つ本格そば打ちが体験できます。自分で打ったそばのおいしさは、絶品です。子供から大人…,,①11月～2月の平日のみ。所要時間約3．5時間。7時集合出発～10:30頃終了②所要時間約3時間。午前09:00～12:00頃　午後13:30～16:30頃③所要時間約3．5時間。10:00～13:00頃終了④所要時間約3時間。午前08:00～11:00頃、午後14:00～17:00頃⑤所要時間約3.5時間。午前08:00～11:30頃、午後13:30～17:00頃⑥所要時間約3.5時間。午前08:00～11:30頃、午後13:30～17:00頃,,"0778-45-1385（今庄そば道場
0778-45-1385）",福井県南越前町大門10-3-1,第1回10:00､第2回14:00~,毎週火曜日(火曜日が祝祭日のときはその翌日)・年末年始,"1こね2,000円(税別)",JR今庄駅から町営バス広野・孫谷行き「大門」下車徒歩2分/北陸自動車道今庄ICから車で15分,,,,,,予約方法 : 事前電話予約,,,,,,,,,
detail_2040,リトリートたくら,りとりーとたくら,"丹南,南越前町",食品づくり体験,35.792174,136.267202,16,https://www.fuku-e.com/experience/detail_2040.html,https://www.fuku-e.com/lsc/upfile/spot/0000/2040/2040_1_l.jpg,そば打ちの体験が楽しめる、自然に囲まれた施設です。館内にはそば作りの道具を展示してあるそば資料館やレストランがあり、外にはバーベキュー舎やモダンなコテージもあり、心からリラックスできます。,,30分～1時間,,"0778-45-1310（リトリートたくら
0778-45-1310）",福井県南越前町古木59-52,第1回10:00~､第2回13:30~､第3回14:30~,毎週水曜日・年末年始,,北陸自動車道今庄ICから車で20分,,http://www.r-takura.com/contents/retreat/index.html,,そば打ち体験,,予約方法 : 事前電話予約,,,,,,,,,
detail_2042,泰澄の杜ぶどう園,たいちょうのもりぶどうえん,"丹南,越前町",農業体験・フルーツ狩り,35.9975127,136.0935598,16,https://www.fuku-e.com/experience/detail_2042.html,https://www.fuku-e.com/lsc/upfile/spot/0000/2042/2042_2_l.jpg,温泉、宿泊施設などを備えた「泰澄の杜」にぶどう園が併設されています。8月中旬から9月下旬にかけてデラウェア、巨峰といったぶどうが次々と実をつけ、ぶどう狩りを楽しむことができます。ぶどう棚の下に入ればそこは日陰になっており、夏でも涼しい風が通…,お問い合わせ下さい,およそ90分(個人差あります),,0778-34-2322（泰澄の杜）,福井県越前町小倉88-55-1,"開園期間 8月中旬~9月下旬
9時~16時(最終体験ｽﾀｰﾄ時間14:50)","毎週火曜日
※8月9日、8月16日は営業","大人1800円
小学1000円
幼児800円
※60分制　(団体割引:10名様以上)",JR福井駅前から京福バス織田行き「泰澄の杜」下車すぐ/北陸自動車道鯖江ICから車で35分,あり,http://taichou-no-mori.jp/index.html,,ぶどう狩り,,予約方法 : 電話・ホームページ,,,,受付時間 : 10時～16時,　ホームページまたはお電話での事前予約制となっております。,,,,
detail_2043,いか釣り体験,いかつりたいけん,"丹南,越前町",漁業体験・魚釣り,35.9816516,135.9583014,16,https://www.fuku-e.com/experience/detail_2043.html,https://www.fuku-e.com/lsc/upfile/spot/0000/2043/2043_2_l.jpg,越前岬の沖でイカの夜釣りを体験できます。たくさん釣ってお土産に持って帰りましょう。,,約3時間,,0778-37-1234（(一社)越前町観光連盟 ）,福井県越前町(越前海岸),"【電話予約】9:00～17:00
【ネット予約】24時間受付
※3日前までに要予約",,"1人 8,000円",北陸自動車道敦賀IC、武生IC、鯖江ICから約45分,,https://www.town-echizen.jp/locotabi/archives/product/202004_006,,イカ釣り体験,,"料金は事前にクレジットカード払いにてお支払いください（VISAまたはMasterCardのみ）
※クレジットカード払いが出来ない場合はご相談ください",,,,4月～10月頃,,,,,
detail_2044,越前町織田陶房  「わづみ館」,えちぜんちょうおたとうぼうわづみかん,"丹南,越前町",ものづくり体験,35.9480676,136.0556426,16,https://www.fuku-e.com/experience/detail_2044.html,https://www.fuku-e.com/lsc/upfile/spot/0000/2044/2044_1_l.jpg,町営陶房「わづみ館」は、大人から子供まで陶芸を楽しめる体験型施設。当館の陶芸教室では一度に40人まで作品作りが可能です。日展の若手陶芸作家が親切にお教えします。世界でたった一つしかないオリジナル作品をつくりましょう。,一度に40名,,,0778-36-1922（町営陶房「わづみ館」）,福井県越前町下河原 37-42-1,9:00~17:00,不定休,"体験料：1,570円(粘土1kg)",JR武生駅からかれい崎行き福鉄バス「平等口」下車徒歩5分/北陸自動車道武生または鯖江ICから車で30分,あり,http://www.town-echizen.jp/spot/spot01Detail.php?421,,陶芸製作コ-ス,,予約方法 : 電話もしくはメールにて,15,,,受付時間 : 9:00～17:00,,,,,
detail_2045,すいせん研修館・水仙押し花体験,すいせんけんしゅうかん,"丹南,越前町",ものづくり体験,35.98458,135.961134,16,https://www.fuku-e.com/experience/detail_2045.html,https://www.fuku-e.com/lsc/upfile/spot/0000/2045/2045_1_l.jpg,寒風吹きすさぶ越前の丘に、たくましく花開く越前水仙。この越前水仙の押し花を使い、オリジナルのコースター、しおりなどを作ることができます。,5名以上,,,0778-37-2277（すいせん研修館）,福井県越前町左右,18:00~21:30ごろ,月曜日,500円～,JR福井駅から越前岬行き京福バス「左右」下車徒歩3分/北陸自動車道敦賀ICから60分、武生または鯖江ICから車で40分,,,,水仙押し花体験,,予約方法 : 要予約(電話),,,,,,,,,
detail_2046,スキューバダイビング,すきゅーばだいびんぐ,"丹南,越前町",自然・スポーツ体験,35.9816516,135.9583014,16,https://www.fuku-e.com/experience/detail_2046.html,https://www.fuku-e.com/lsc/upfile/spot/0000/2046/2046_1_l.jpg,簡単に気軽に海中を楽しみたい方、ぜひご参加ください。陸上では味わえない浮遊感、普段は見ることのない魚たち、透き通る海中に差し込む幻想的な光など、想像できないようなすばらしい世界が体験できます。,1人～,,,問合せ：0778-37-1234（越前町観光連盟 ）,福井県越前町(梅浦､厨､米ノ),,無休(天候により実施できない日があります。),"10,000円～",JR武生駅からかれい崎行きバスで1時間/北陸自動車道敦賀ICから車で40分、武生IC、鯖江ICから車で40分,,http://diving-echizen.com/,,ダイビング体験,,予約方法 : 各ダイビングショップに直接予約(電話・ＨＰ),,,,,,,,,
detail_2047,福井県陶芸館　陶芸教室,ふくいけんとうげいかんとうげいきょうしつ,"丹南,越前町",ものづくり体験,35.9348832,136.0582678,16,https://www.fuku-e.com/experience/detail_2047.html,https://www.fuku-e.com/lsc/upfile/spot/0000/2047/2047_1_l.jpg,越前陶芸村には、平安末期より焼き継がれてきた歴史ある越前焼の体験ができる施設があります。,お問い合わせ下さい。,,,0778-32-2174（福井県陶芸館）,福井県越前町小曽原120-61,"電動ろくろ体験 9:00~15:00
手ひねり体験  9:00~15:00
絵付け体験   9:00~16:00",月曜日,"電動ろくろ体験
　お1人様:3,000円(1作品焼成費込み)
　　　　　　※追加料金1000円で2作品目を焼成できます。

手ひねり体験
　お1人様:1,500円

絵付け体験
 　 フリーカップ   600円 
 　 皿             700円 
　  ご飯茶碗       900円 
　  おろしそば鉢 1,000円 
　  マグカップ   1,100円 ",JR武生駅からかれい崎行き福鉄バスで30分、「陶芸村口」下車後、徒歩10分/北陸自動車道武生または鯖江ICから車で30分,あり,https://www.tougeikan.jp/kyoshitsu.html,,"電動ろくろ体験
手ひねり体験
絵付け体験",,予約方法 : 電話もしくはＨＰから,,,,,※作品が完成するまでは約40日かかります。完成した作品は、ご自宅への配送も承ります。(着払いのみ),,,,
detail_2048,大谷原(おおたんばら)のイモ掘り,おおたんばらのいもほり,"若狭路,美浜町",農業体験・フルーツ狩り,35.562312,135.973906,16,https://www.fuku-e.com/experience/detail_2048.html,https://www.fuku-e.com/lsc/upfile/spot/0000/2048/2048_1_l.jpg,新庄の大谷原(おおたんばら)ではサツマイモの観光掘り取り園を開園しています。新鮮な空気の中で、イモ掘りが体験できます。良質の赤土、低農薬で作られたサツマイモは、甘くて美味です。 (掘っていただいたイモはお買い上げ願います。),,,大谷原いもほり園,0770-32-3378（農事組合法人　新庄わいわい楽舎　0770-32-3378）,福井県美浜町新庄13-5,9:00~16:00,,"入場料：未就学児無料、小学生100円/人、大人(中学生以上)250円/人
体験料：掘り取り価格:1ｋｇ400円","舞鶴若狭自動車道　若狭美浜ICより車で約15分
",,,,イモ掘り,,予約方法 : TEL 0770-32-3378,,,,"10月
（9:00〜16:00）",,,,,
detail_2049,農林業体験,のうりんぎょうたいけん,"若狭路,美浜町",農業体験・フルーツ狩り,35.60053,135.9405428,16,https://www.fuku-e.com/experience/detail_2049.html,https://www.fuku-e.com/common/images/ogImg.png,例．田植え体験米どころで代々米作りを続けている農家インストラクターが昔ながらの手法により行う田植え体験を通して、農家の楽しさ、喜び、苦労などを感じてください。腰をかがめての作業は大変ですが、終わった後は達成感を得ることができます。※その他農…,（一社）COLORsプラスへお問い合わせください,,,0770-32-2222（（一社）COLORsプラス）,福井県美浜町例.田植え体験 美浜町内の圃場※体験の種類により異なります｡詳細は､若狭美浜はあとふる体験推進協議会へお問い合わせください,"例.田植え体験
 9:00~17:00

※体験の種類により異なります｡
詳細は､（一社）COLORsプラスへお問い合わせください｡",,（一社）COLORsプラス（0770-32-2222）へお問い合わせください,"※体験の種類により異なります。
詳細は、（一社）COLORsプラスへお問い合わせください",,https://tabikobo-jpn.com/education/education.html,,農林業体験,,"予約方法 : TEL 0770-32-2222
FAX 0770-32-6667",,,,受付時間 : 随時,"例．田植え体験
用意するもの
服装:動きやすく汚れてもいい服装・タオル・帽子・カッパ",,,,
detail_2050,漁業体験,ぎょぎょうたいけん,"若狭路,美浜町",漁業体験・魚釣り,35.712812,135.971173,16,https://www.fuku-e.com/experience/detail_2050.html,https://www.fuku-e.com/lsc/upfile/spot/0000/2050/2050_1_l.jpg,例．大敷網体験・食体験ベテランの漁師と一緒に漁船に乗って本格的な大敷網漁業が体験でき、海の上の楽しい思い出が作れます。また、採れた魚は班に分かれ調理します。採れたての魚のおいしさや旬の魚の調理法を知ることで食に対する理解が深まります。※その…,（一社）COLORsプラスへお問い合わせください,,,0770-32-2222（（一社）COLORsプラス）,福井県美浜町例.大敷網体験･食体験 美浜町丹生※体験の種類により異なります｡詳細は､若狭美浜はあとふる体験推進協議会へお問い合わせください,"例.大敷網体験･食体験
 4月中旬~10月中旬 4:00~7:00
 ただし､海水浴シーズン(7月上旬~8月中旬)は休みです｡

※体験の種類により異なります｡
詳細は､（一社）COLORsプラスへお問い合わせください｡
",,（一社）COLORsプラス（0770-32-2222）へお問い合わせください,"※体験の種類により異なります。
詳細は、（一社）COLORsプラスへお問い合わせください",,https://tabikobo-jpn.com/education/education.html,,漁業体験,,"予約方法 : TEL 0770-32-2222
FAX 0770-32-6667",,,,受付時間 : 随時,"例．大敷網体験・食体験
※用意するもの
服装:動きやすく汚れてもいい服装・タオル・エプロン",,,,
detail_2051,自然・アウトドア体験,しぜん・あうとどあたいけん,"若狭路,美浜町",自然・スポーツ体験,35.599613,135.913386,16,https://www.fuku-e.com/experience/detail_2051.html,https://www.fuku-e.com/lsc/upfile/spot/0000/2051/2051_1_l.jpg,例．ボート体験ボートはチームワークが求められるスポーツ。一人が力んでも、もちろん怠ってもうまく進みません。漕ぎ手4人がコックス(船長)の掛け声に合わせ、呼吸が一つになったとき初めて湖面を滑るように進みます。練習後は、正式なコースで500ｍのレー…,（一社）COLORsプラスへお問い合わせください,,,0770-32-2222（（一社）COLORsプラス）,福井県美浜町例.ボート体験 美浜町県立久々子湖ボートコース※体験の種類により異なります。詳細は、若狭美浜はあとふる体験推進協議会へお問い合わせください,"例.ボート体験
 9:00~17:00

※体験の種類により異なります｡
詳細は､（一社）COLORsプラスへお問い合わせください｡",,（一社）COLORsプラス（0770-32-2222）へお問い合わせください,"※体験の種類により異なります。
詳細は、（一社）COLORsプラスへお問い合わせください",,https://tabikobo-jpn.com/education/education.html,,自然・アウトドア体験,,"予約方法 : TEL 0770-32-2222
FAX 0770-32-6667",,,,受付時間 : 随時,,,,,
detail_2052,座禅体験,ざぜんたいけん,"若狭路,高浜町",歴史・文化体験,35.481641,135.509927,16,https://www.fuku-e.com/experience/detail_2052.html,https://www.fuku-e.com/common/images/ogImg.png,大成寺は、若狭でも数少ない臨済宗建仁寺派の中本山です。自然豊かなで静かなお寺で座禅体験ができます。また、事前予約で住職の説法も聞いていただく事ができます。(要予約),4～40名,,,0770-72-3089（0770-72-3089）,福井県高浜町日置31-3,,　,無料,JR小浜線青郷駅から徒歩17分/舞鶴若狭自動車道大飯高浜ICから車で2015分,あり,http://daijoji.net/,,大成寺座禅体験,,予約方法 : 電話,10,,,,,,,,
detail_2053,きのこの森陶芸館,きのこのもりとうげいかん,"若狭路,おおい町",ものづくり体験,35.468329,135.588654,16,https://www.fuku-e.com/experience/detail_2053.html,https://www.fuku-e.com/lsc/upfile/spot/0000/2053/2053_1_l.jpg,「きのこの森」の中に穴窯の遺跡が見つかったことを記念して建てられた陶芸館で作陶、絵付けの体験ができます。,"40人まで
但し、電動ロクロコースは
2～8人のグループ",,,0770-78-1714（きのこの森陶芸館）,福井県おおい町鹿野(きのこの森内)42-27,午前の部:10:00~12:00                                                                                                                                                                              午後の部:13:30~15:00,月曜日・木曜日,"入場料：清掃協力金として 大人200円、小人100円(3歳以上中学生以下)　※きのこの森の入場料に同じ
体験料：内容により、料金は異なる",JR若狭本郷駅から川上行き福鉄バス「小車田」下車すぐ/ 舞鶴若狭自動車道大飯高浜ICから3分、小浜西ICから20分,あり,,,"●作陶コース　●絵付けコース　●電動ロクロ体験コース
●別途　継続陶芸教室あり",,予約方法 : お電話にてお問い合わせください。,可,可,バス・普通自動車合わせて200台,受付時間 : 10:00～15:30,作品の仕上がりは、1カ月～1カ月半後となります。直接取りに来て頂くか、着払いにて送らせていただきます。詳しくはお電話にてお問い合わせください。,,,,
detail_2054,八ヶ峰家族旅行村,はちがみねかぞくりょこうむら,"若狭路,おおい町","ものづくり体験,自然・スポーツ体験",35.359644,135.683751,16,https://www.fuku-e.com/experience/detail_2054.html,https://www.fuku-e.com/lsc/upfile/spot/0000/2054/2054_1_l.jpg,木工・竹細工・川魚釣り・川魚つかみ・鱒の産卵・林業体験等の体験が可能です。,"竹細工10～20人
川魚つかみ1人～
林業体験10～20人",,,0770-67-2844（八ケ峰家族旅行村）,福井県おおい町名田庄染ヶ谷6-8,9:00~15:30,無休,"入村料：小学生以上400円
体験料：竹細工1,000～1,500円、川魚釣り1,800円～、川魚つかみ1匹300円～、鱒の産卵500円～、林業体験1人2,000円",舞鶴若狭自動車道小浜ICから40分、大飯高浜ICから50分,あり,http://hachigamine.jp/,,"木工体験、竹細工
川魚釣り、川魚つかみ
鱒の産卵、林業体験",,予約方法 : 詳細についても、電話にてお問い合わせ下さい,30,,,,,,,,
detail_2055,福井県こども家族館,ふくいけんこどもかぞくかん,"若狭路,おおい町","ものづくり体験,食品づくり体験,歴史・文化体験",35.4812881,135.6280528,16,https://www.fuku-e.com/experience/detail_2055.html,https://www.fuku-e.com/lsc/upfile/spot/0000/2055/2055_1_l.jpg,ものづくりやクッキングが体験できる工房ゾーン、大型帆船での冒険や日本最大級のボールプールが楽しめるあそび探検ゾーン、乳幼児連れの親子が安心して遊びくつろげる交流ゾーン、子どもたちを家族館の世界へと導くエントランスゾーンなど、遊び・学び・体…,"ものづくり工房:40作品(内容によって変更あり)
クッキング工房:32人(内容によって変更あり)",,,0770-77-3211（福井県こども家族館）,福井県おおい町成海1-1-1,9:30~17:00 (夏休み期間中 7/21~8/31 9:30~18:00),月曜日(祝日を除く)、祝日の翌日(土日祝日を除く)、年末年始(夏休み期間中は無休),"入場料：無料(あそび探検ゾーンは大人210円、小中高生100円)
体験料：ものづくり工房:有料(プログラム内容による)、クッキング工房:有料(プログラム内容による)",JR若狭本郷駅から車で5分、徒歩15分/舞鶴若狭自動車道小浜西ICから6分、大飯高浜ICから15分,あり,https://www.kodomokazokukan.jp/,,"ものづくり工房:プログラムは毎月変更
クッキング工房:プログラムは毎月変更",,予約方法 : 電話、インターネット又は総合案内へ直接申し出,70,10,,受付時間 : 8:45～17:30,,,,,
detail_2056,若狭パールMAMIYA(間宮真珠養殖場),わかさぱーるまみやまみやしんじゅようしょくじょう,"若狭路,おおい町",ものづくり体験,35.4912818,135.6225475,16,https://www.fuku-e.com/experience/detail_2056.html,https://www.fuku-e.com/lsc/upfile/spot/0000/2056/2056_1_l.jpg,日本最北端の養殖場、若狭の海での冬の寒さが生み出す海水の温度差が、きめの細かい深い光沢を持った真珠を作り出し若狭パールならではの美しさが生まれます。アクセサリーの手作り体験では自分で真珠を選び、ペンダントやピアス、ブローチ、タイピンなどを…,1人～最大20人前後,,,0770-77-0432（(有)間宮真珠養殖場）,福井県おおい町犬見31-28,10:00~17:00 ※体験の場合は15:30までに来店下さい｡,年末年始(12月28日～1月3日),"入場料：無料
体験料：使用した真珠及び金具代","JR若狭本郷駅から車で8分/舞鶴若狭自動車道小浜西ICから8分、大飯高浜ICから18分
",あり,http://www.mamiya.ac/,,手作り体験コーナー,,予約方法 : 少人数(5～6人まで)であれば予約なしでOK。団体の場合は予めTELでご連絡下さい。,20,,,受付時間 : 10:00～17:00　※直接来店の場合は15:30まで,新型コロナウイルス感染症対策のため変更がある場合あり、詳しくは電話にてお問い合わせください。,,,,
detail_2057,岩屋観光梨狩り園,いわやかんこうなしがりえん,"若狭路,若狭町",農業体験・フルーツ狩り,35.5098771,135.8945563,16,https://www.fuku-e.com/experience/detail_2057.html,https://www.fuku-e.com/lsc/upfile/spot/0000/2057/2057_1_l.jpg,甘さたっぷりのみずみずしい梨狩りを楽しめます。秋の味覚食べ放題、友達や家族と共にご賞味ください。(8月中旬~9月中旬 気候により異なる),,,,0770-45-0399（岩屋観光梨狩り園　7号園　澤）,福井県若狭町岩屋,9:00~16:30,,入場料：大人(中学生以上)800円、小人(4歳から小学生)500円,JR十村駅から徒歩10分/舞鶴若狭自動車道若狭三方IC、若狭上中ICから車で10分,あり,,,,,,,,,,,,,,
detail_2058,かみなか農楽舎,かみなかのうがくしゃ,"若狭路,若狭町",農業体験・フルーツ狩り,35.47979,135.893253,16,https://www.fuku-e.com/experience/detail_2058.html,https://www.fuku-e.com/lsc/upfile/spot/0000/2058/2058_1_l.jpg,野菜の収穫、稲刈り、加工体験等年間を通して様々なイベント、農業体験を行います。,メニューにより異なります、お問い合わせ下さい。,,,0770-62-2125（かみなか農楽舎）,福井県若狭町末野(農村総合公園),8:00~17:00,,メニューにより異なります、お問い合わせ下さい。,舞鶴若狭自動車道若狭上中ICから車で約15分,あり,http://www.nouson-kaminaka.com/,,"・田植え
・稲刈り
・サツマイモ掘り
・そば打ち
・餅つき　等",,予約方法 : 電話、ファックス、メールのいずれかで、開催3日前までにお申込み下さい。,,,,,,,,,
detail_2059,能登野いも掘り園,のとのいもほりえん,"若狭路,若狭町",農業体験・フルーツ狩り,35.514989,135.905629,16,https://www.fuku-e.com/experience/detail_2059.html,https://www.fuku-e.com/lsc/upfile/spot/0000/2059/2059_1_l.jpg,甘くておいしいさつまいも堀りを体験することができます。,,,,0770-45-1924（能登野里山営農組合）,福井県若狭町能登野,10:00~16:00(9月下旬~10月下旬),土日祝日以外,体験料：1株250円,北陸自動車道敦賀ICから車で30分/舞鶴若狭自動車道小浜ICから車で30分,あり,http://www.wakasa-mikatagoko.jp/search/entry/tourism-019.html,,,,,,,,,,,,,
detail_2060,大敷網漁見学体験,おおしきあみりょうけんがくたいけん,"若狭路,若狭町",漁業体験・魚釣り,35.555743,135.909545,16,https://www.fuku-e.com/experience/detail_2060.html,https://www.fuku-e.com/lsc/upfile/spot/0000/2060/2060_1_l.jpg,漁師さんと一緒に早朝漁船に乗り込み、定置網漁の仕事の様子を見学することができます。魚が水揚げされる様子は迫力満点です。,２５名まで,,,0770-45-0113（(一社)若狭三方五湖観光協会）,福井県若狭町世久見,4月~11月,,,JR三方駅から車で10分/舞鶴若狭自動車道 三方五湖スマートICから車で約10分,あり,,,大敷網漁見学体験,,予約方法 : 電話、ファックス、メール,,,,,,,,,
detail_2061,カヤック,かやっく,"若狭路,若狭町",自然・スポーツ体験,35.5879113,135.8641548,16,https://www.fuku-e.com/experience/detail_2061.html,https://www.fuku-e.com/lsc/upfile/spot/0000/2061/2061_1_l.jpg,＊ジャングル気分満喫！三方五湖・浦見川コース(4ｈ):三つの湖をのんびりと巡るコース！初心者の方ももちろん大丈夫です。のんびりと三方五湖を満喫したい方におすすめです。＊気分爽快！若狭・リアス式海岸満喫コース！(4ｈ):爽やかな潮風を受けながら、若…,プログラムによって異なる,,,0770-47-1008（自然に大の字あそぼーや）,福井県若狭町海山64-9-1,4hコース:11:00~15:00,不定休(要予約),体験料：プログラムによって異なる,JR三方駅から常神行きバス「海山」下車徒歩1分/舞鶴若狭自動車道 三方五湖スマートICから車で約15分/舞鶴若狭自動車道上中ICから車で20分,あり,http://www.pamco-net.com/asobo-ya/,,プログラムによって異なる,,予約方法 : 電話,,,,受付時間 : 9:00～18:00,,,,,
detail_2062,須恵野創作館,すえのそうさくかん,"若狭路,若狭町",ものづくり体験,35.4813729,135.8915699,16,https://www.fuku-e.com/experience/detail_2062.html,https://www.fuku-e.com/lsc/upfile/spot/0000/2062/2062_1_l.jpg,"良質の陶土が豊富で約1,000年前より須恵器の産地として知られてきた末野の地の素材の力強さを漂わせる須恵野焼の作陶体験ができます。",―,,,0770-62-0594（須恵野創作館）,福井県若狭町末野42-21,9:00~17:00,"不定休
年末年始",体験料：1500円(1人あたり1kgの土),北陸自動車道敦賀ICから車で45分/舞鶴若狭自動車道小浜ICから車で30分,あり,,,―,,予約方法 : 電話,,,,受付時間 : ―,,,,,
detail_2063,敦賀湾釣り体験,つるがわんつりたいけん,"若狭路,敦賀市",漁業体験・魚釣り,35.6765593,136.0312878,13,https://www.fuku-e.com/experience/detail_2063.html,https://www.fuku-e.com/lsc/upfile/spot/0000/2063/2063_1_l.jpg,波穏やかな敦賀湾で釣り体験が出来ます。春のキス釣りから夏秋の五目釣りまで初心者や女性の方でも安心簡単に釣りが楽しめます。どんな魚が釣れるかな？それは季節ごとにお楽しみ。餌付き竿セットをご用意していますので手ぶらでもOK！もちろん釣れた魚はす…,,,,0770-23-7818（海辺の宿長兵衛　0770-23-7818）,福井県敦賀市名子43-3 海辺の宿長兵衛,日の出~日没(季節による),年末年始　悪天候の場合臨時休業,貸し竿フルセット(リール付竿・餌他) ※詳しくはお問い合わせください。,JR敦賀駅からコミュニティバス「常宮線」で「名子」下車/北陸自動車道敦賀ICから車で約20分,あり,https://www.choubei.jp/,,,,予約方法 : 電話にて予約,60,可,,"受付時間 : 9:00～
19:00",お食事処で海鮮ランチ、炭火焼海鮮ＢＢＱ(5～10月)も楽しめます。貸し竿フルセット2000円餌道具類は自前のをご持参いただく方がイイです。宿なので泊って釣り三昧プランもご用意できます。,,,,
detail_2064,三味線体験,しゃみせんたいけん,"あわら・坂井・福井市,坂井市",歴史・文化体験,36.2141976,136.1485835,14,https://www.fuku-e.com/experience/detail_2064.html,https://www.fuku-e.com/lsc/upfile/spot/0000/2064/2064_1_l.jpg,三国湊きたまえ通りにある、三味線の演奏と江戸小唄が流れる粋なお店。抹茶をいただきながら、江戸小唄の演奏を聴くことができます。座敷では三味線の演奏体験をすることもでき、「みくに湊は粋かいな」と言われた、三国湊の艶っぽさに感じることができる楽…,5名,,,"090-4686-8108（江戸小唄 竹よし
メール edokouta@takeyoshi.com
0776-82-0120）",福井県坂井市三国町北本町4-4-22北前通り,8:30~16:30,不定休,"三味線体験コース　20分1,000円30分1,500円
江戸小唄ライブ(三曲+お抹茶)コース　1,000円",えちぜん鉄道三国駅から徒歩約5分,あり,http://takeyoshi.com/,,三味線弾き,,予約方法 : 電話にて,2,,,,"江戸小唄ライブ　　1,000円(3曲の演奏・抹茶つき)
三味線の演奏体験　1,000円(20分・曲は「さくらさくら」など)",,,,
detail_2065,今庄おとと村,いまじょうおととむら,"丹南,南越前町",自然・スポーツ体験,35.8150291,136.2997984,14,https://www.fuku-e.com/experience/detail_2065.html,https://www.fuku-e.com/lsc/upfile/spot/0000/2065/2065_1_l.jpg,今庄おとと村では、自然を満喫できる清流で　イワナ・ニジマス釣り、さかなのつかみ取りが楽しめます。釣り上げた魚はその場で炭焼きにて、お召し上がりになれます！,お問い合わせ下さい。,,,"0778-45-0413（今庄おとと村
0778-45-0413）",福井県南越前町杣木俣,4~11月の土曜･日曜､祝祭日 9:00~16:00(平日は予約営業となっております｡お電話にてご確認ください)※新型コロナウイルスの流行状況により営業を中止する場合があります｡,,"おとと釣り
大人3,000円［税込］(10匹まで)
子供2,500円［税込］(10匹まで)
餌(追加)300円［税込］
竿(追加)200円［税込］
糸切れ100円［税込］
おととつかみ取り
イワナ(1匹)500円［税込］
ニジマス(1匹)400円［税込］
(おととを1匹単位で購入していただきます。)",今庄ICから約15km,,,,イワナ・ニジマス釣り、さかなのつかみ取り,,"予約方法 : 電話
",,,,,,,,,
detail_2066,KEiS庵,けいずあん,"若狭路,小浜市",ものづくり体験,35.522723,135.7516889,14,https://www.fuku-e.com/experience/detail_2066.html,https://www.fuku-e.com/lsc/upfile/spot/0000/2066/2066_1_l.jpg,沖縄で修業した庵主が、地元　福井県小浜市でＯＢＡＭＡガラスを作っています。カラフルなガラス雑貨を実際に作っている所をご覧頂けます。工房内で展示販売しており、体験やオーダーもＯＫ。あなたも世界でひとつの、自分のオリジナルガラス作品を作ってみ…,吹きガラス以外であれば同時に15人可能、それ以上であれば出張対応も可(要問合せ),,,090--37-1431（HPのお問い合わせフォーム、もしくは電話(午後以外)でお願いします。）,福井県小浜市福谷9-8-2,10:00~17:00,毎週水曜日・木曜日(お電話でご相談頂ければ対応可),"入場料：無料
体験料：
①フォトフレーム:800円
②ドアプレート:800円
③キャンドルホルダー:800円
④BIGミラー:980円
⑤マグネットボード:980円
⑥フットランプ:1,500円
⑦LEDランプ:1,200円
⑧時計:1,980円
⑨絵付(グラスや皿):商品代＋300円　　　　　　　　　
⑩夏季限定風鈴絵付け:800円
⑪時計、額縁(電気炉):3,500円~(要相談)
⑫吹きガラス(秋以降のみ※現在新型コロナウィルスの影響により吹きガラスの体験は休止させて頂いております。再開の予定はHPにてお知らせ致しますのでご確認ください。):2,500円
※出張体験もOK",JR小浜駅から車で10分/舞鶴若狭自動車道小浜ICから車で10分,あり,https://www.keis-an.jp/,,"①フォトフレーム　
③ドアプレート
③キャンドルホルダー　　　　　　　
④BIGミラー　　　
⑤マグネットボード　　
⑥フットランプ　　　　　　　　　　　
⑦LEDランプ　　　　
⑧時計　　　
⑨絵付(グラスや皿)　　　　　　　　　　　　
⑩夏季限定風鈴絵付け　　　　　　　
⑪時計、額縁(電気炉)　　　　　　
⑫吹きガラス(秋以降のみ※現在新型コロナウィルスの影響により吹きガラスの体験は休止させて頂いております。再開の予定はHPにてお知らせ致しますのでご確認ください。)
※出張体験もOK",,予約方法 : HPのお問い合わせフォームからお申し込みください。前日当日等、直近のお申し込みの場合はお電話にてご相談ください。(TEL 090-2372-1431または080-4252-1469),5,,,受付時間 : HPお問い合わせフォーム:24時間対応　電話:午後以外(作業の都合上),個人工房ですので、たくさんの人数は一度に入れませんが、その分融通が効きます。お気軽にお問い合わせください。,,,,
detail_2067,うるしの里会館(越前漆器伝統産業会館),うるしのさとかいかんえちぜんしっきでんとうさんぎょうかいかん,"丹南,鯖江市",ものづくり体験,35.9526152,136.2735771,14,https://www.fuku-e.com/experience/detail_2067.html,https://www.fuku-e.com/lsc/upfile/spot/0000/2067/2067_1_l.jpg,1500年の歴史を持ち、ホテルやレストランなど業務用の食器としての80%のシェアを誇る越前漆器。うるしの里会館では展示見学やお買い物、実演見学、体験などすべてが楽しめます。越前漆器の技術が詰め込まれた越前塗山車は必見です。体験は絵付け、沈金、拭き…,"150名まで
拭き漆体験は6名様まで",,,"0778-65-2727（うるしの里会館 
0778-65-2727）",福井県鯖江市西袋町40-1-2,"9:00~17:00(見学)
9:00~16:00(体験受付)",毎月第4火曜日(祝日の場合は翌日)、年末年始(12月29日から翌年1月3日まで),"入場料：無料
体験料：(1)絵付け体験(1,650円)、(2)沈金体験(2,200円)、(3)拭き漆体験(2,970円)","北陸自動車道　鯖江ICから車で約15分
JR鯖江駅からコミュニティバス河和田線で約25分　うるしの里会館(前)下車",あり,https://www.echizen.or.jp/,,"(1)絵付け体験
(2)沈金体験
(3)拭き漆体験",,予約方法 : お電話、FAX、メール,84,3,身障者用車両駐車場2台,受付時間 : 9:00～16:00,体験は2、3日前までにご予約をお願いします。各体験2名様以上でご参加できます。,,,,
detail_2068,八ッ杉森林学習センター,やつすぎしんりんがくしゅうせんたー,"丹南,越前市",自然・スポーツ体験,35.8884242,136.3070511,13,https://www.fuku-e.com/experience/detail_2068.html,https://www.fuku-e.com/lsc/upfile/spot/0000/2068/2068_1_l.jpg,「自然体験、環境学習、生活実習ができます！」標高400～500メートル、およそ20ヘクタールの空間にひろがる八ッ杉千年の森。広葉樹自然林と手入れのゆきとどいた杉林がコントラストをなす中に、木造りの建物とグリーンの屋根がくっきりと浮かび上がります。…,お問い合わせ下さい。,,,0778-42-3800（八ッ杉森林学習センター）,福井県越前市別印町19-1-1,,毎月第3日曜、毎週火曜日、12月～3月,"入場料：無料
体験料：400円～1万円","JR武生駅・鯖江駅より車にて40分/
北陸自動道武生I.C・鯖江I.Cより30分",あり,https://www.jigyodan-city-echizen.jp/yatsusugi,,"木工体験
石窯でピザ焼き体験
森でバウムクーヘン作り体験
山野草押し花体験
ウォークラリー
自然の色、草木染め体験
天体教室　　　　　　　　　　　バードウォッチング＆リスニング　　　　　　　　　　　　　　　　ネイチャーゲーム　など",,"予約方法 : ご予約は利用日の半年前から1週間前までにお願いします。　　　　　　　　
予約はまず電話でご確認下さい。
",,,,,,,,,
detail_2069,ロハス越前,ろはすえちぜん,"丹南,越前市",自然・スポーツ体験,35.9194358084421,136.244834507132,18,https://www.fuku-e.com/experience/detail_2069.html,https://www.fuku-e.com/lsc/upfile/spot/0000/2069/2069_1_l.jpg,越前市の里地里山の自然、農業、食、もの作りの良さを楽しんでいただけるプログラムをご用意しています。,お問い合わせ下さい。,,,090-2125-879（ロハス越前）,福井県越前市府中1-11-2 市民プラザたけふ3階,9:00~17:00,毎週月曜(祝日の場合は翌火曜),お問い合わせください,北陸自動道武生I.Cより車で15分,あり,http://lohas-echizen.org,,"石窯のピザ焼き体験
ソーセージ作り
野菜収穫と調理体験・釜炊きご飯
地域の祭り・行事見学ツアー(ごぼう講・獅子返しなど)
みそづくり体験、田舎料理体験、
農家民宿
赤米田んぼの田植え・稲刈り体験　",,予約方法 : 事前のご予約が必要です。詳しくは、HPからお申込ください。,,,,,,,,,
detail_2070,越前市エコビレッジ交流センター,えちぜんしえこびれっじこうりゅうせんたー,"丹南,越前市",,35.8608134,136.0876249,12,https://www.fuku-e.com/experience/detail_2070.html,https://www.fuku-e.com/lsc/upfile/spot/0000/2070/2070_1_l.jpg,豊かな環境を引き継ぎ、知ってもらうために、創作教室・山菜採りなどの環境学習を中心にエコグリーンツーリズムを体験できます。,お問い合わせ下さい。,,,0778-28-1123（越前市エコビレッジ交流センター）,福井県越前市湯谷町25-25-2,9:00~22:00 ,毎週月曜日(国民の祝日を除く)、毎月第3日曜日、国民の祝日の翌日、12月28日～翌年の1月4日,入場料：無料,JR武生駅より車で30分/北陸自動道武生I.Cより車で40分,あり,http://www.ecovilg.jp/,,自然環境体験,,予約方法 : 事前のご予約が必要です。詳しくは、お電話にてお問合せ下さい。,,,,,,,,,
detail_2071,もやいの郷・農楽園,もやいのさと・のうらくえん,"丹南,越前市",農業体験・フルーツ狩り,35.9398645,136.2983392,13,https://www.fuku-e.com/experience/detail_2071.html,https://www.fuku-e.com/common/images/ogImg.png,農村のくらし・食の体験(ちまきづくり、郷土料理、米粉料理、そば打ちなど)などができます。,お問い合わせ下さい。,,,0778-42-3838（もやいの郷・農楽園）,福井県越前市横住町17-29,9:00~22:00,月曜日、第3日曜日(祝日の場合その翌日)、年末年始,"入場料：無料
体験料：有料",JR武生駅より車で30分/北陸自動道武生I.Cより車で20分,あり,"http://moyainosato.blog24.fc2.com/
(もやいの郷・農楽園ブログ)",,"ちまきづくり体験
郷土料理体験
米粉料理体験
そば打ち体験　など",,予約方法 : 事前のご予約が必要です。詳しくは、お電話にてお問合せ下さい。,,,,,,,,,
detail_2072,干物作り体験,ひものづくりたいけん,"若狭路,高浜町",食品づくり体験,35.4886292,135.5666326,11,https://www.fuku-e.com/experience/detail_2072.html,https://www.fuku-e.com/common/images/ogImg.png,高浜町で水揚げされた新鮮な魚を使用して干物作り体験を行います。漁協職員が親切に魚のさばき方を教えます。翌日には、作った干物をおみやげとしてお持ち帰りいたただけます。要予約です。,【最少催行人数】10名,,,0770-72-3600（0770-72-3600）,福井県高浜町和田,,,"1,500円～/人",JR若狭和田駅から徒歩約15分/舞鶴若狭自動車道大飯高浜ICから車で15分,,https://www.wakasa-takahama.jp/高浜漁協和田支所/,,干物作り体験,,予約方法 : 電話,,,,,,,,,
detail_2073,リースづくり,りーすづくり,"若狭路,高浜町",ものづくり体験,35.4891882,135.5475782,12,https://www.fuku-e.com/experience/detail_2073.html,https://www.fuku-e.com/common/images/ogImg.png,地元のお母さんたちが立ち上げた「内浦レッドペッパーズ」は、地元で採れた様々な草花をドライフラワーにしたリースづくりや、地元特産品の赤唐辛子をつかったリース作りしています。自然の中で採れた季節の木の実や花木を使って、気軽に、手軽に、オシャレ…,,,,"（若狭高浜観光協会　0770-72-0338
※お問い合わせいただいた後、内浦レッドペッパーズよりご連絡いたします。）",福井県高浜町内浦地区,,,500円～/人 ※別途出張料・場所代が必要,JR若狭高浜駅から車で約30分,,https://www.wakasa-takahama.jp/uchiuraredpeppers/,,リースづくり,,予約方法 : 電話,,,,,事前予約で町内各所への出張も可能,,,,
detail_2074,タコ漁体験,たこりょうたいけん,"若狭路,高浜町",漁業体験・魚釣り,35.4917041,135.5777906,12,https://www.fuku-e.com/experience/detail_2074.html,https://www.fuku-e.com/common/images/ogImg.png,地元の漁師さんと一緒に漁船に乗ってタコ漁体験をしていただきます。体験の最後には、新鮮なタコのおみやげ付きです。,,,,090-3058-3727（0770-72-0208）,福井県高浜町和田,,4～8月(要予約),4000円/人,JR若狭和田駅から徒歩約15分/舞鶴若狭自動車道大飯高浜ICから車で15分,,https://www.wakasa-takahama.jp/spot/fukuisengyoten/,,タコ漁体験,,予約方法 : 電話,,,,,当日の天気の急変により、出港を見合わせる場合があります。,,,,
detail_2075,音海大断崖漁船クルーズ,おとみだんがいぎょせんくるーず,"若狭路,高浜町",自然・スポーツ体験,35.4933813,135.5767607,12,https://www.fuku-e.com/experience/detail_2075.html,https://www.fuku-e.com/common/images/ogImg.png,漁船に乗って、福井県の名勝に指定されている高さ260ｍの絶壁大断崖を海上から見物していただきます。,,,,0770-72-0208（0770-72-0208）,福井県高浜町和田,,4～6月、9～10月(要予約),4000円/人,JR若狭和田駅から徒歩約15分/舞鶴若狭自動車道大飯高浜ICから車で15分,,https://www.wakasa-takahama.jp/spot/fukuisengyoten/,,音海大断崖漁船ツアー,,予約方法 : 電話,,,,,当日の天気の急変により、出港を見合わせる場合があります。,,,,
detail_2076,国立若狭湾青少年自然の家,こくりつわかさわんせいしょうねんしぜんのいえ,"若狭路,小浜市",自然・スポーツ体験,35.5898301,135.7789778,13,https://www.fuku-e.com/experience/detail_2076.html,https://www.fuku-e.com/lsc/upfile/spot/0000/2076/2076_1_l.jpg,若狭湾国定公園の中央に突き出た「田烏半島」の一角にあり、恵まれた自然環境の中で海の活動と山の活動の両方が体験できる、自然体験活動を主体とした青少年教育施設です。施設の前面には雄大な若狭湾がリアス式海岸特有の景観を見せ、背面は起伏に富んだ山…,"宿泊定員300名
",,,"0770-54-3100（国立若狭湾青少年自然の家　事業係
〒917-0198　福井県小浜市田烏区大浜
電話:0770-54-3100
）",福井県小浜市田烏区大浜,"特に決まっていない｡宿泊利用の場合､原則として入所は16時まで､退所の点検が8時40分以降になります｡
",年末年始(12月28日から1月4日までの間)、施設等整備や安全点検のためご利用になれない日があります。,"入場料：無料
体験料：
施設使用料:一般利用の団体(企業、婦人会、老人会など)のみ1人1泊810円
シーツ等洗濯費用:1人1組300円
特定研修活動実施経費:カッター、乗艇者1人につき、1回300円。うるしダルマ、参加者1人あたり、1回950円。
食費:4歳以上未就学児　朝食380円、昼食440円、夕食550円。　小学生　朝食450円、昼食520円、夕食660円。　中学生以上　朝食460円、昼食530円、夕食680円。
教材費等必要なものがあります。","自動車で福井市から約1時間30分、舞鶴若狭自動車道小浜I.Cより約40分、名古屋市街から約2時間、京都市街から約2時間、大阪市街から約2時間20分
JR小浜線の三方駅又は上中駅からの公共交通機関がございませんので、タクシーをご利用下さい。(片道5，000～7，000円程度かかります。) ",あり,http://wakasawan.niye.go.jp/,,1泊2日モデルプログラム(所到着→昼食→カッター活動→夕べの集い→夕食→キャンプファイヤー→入浴・就寝→朝の集い→朝食→ハイキング・ＯＬ→昼食→退所),,"予約方法 : ホームページ内の「利用案内」をご覧下さい。
https://wakasawan.niye.go.jp/
",30,7,,"受付時間 : 8時30分～17時15分
","当施設は事前の予約が必要です。必ず問い合わせをしてからご利用ください。
",,,,
detail_2077,福井県海浜自然センター,ふくいけんかいひんしぜんせんたー,"若狭路,若狭町",自然・スポーツ体験,35.5632327,135.8428358,12,https://www.fuku-e.com/spot/detail_2077.html,https://www.fuku-e.com/lsc/upfile/spot/0000/2077/2077_1_l.jpg,若狭の海にすむ魚に直接エサを与えることができる「ふしぎな水そう」や、魚に触れることができる「福井の海にタッチしよう」、若狭湾や三方五湖の生きものや環境について学ぶことができるコーナーなど、一日いても飽きない体験型スポット。屋外では、初夏か…,お問い合わせ下さい。,,,0770-46-1101（福井県海浜自然センター ）,福井県若狭町世久見18-2,9:00~17:00,毎週月曜日(祝日、1月3日を除く)、祝日の翌日(土日祝を除く)、年末年始(12月29日～翌年1月2日)※7/21～8/31は無休,"入場料：無料
体験料：お問い合わせ下さい。","JR三方駅から車で約15分/舞鶴若狭自動車道若狭上中ICから車で約15分/
若狭三方ICから車で約20分",あり,http://www.fcnc.jp/,,自然観光講座、クラフト講座(詳しくはホームページをご覧下さい。),,予約方法 : 電話、FAX、Eメール,41,,,受付時間 : お問い合わせ下さい。,,,,,
detail_2078,地引網と獲れた魚の海鮮バーベキュー体験,じびきあみととれたさかなのかいせんばーべきゅーたいけん,"若狭路,敦賀市",漁業体験・魚釣り,35.6559443,136.0517699,16,https://www.fuku-e.com/experience/detail_2078.html,https://www.fuku-e.com/lsc/upfile/spot/0000/2078/2078_1_l.jpg,敦賀市気比の松原海岸で地引網体験、獲れた魚はから揚げや刺身に調理して、海鮮と肉のバーベキュー体験が、3月末から11月中旬まで松原から車で20分の東浦海岸で体験出来ます。海開き期間中は松原海岸の浜茶屋内で海水浴も同時に体験出来ます。団体様貸切・ご…,東浦海岸＝最大200名様迄可能、松原海岸浜茶屋＝最大150名様迄可能です。,,,0778-42-8848（福井の自然を体験実行委員会事務局まで）,福井県敦賀市気比の松原海岸,地引網開始時間11時､バーベキュー開始12時~1時間30分又は2時間体験｡,地引網開催可能期間中は無休,"入場料：地引網体験のみ3歳以上＝1,000円(税込)
体験料金：中学生以上＝4,800円、小学生＝4,500円、3歳以上幼児＝2,300円(30名以上実施)",北陸道敦賀インターから車で15分、JR敦賀駅から路線バスで20分、タクシーで10分。,あり,http://www.anaba.jimusho.jp/jibiki-bq.html,,地引網体験と獲れた魚の海鮮バーベキュー,,予約方法 : インターネット・メール・電話にて予約出来ます。,,,海開き期間中以外は無料,受付時間 : 電話:8時から18時まで、インターネット・メールは24時間可能,,,,,
detail_2079,イカダ(筏)魚釣り体験,いかださかなつりたいけん,"若狭路,敦賀市",自然・スポーツ体験,35.677718,136.0289493,15,https://www.fuku-e.com/experience/detail_2079.html,https://www.fuku-e.com/lsc/upfile/spot/0000/2079/2079_1_l.jpg,敦賀湾内でも穏やかな海上に3基(各トイレ付き)設置してあり、砂浜にも近く揺れが少なく安定しています。大型日よけテント(テーブル付き)・休憩室等も完備しており食事も楽にとれますので家族連れ・女性にもおすすめです。釣り経験のない方も大歓迎です。,40人まで,,,0770-22-8777（福井県敦賀市名子37号19-1　　ファーストハーバーツルガ　　）,福井県敦賀市名子37号19-1,4月1日~10月15日:7時~17時 10月16日~3月末:8時~16時,毎週水曜日年末年始,"入場料：中学生以上2,000円、小学生1,000円、小学生以下無料
竿等もってない方には、釣り竿セット(エサ付)を2,000円で用意しています。",大阪～敦賀　名神高速道・北陸自動車道(車で約2時間)　名古屋～敦賀　名神高速道・北陸自動車道　(車で1・5時間)　敦賀IC・敦賀駅からは車で30分　敦賀駅からはバスもあり(夏季は増便あり),あり,http://f-h-tsuruga.main.jp,,釣り体験教室,,予約方法 : 電話,80,,,受付時間 : 営業時間内の9時から5時まで,,,,,
detail_2080,福井県立三方青年の家,ふくいけんりつみかたせいねんのいえ,"若狭路,若狭町",自然・スポーツ体験,35.5602644,135.8943942,17,https://www.fuku-e.com/experience/detail_2080.html,https://www.fuku-e.com/lsc/upfile/spot/0000/2080/2080_1_l.jpg,若狭湾国定公園の中央部に位置し、ラムサール登録湿地として登録された名勝三方五湖の一つ三方湖の湖畔にあり、自然観察・キャンプ・創作活動等様々な体験ができる青少年教育施設です。平成14年度に新しく建て直されたとてもきれいな施設で、アイスクリーム…,"主なコースの受け入れ人数　　グラウンドゴルフ　約30人　　(超える場合はご相談ください)
その他の体験コースについては三方青年の家ホームページをご覧ください。",,,"0770-45-0229（〒919-1331　福井県三方上中郡若狭町鳥浜122-27-1
TEL 0770-45-0229  Fax 0770-45-0237）",福井県若狭町鳥浜122-27-1,"8:30~17:15
(宿泊しての研修ができます)",毎週月曜日(第3日曜日の翌日を除く)、第3日曜日、国民の祝日、年末年始,"入場料：無料
体験料：グラウンドゴルフ 無料 (用具貸出し可)","JR小浜線　三方駅から徒歩30分
舞鶴若狭自動車道 若狭三方インターから車で8分",あり,http://www.pref.fukui.lg.jp/doc/mikata-seinen/,,"主なコースを紹介します。 
オススメ！三方湖、三方富士を眺めながらプレイするグラウンドゴルフ
その他の体験コースについては三方青年の家ホームページをご覧ください。",,"予約方法 : 事前に電話でお問い合わせください。
※ 10名以上の団体のみ受け付けます。(主催事業は個人で申込み可能です)",120,可,,受付時間 : 8:30～17:15(ただし、休館日を除きます。),"レインボーラインまで車で10分
福井県海浜自然センターまで車で15分",,,,
detail_2081,福井県立鯖江青年の家,ふくいけんりつさばえせいねんのいえ,"丹南,鯖江市",自然・スポーツ体験,35.9375357,136.1479355,18,https://www.fuku-e.com/experience/detail_2081.html,https://www.fuku-e.com/lsc/upfile/spot/0000/2081/2081_1_l.jpg,漆器、焼物、打ち刃物や和紙などの伝統工芸産品や国内トップシェアトップを誇る眼鏡など古くから越前国の中心として栄えた丹南地域に位置し、また越前がにやコシヒカリなど豊かな食物に恵まれ、自然観察・創作活動ができる青少年教育施設です。また、丹南総…,"ネイチャークラフト40人まで、ウオークラリー人数制限なし。
その他体験コースによって異なります。詳しくは鯖江青年の家ホームページをご覧ください。",,,"0778-62-1214（〒916-0074　福井県鯖江市上野田町19-1
TEL 0778-62-1214  Fax 0778-62-1215
e-mail  s-seinen@pref.fukui.lg.jp）",福井県鯖江市上野田町19-1,"8:30~17:15
(宿泊しての研修ができます)",毎週月曜日(第3日曜日の翌日を除く)、第3日曜日、国民の祝日、年末年始,"入場料：無料
体験料：ネイチャークラフト無料、ウオークラリー無料。その他体験コースによって異なります。詳しくは、鯖江青年の家ホームページをご覧ください。","JR北陸線　鯖江駅から車で約15分
北陸自動車道 鯖江インターから車で約12分
福井鉄道　西鯖江駅から車で約10分",あり,http://www.pref.fukui.jp/doc/sabae-seinen/,,"主なコースを紹介します。
ネイチャークラフト、星空観察、ウオークラリー、屋内スポーツその他各種体験活動。
その他については。鯖江青年の家ホームページをご覧ください。",,"予約方法 : 事前に電話でお問い合わせください。
※5名以上の団体のみ受け付けます(主催事業は個人で申込み可能です。)。",20,可,,受付時間 : 8:30～17:15(ただし、休館日を除きます。),"越前海岸まで車で約45分
越前陶芸村まで車で約20分
和紙の里公園まで車で約25分",,,,
detail_2082,県立奥越高原青少年自然の家,けんりつおくえつこうげんせいしょうねんしぜんのいえ,"永平寺・奥越,大野市",自然・スポーツ体験,36.0230276,136.5826002,15,https://www.fuku-e.com/experience/detail_2082.html,https://www.fuku-e.com/lsc/upfile/spot/0000/2082/2082_1_l.jpg,白山連峰に連なる奥越高原に位置し、近くには高原牧場やミルク工房、自然保護センター、福井県恐竜博物館があり、豊かな自然と多くの体験施設に恵まれた青少年教育施設です。春から秋には、放牧された乳牛を見ながらハイキングをしたり、登山、魚つかみ、野…,体験コースによって異なります。奥越高原青少年自然の家ホームページをご覧ください。,,,"0779-67-1321（奥越高原青少年自然の家
TEL　0779-67-1321　　FAX　0779-67-1721）",福井県大野市南六呂師169-8,"8:30~17:15
(宿泊しての研修ができます)",毎週月曜日、国民の祝日、年末年始,"入場料：無料
体験料：主なコースを紹介します。詳しくは奥越高原青少年自然の家ホームページをご覧ください。
魚つかみ330円～(炭代別途必要)、
野外炊さん480円～(蒔代別途必要)、
パン・ピザ・バウムクーヘンづくり480円～(炭代別途必要)、
焼き板・記念バッジ340円～
ネイチャークラフト290円・山からの便り340円、
竹とんぼ190円、クロスカントリースキー
小中高生300円、その他600円(5時間未満)","車利用の場合　福井北ICより約45ｋｍ(約1時間、)　中部縦貫自動車道大野ICより約12ｋｍ(約20分)
公共交通機関利用の場合　えちぜん鉄道勝山駅よりタクシー利用25分　　JR越美北線越前大野駅よりタクシー利用20分　",あり,http://info.pref.fukui.jp/syougak/okuetu/hp-1.3/index.htm,,詳しくは奥越高原青少年自然の家ホームページをご覧ください。,,"予約方法 : 事前に電話でお問い合わせください。
※ 4名以上の団体のみ受け付けます。(主催事業は個人で申込み可能です)",40,可,,受付時間 : 8:30～17:15,"恐竜博物館まで車で20分
雁が原スキー場(最も近いスキー場)まで車で15分
越前大野城まで車で20分",,,,
detail_2083,福井県立芦原青年の家,ふくいけんりつあわらせいねんのいえ,"あわら・坂井・福井市,あわら市",自然・スポーツ体験,36.2567574,136.2194136,17,https://www.fuku-e.com/experience/detail_2083.html,https://www.fuku-e.com/lsc/upfile/spot/0000/2083/2083_1_l.jpg,【2016年度にリニューアルオープン！】福井県立芦原青年の家は、北陸の名湯「あわら温泉」や名勝「東尋坊」に近く、誰もが体験学習や宿泊研修を通して、四季折々の自然や友だちのやさしさにふれあいながら、豊かな心を育む自然活動体験施設です。北潟湖では…,"宿泊・野外の受け入れ人数は120人まで
その他については、芦原青年の家　ホームページをご覧ください。",,,"0776-79-1001（福井県立芦原青年の家
〒910-4272　　福井県あわら市北潟153-227
TEL　0776-79-1001
FAX　0776-79-1005
E-mail　a-seinen@pref.fukui.lg.jp）",福井県あわら市北潟153-227,"8:30~17:00
(宿泊利用ができます)",毎週月曜日(第3日曜日の翌日を除く)、第3日曜日、国民の祝日、年末年始,"入場料：無料
体験料：カレー 600円、棒巻きパン焼き 350円、簡単ピザ650円(それぞれ1人当たり)
※別途薪代が必要(1束500円、ピザは石窯1基で2束使用)
レザークラフト(キーホルダー)230円
その他については、芦原青年の家　ホームページをご覧ください。","自家用車の場合、北陸自動車道金津ICから15分。
JRの場合、JR北陸線　芦原温泉駅からタクシーで20分。
えちぜん鉄道の場合、あわら湯の町駅からタクシーで15分。",あり,https://www.pref.fukui.jp/doc/awara-seinen/index.html,,"野外炊さん(カレー、棒巻きパン焼き)
レザークラフト
その他については、芦原青年の家　ホームページをご覧ください。",,"予約方法 : 事前に電話でお問い合わせください。
※ 3名以上の団体、グループ、企業、家族、各種サークルを受け付けます。(主催事業は個人で申込み可能です)",50,可,,受付時間 : 8:30～17:15(ただし、休館日を除きます。),"東尋坊まで車で20分
三国湊町まで車で25分
あわら温泉まで車で20分",,,,
detail_2084,安田かまぼこ道場,やすだかまぼこどうじょう,"あわら・坂井・福井市,福井市",食品づくり体験,36.0884441,136.2431028,17,https://www.fuku-e.com/experience/detail_2084.html,https://www.fuku-e.com/lsc/upfile/spot/0000/2084/2084_1_l.jpg,新鮮な素材を使ってかまぼこや、ちくわ、揚げ物を体験できます。作るのが楽しいのはもちろん、できたてあつあつのかまぼこは、本当においしいですよ。みんなで賑やかに体験してみませんか？　　体験コースはA・B・Cの3コースあり、お時間やご予算にあわせて…,"Aコース定員5～20名　　
Bコース定員5～40名　　
Cコース定員5～40名",,,"0776-53-2252（安田蒲鉾
0776-53-2252　　
ホームページからhttp://www.yasuda-kamaboko.com）",福井県福井市高柳1-2512,午前の部 AM10:00~  午後の部 PM1:30~,水曜日・12月16日～1月15日,"入場料：売店、工場見学は無料
体験料：Aコース2200円(税込)、Bコース1320円(税込)、Cコース550円(税込)",福井北ICより車で10分/JR福井駅より車で10分,あり,http://www.yasuda-kamaboko.com,,"Aコース(蒲鉾1本・蒲の穂1本・魚そうめん・揚げ物)
Bコース(蒲鉾1本・蒲の穂1本・魚そうめん)
Cコース(蒲の穂1本・魚そうめん)",,"予約方法 : 電話から
0776-53-2252　　
ホームページからhttp://www.yasuda-kamaboko.com",20,6,,受付時間 : 8:00～17:00,体験は要予約になります。エプロンをご持参ください。有料(50円)もあります。,,,,
detail_2085,御食国若狭おばま食文化館,みけつくにわかさおばましょくぶんかかん,"若狭路,小浜市",歴史・文化体験,35.5014082,135.7377258,15,https://www.fuku-e.com/experience/detail_2085.html,https://www.fuku-e.com/lsc/upfile/spot/0000/2085/2085_1_l.jpg,館内には、食にまつわる歴史・文化や伝承料理などを展示する「ミュージアム」、郷土料理などを作り味わう「キッチンスタジオ」、伝統工芸を肌で感じる「若狭工房」、癒しを提供する「濱の湯」があり、若狭おばまの魅力を満喫できます。,"(1)16名
(2)16名程度
(3)上記参考",,,0770-53-1000（御食国若狭おばま食文化館 ）,福井県小浜市川崎3-4,9:00~18:00(11月~2月は9:00~17:00)､足湯は冬期間(12月~4月上旬)閉鎖いたします｡,"毎週水曜日,年末年始　※「濱の湯」は毎月第3水曜日とメンテナンス日(不定期)","入場料：無料
体験料：(1)1,000円～/お一人様、(2)600円～1,900円、(3)メニューによって異なります(詳しくはHPをご覧下さい)","JR小浜駅から車で約5分/舞鶴若狭自動車道小浜ICから車で約10分
",あり,http://www1.city.obama.fukui.jp/obm/mermaid/modules/content2/index.php#02,,"(1)調理体験
(2)加工体験(おみやげ作り)
(3)若狭工房",,"予約方法 : (1)、(2)電話予約:0770-53-1000　　　
(3)は上記参考",,,,受付時間 : お電話受付は11月~2月は9:00~16:00、それ以外は9:00~17:00,,,,,
detail_2086,野外恐竜博物館,やがいきょうりゅうはくぶつかん,"永平寺・奥越,勝山市",恐竜,36.0824388,136.5068117,16,https://www.fuku-e.com/spot/detail_2086.html,https://www.fuku-e.com/lsc/upfile/spot/0000/2086/2086_2_l.jpg,野外恐竜博物館は、日本最大の恐竜化石発掘現場である勝山市北谷町に2014年7月にオープンしました。野外恐竜博物館は、「観察広場」「展示場」「化石発掘体験広場」の3つのゾーンにわかれています。観察広場では、恐竜化石を発掘している現場を間近に見学で…,,,,0779-88-0001（福井県立恐竜博物館）,福井県勝山市村岡町寺尾51-11,"4月下旬から11月上旬 

※天候やその他の影響によりツアーが中止になる場合がありますので､あらかじめご了承ください｡",休館日は、恐竜博物館本館に準じます。 ※4月、5月、6月、9月、10月の第2・4水曜日および7月の第2水曜日,"個人:大人/1,220円　高校・大学生/1,020円　小・中学生/610円
団体:大人/1,020円　高校・大学生/810円　 小・中学生/510円
※幼児、70歳以上の方は無料です。",すべて恐竜博物館前から専用バスによるツアー形式で行います。,,http://www.dinosaur.pref.fukui.jp/visit/fieldstation,,"＜通常コース＞
現地での滞在時間60分の間に、ナビゲーターによる展示場、観察広場の見学・解説と、化石発掘体験を含んだコースです。

※コースの順番は前後する場合があります。

＜化石発掘体験60分コース＞
現地での滞在時間60分をすべて化石発掘体験にあてるコースです。
リピーターの方を対象とし、展示や発掘現場の見学は含まれません。

※初めての方には、通常コースをおすすめします。
　参加を希望される場合は、実施日・時間をご確認ください。",,"予約方法 : ■インターネットによる予約システムを利用してください。
予約システムは野外恐竜博物館ホームページからアクセスできます。
ただし、やむを得ない事情によりインターネットを使用できない場合は、電話で予約してください。",,,,,"■お持ちいただきたいもの
・軍手または手袋
・マスク
・飲み物(現地では自動販売機や冷水機等はありません)
・雨具(雨天でも実施することがあります)
・虫よけスプレー等(特に夏場、必要に応じて)
■服装について
・汚れてもよい、動きやすい服装(長袖、長ズボンが望ましい)
・上着(春や秋の場合の寒さ対策として)
■靴について
・運動靴(動きやすさや、ケガ防止のため)
◎発掘体験で使用するハンマー、タガネ、ゴーグルは野外恐竜博物館で準備します。",,,,
detail_2087,漁師体験(志積:民宿久兵衛),りょうしたいけん,"若狭路,小浜市",漁業体験・魚釣り,35.525134,135.79981,16,https://www.fuku-e.com/experience/detail_2087.html,https://www.fuku-e.com/lsc/upfile/spot/0000/2087/2087_1_l.jpg,漁師さんが民宿を経営されている「漁師民宿」に泊まったお客様には特別に、船に乗って漁に出かける、漁師体験ができるコースが設けられています。,,,,"0770-54-3431（民宿久兵衛:0770-54-3431

）",福井県小浜市志積15-6,5月~8月,9月～4月,"・中学生以上:10,000円(1泊2食＋体験付き)
・小学生:8,000円(1泊2食＋体験付き)",JR小浜駅から車で約15分,あり,,,タコつぼ漁体験コース(乗船有),,予約方法 : 民宿へお問合せ下さい,15,,,,,,,,
detail_2088,野村醤油,のむらしょうゆ,"永平寺・奥越,大野市",,35.9809436,136.4935781,16,https://www.fuku-e.com/experience/detail_2088.html,https://www.fuku-e.com/lsc/upfile/spot/0000/2088/2088_1_l.jpg,明治の初めに創業し、現在も麹造りから手掛けて天然醸造醤油を作り続けている『野村醤油』。その既存の蔵を見学・体験用に改修し誕生したのが『醤油づくりの体験蔵　重右ェ門』です。蔵元でしか体験できない搾りたてのMY醤油作りは、出来上がりにオリジナル…,申込可能人数2人～10人,,,0779-66-2072,福井県大野市日吉町10-1,,,"お一人様　1,000円(税込)",,,http://nomura-syouyu.jp/,,,,予約方法 : 2日前の17:00までに要予約,,,,受付時間 : 9:00～17:00,"※最少催行人数4名に満たない日は開催中止になることがあります。予めご了承ください。

※ご希望お申込み開始時間の5分前までにお越しください。

※冬期体験不可",,,,
detail_2089,溶接体験ができる鉄の惑星「アイアンプラネット」,ようせつたいけんができるてつのわくせいあいあんぷらねっと,"あわら・坂井・福井市,坂井市",ものづくり体験,36.1557469,136.2011745,16,https://www.fuku-e.com/experience/detail_2089.html,https://www.fuku-e.com/lsc/upfile/spot/0000/2089/2089_1_l.jpg,溶接の体験をしたりワークショップでモノづくりをしたり、お仕事を学んで鉄のおもちゃで遊んだり、鉄の家具を見て触って感じてみよう。,"2名～6名
",,,"0776-72-1164（アイアンプラネット「長田(おさだ)鉄工所」
FAX 0776-72-1495）",福井県坂井市春江町西長田41-1-1,"16:00~18:00(平日)､13:00~18:00(土曜)
",日曜・祝日,1500円～,"北陸自動車道丸岡ICから車で15分、えちぜん鉄道西長田駅から徒歩5分
",あり,http://iron-planet.net/,,"ＨＰをご覧ください。
",,"予約方法 : 要予約
",,,,,,,,,
detail_2090,竹細工の製作体験,たけざいくのせいさくたいけん,"あわら・坂井・福井市,坂井市",ものづくり体験,36.1081747,136.3247922,16,https://www.fuku-e.com/experience/detail_2090.html,https://www.fuku-e.com/lsc/upfile/spot/0000/2090/2090_1_l.jpg,竹とんぼや干支など、竹を材料にした工芸品の製作体験。自分の手で刃物を使い、削って、曲げて、組んで、世界に一つだけのｍｙ作品を作ってみよう！,,,,"0776-66-5666（越前竹人形の里
メール info@takeningyo.com
FAX 0776-66-4828）",福井県坂井市丸岡町上久米田63-1,,水曜日、年末年始(12/26～1/1),"入場料：大人300円・小中学生150円
体験料：500円～2000円(竹とんぼ・ペン立て・干支など製作物によりかわります)","北陸自動車道丸岡ICから車で10分
",あり,http://www.takeningyo.com/index.html,,"竹細工の製作体験
",,"予約方法 : 電話にて
",,,,,,,,,
detail_2091,酒蔵見学,さかぐらけんがく,"あわら・坂井・福井市,坂井市",,36.1711285,136.2898613,16,https://www.fuku-e.com/experience/detail_2091.html,https://www.fuku-e.com/lsc/upfile/spot/0000/2091/2091_1_l.jpg,漫画「蔵の宿」のモデルにもなった久保田酒造は、江戸時代から続く造り酒屋。地元の水と酒米にこだわったお酒が造られている酒蔵の現場をのぞいてみよう。,"20名まで
",,,"0776-66-0123（久保田酒造
FAX  0776-67-2367）",福井県坂井市丸岡町山久保27-45,,要問合せ,"入場料：無料
体験料：300円(お猪口のお土産付き)","北陸自動車道丸岡ICから車で10分
",あり,http://www.fukukoma.co.jp/,,"酒蔵見学
",,"予約方法 : 電話にて
",,,,,,,,,
detail_2092,ファミリー釣り船体験,ふぁみりーつりぶねたいけん,"あわら・坂井・福井市,坂井市",漁業体験・魚釣り,36.2196074,136.1403723,16,https://www.fuku-e.com/experience/detail_2092.html,https://www.fuku-e.com/lsc/upfile/spot/0000/2092/2092_1_l.jpg,海のめぐみが豊かな三国の海で釣り船体験。1.港から船に乗り、魚のいるポイントへ。2.用具などは船頭さんが用意してくれ、漁船はトイレ付なので女性にも安心です。3.日本海の海の幸を親子でゲットしてみよう！三国には船釣り師の憧れのポイントが点在してお…,"2名～5名　1隻(定員3～4名)
",,,"0776-81-2852（栄帆丸
FAX 0776-82-1010）",福井県坂井市三国町宿1-17-33(三国港市場),"早朝4:50~
",要問合せ,"1船27,000円(税込)※用具、氷、エサ代込","早朝のため、公共交通機関の運行はありません。マイカー及び三国温泉民宿より徒歩にてお越しください。詳しくはお問い合わせください。
",あり,http://www.8eihomaru.com,,"ファミリー釣り船体験
",,"予約方法 : 電話にて
",,,,,"荒天や時化などにより、主催者の判断で中止となる場合があります。
",,,,
detail_2093,水族館裏側探検ガイドツアー,すいぞくかんうらがわたんけんがいどつあー,"あわら・坂井・福井市,坂井市",バリアフリー,36.2527035,136.1470295,16,https://www.fuku-e.com/experience/detail_2093.html,https://www.fuku-e.com/lsc/upfile/spot/0000/2093/2093_1_l.jpg,普段入ることが出来ない水族館の水槽の裏側に、係員と一緒に入って、水をきれいにする装置や機械を見たり、予備飼育水槽の魚、保護した魚などを解説を聞きながら見学します。ちょっとしたエサやり体験も出来ます。,"20名まで
",,,"0776-81-2700（越前松島水族館
メール info@echizen-aquarium.com
FAX 0776-82-2296）",福井県坂井市三国町崎74-2-3,"夏休み以外の土日祝及び春休み･冬休み
13:30~(通年)､12:30~(冬期)
",年中無休,"入場料：大人2,000円・小中学生1,000円・3歳以上500円(体験料は別途必要)
体験料：3歳以上お1人500円(入館料は別途必要)","JR芦原温泉駅から東尋坊行バスで30分/
北陸自動車道金津ICから車で20分
",あり,http://www.echizen-aquarium.com/,,"水族館裏側探検ガイドツアー
",,予約方法 : 当日に改札口で申込,450,,無料,受付時間 : 開始時間の10分前まで,コロナ禍により只今中止しています。HPを確認してください。,,,,
detail_2094,福井県里山里海湖研究所　三方五湖自然観察棟,ふくいけんさとやまさとうみけんきゅうしょ,"若狭路,若狭町",自然・スポーツ体験,35.5600291,135.8940187,16,https://www.fuku-e.com/experience/detail_2094.html,https://www.fuku-e.com/lsc/upfile/spot/0000/2094/2094_1_l.jpg,里山里海湖の自然の恵みを生かした様々な体験メニューをご用意しています。来所時にいつでも体験できるメニューのほか、地域団体や子供会、学校などのリクエストにも対応させていただきます。,"1人～
※団体の場合は、事前に電話・メールでお問い合わせください。
",,,"0770-45-3580（福井県里山里海湖研究所
〒919-1331　福井県三方上中郡若狭町鳥浜122-12-1
TEL　0770-45-3580　FAX　0770-45-3680
Email　satoyama@pref.fukui.lg.jp
）",福井県若狭町鳥浜122-31-1,"開館時間
9:30~16:30
","毎週火曜日(火曜日が祝日の場合はその翌日)
年末年始","入場料：無料
体験料：
・野鳥観察、工作体験、里遊び体験　無料
・三方湖畔生きもの観察ツアー　50円(保険料)","舞鶴若狭自動車道「三方五湖スマートIC」から車で約5分。JR三方駅からタクシーで約5分、レンタサイクルで約10分。(約2.3km)
",あり,https://satoyama.pref.fukui.lg.jp/,,"・野鳥観察
・三方湖畔生きもの観察ツアー(要予約)
・松ぼっくり、どんぐり等を使った工作体験(現在、感染症拡大防止のため要予約)
",,"予約方法 : 事前に電話・メールでお問い合わせください。
",,,,"受付時間 : 8:30～17:15
",,,,,
detail_2095,米五　みそ楽,こめごみそらく,"あわら・坂井・福井市,福井市",食品づくり体験,36.0703837,136.2160636,17,https://www.fuku-e.com/spot/detail_2095.html,https://www.fuku-e.com/lsc/upfile/spot/0000/2095/2095_9_l.jpg,創業天保2年(1831年)、大本山永平寺御用達のみそ屋&ldquo;米五のみそ&rdquo;が運営する、みそを楽しむテーマパークです。自分だけの映える「みそだま」をつくったり、永平寺の味を受け継ぐみそ蔵を見学したり、手づくりみそを仕込んだり&hellip;…,最大20名程度,約45分,みそ楽2F体験教室,0776-24-0081,福井県福井市春山2-25-1,10:00~18:00,毎週水曜日　お盆　年末年始,"入場料：無料
体験料：HPをご確認ください　※体験は要予約","福井鉄道福武線　仁愛女子高校前駅から徒歩4分
えちぜん鉄道三国芦原線　田原町駅から徒歩7分
コミュニティバスすまいる北ルート田原・文京方面「ハッピー・治療室」バス停から徒歩1分
JR福井駅から徒歩25分
北陸自動車道福井IC／福井北ICから車で約15分",あり,"https://www.misoraku.com,https://komegomisoraku.rezio.shop/ja-JP,https://www.fuku-e.com/fukutabi/detail_90.html",https://www.jalan.net/kankou/spt_guide000000198342/, みそだまづくり体験,1名,,,,,前日まで要予約,,,,,
detail_2096,お座敷遊び体験,おざしきあそびたいけん,"あわら・坂井・福井市,あわら市",歴史・文化体験,36.2241477,136.1927367,16,https://www.fuku-e.com/experience/detail_2096.html,https://www.fuku-e.com/lsc/upfile/spot/0000/2096/2096_1_l.jpg,芦原芸妓の唄や踊りを鑑賞した後に、太鼓の体験や&ldquo;とらとら&rdquo;&ldquo;金毘羅船船&rdquo;などのお座敷遊びが気軽に楽しめます。最後に芦原芸妓と一緒に記念撮影をして旅の思い出に。,お座敷体験:各回20名(最少催行人数6名～),,,0776-78-6767（あわら市観光協会）,福井県あわら市温泉1-203,"9:30~15:30でお好きなお時間をお選びください｡
体験時間:1時間",,"3,000円(お茶とお菓子付き)","JR芦原温泉駅から車/バスで約10分
えちぜん鉄道あわら湯のまち駅から徒歩2分",あり,https://awara.info/cat-sightseeing/,,芸妓とふれあいお座敷遊び,,予約方法 : 電話、メール、ホームページ,5,,あわら湯のまち駅裏にある市営駐車場もご利用ください。,受付時間 : 8:30～17:00　3日前までに要予約,,,,,
detail_2097,丸岡城下町食べ・見て歩き案内人(コンシェルジュ),まるおかじょうかまちたべみてあるきあんないにん,"あわら・坂井・福井市,坂井市",歴史・文化体験,36.1527837,136.2735455,16,https://www.fuku-e.com/experience/detail_2097.html,https://www.fuku-e.com/lsc/upfile/spot/0000/2097/2097_1_l.jpg,丸岡城について、詳しく知ってみませんか。天守だけではなく、城下町にも見どころがいっぱいあります。歴代藩主の菩提寺や丸岡の歴史を見守ってきたシンボルツリー、産業について、案内人が詳しく説明しながら城下町を散策します。,ガイド1名につき15名まで,,,0776-66-0303（霞ヶ城公園事務所）,福井県坂井市丸岡町霞町3-1-3,,要問合せ,ガイド1名につき1500円,JR福井駅から本丸岡行きバス「丸岡城」下車すぐ/北陸自動車道丸岡ICから車で5分,あり,http://kanko-sakai.com/topics/detail.php?id=3,,"・タブの木コース
・寺町コース",,予約方法 : 希望日の3ヶ月～7日前までに、電話にて,,,,受付時間 : 9:00～17:00,,,,,
detail_2098,ちくちくぼんぼん　いつでもプログラム,ちくちくぼんぼんいつでもぷろぐらむ,"あわら・坂井・福井市,坂井市",自然・スポーツ体験,36.1619095376365,136.332624590842,16,https://www.fuku-e.com/experience/detail_2098.html,https://www.fuku-e.com/lsc/upfile/spot/0000/2098/2098_1_l.jpg,廃校となった小学校校舎を改修して、体験型の宿泊施設として生まれ変わった「ちくちくぼんぼん」。川遊びやトレッキングなど自然を満喫できる豊富な体験プログラムをご用意しています。,プログラムによる,,,"0776-50-2393（ちくちくぼんぼん
メール takeda@chiku-bon.jp
FAX 0776-50-2395 ）",福井県坂井市丸岡町山口60-8,,,プログラムによる,"北陸自動車道丸岡ICから車で15分
",あり,https://www.chiku-bon.jp/,,"豊富な体験プログラムあり
詳しくはホームページをご覧ください。",,予約方法 : 電話にて,,,,,,,,,
detail_2099,やぎ・羊　餌やり体験,やぎ・ひつじえさやりたいけん,"あわら・坂井・福井市,坂井市",自然・スポーツ体験,36.2404263,136.1706765,16,https://www.fuku-e.com/experience/detail_2099.html,https://www.fuku-e.com/lsc/upfile/spot/0000/2099/2099_1_l.jpg,坂井北部丘陵地にある隠れた癒しスポットで、のどかな雰囲気の中で放牧されている牛を見たり、やぎや羊に餌やり体験もできます。体験の際には、牧場内のガイドさんに声をかけてください。,,,,"0776-81-3130（福井県畜産試験場
メール chikusi@pref.fukui.lg.jp
FAX 0776-81-2600）",福井県坂井市三国町平山68-34,"夏期9:00~17:00
冬季10:00~15:00",なし,"入場料：無料
体験料：無料",北陸自動車道金津ICから車で20分,あり,http://www.pref.fukui.lg.jp/doc/chikushi/,,やぎ・羊　餌やり体験,,予約方法 : 不要,,,,,,,,,
detail_2100,池田町農村体験プログラム,いけだちょうのうそんたいけんぷろぐらむ,"丹南,池田町",,35.89291985620506,136.34491321548305,18,https://www.fuku-e.com/experience/detail_2100.html,https://www.fuku-e.com/lsc/upfile/spot/0000/2100/2100_1_l.jpg,池田町の自然や伝統文化、日常生活を体験できるプログラム。しめ縄作り、みそ作り、自然観察ツアー、かまくら作り、かんじきウォーキングなど、季節ごとに様々なプログラムを用意しております。プログラムにより申込先は異なります。詳しくはホームページ（h…,,,,0778-44-8060（いけだ農村観光協会）,福井県池田町,,,,,,https://ikeda-taiken.jp/,,体験コースによって、内容・料金・受入人数・開催場所・時間・予約方法が異なります。ホームページでご確認ください。,,,,,,,,,,,
detail_2101,工芸・歴史文化体験,こうげい・れきしぶんかたいけん,"若狭路,美浜町","ものづくり体験,歴史・文化体験",35.6041999215783,135.934730124906,16,https://www.fuku-e.com/experience/detail_2101.html,https://www.fuku-e.com/lsc/upfile/spot/0000/2101/2101_1_l.jpg,例．つる細工体験作品の材料を山から調達し、つる細工づくりに挑戦します。※その他木工体験、ビーチクラフト　等,"（一社）COLORsプラスへお問い合わせください
",,,0770-32-2222（（一社）COLORsプラス）,福井県美浜町※体験の種類により異なります｡ 詳細は､若狭美浜はあとふる体験推進協議会へお問い合わせください,"※体験の種類により異なります｡
詳細は､（一社）COLORsプラスへお問い合わせください",,（一社）COLORsプラス（0770-32-2222）へお問い合わせください,"※体験の種類により異なります。
詳細は、（一社）COLORsプラスへお問い合わせください",,https://tabikobo-jpn.com/education/education.html,,工芸・歴史文化体験,,"予約方法 : TEL 0770-32-2222
FAX 0770-32-6667",,,,受付時間 : 随時,,,,,
detail_2102,味覚体験,みかくたいけん,"若狭路,美浜町",,35.6041988311558,135.934723419468,16,https://www.fuku-e.com/experience/detail_2102.html,https://www.fuku-e.com/lsc/upfile/spot/0000/2102/2102_1_l.jpg,例．美浜郷土料理『へしこ料理体験』美浜町の伝統的な料理のへしこを使って、色々な料理を作って賞味する。※その他郷土料理体験、美浜太田産『そば打ち体験』　等,（一社）COLORsプラスへお問い合わせください,,,0770-32-2222（（一社）COLORsプラス）,福井県美浜町※体験の種類により異なります｡ 詳細は､若狭美浜はあとふる体験推進協議会へお問い合わせください,"※体験の種類により異なります｡
詳細は､（一社）COLORsプラスへお問い合わせください",,（一社）COLORsプラス（0770-32-2222）へお問い合わせください,"※体験の種類により異なります。
詳細は、（一社）COLORsプラスへお問い合わせください",,https://tabikobo-jpn.com/education/education.html,,味覚体験,,"予約方法 : TEL 0770-32-2222
FAX 0770-32-6667
",,,,受付時間 : 随時,,,,,
detail_2103,インストラクター付き！海釣り体験教室,いんすとらくたーつきうみつりたいけんきょうしつ,"あわら・坂井・福井市,坂井市",漁業体験・魚釣り,36.2234313,136.1358034,14,https://www.fuku-e.com/experience/detail_2103.html,https://www.fuku-e.com/lsc/upfile/spot/0000/2103/2103_1_l.jpg,釣人向けのサービスを展開する当店では、釣った魚を捌いて、食べる事が出来ます。また、魚の現金買取もしており、全国の釣人から注目の施設です。初心者向けに展開する完全手ぶらOKでインストラクター付きの「海釣り体験教室」は、毎年数百名が参加する大人…,"1名～15名
※要予約",,,"0776-82-8557（0776-82-8557
メール iioproduce@gmail.com）",福井県坂井市三国町宿3-7-22(みくに隠居処内),9:00~12:00,毎週木曜日,"入場料：無料
体験料：6,380円/1セット(1セット2名様まで)",えちぜん鉄道(三国・東尋坊方面)終点「三国港駅」から徒歩7分,あり,https://mikuni-ototo.jp/,,完全手ぶらOK！インストラクター付き！海釣り体験教室,,"予約方法 : 電話
じゃらん
アソビュー
アクティビテジャパン
ぐるたび
",16,,店舗正面､裏､裏通り専用駐車場合計,受付時間 : 9:00～17:30,"
三国サンセットビーチの中央付近に位置します。みくに隠居処(いんきょじょ)という、建物の中にございます。
開催日時　4/1～10/31
※定休日が祝日の場合は、営業します。",,,,
detail_2104,越前ガニの目利き体験＆食べ比べ,えちぜんがにのめききたいけんあんどたべくらべ,"あわら・坂井・福井市,坂井市",バリアフリー,36.2234313,136.1358034,14,https://www.fuku-e.com/experience/detail_2104.html,https://www.fuku-e.com/lsc/upfile/spot/0000/2104/2104_1_l.jpg,福井県内で唯一の越前ガニの目利き体験＆食べ比べ！蟹の等級基準が県内一厳しい言われる「三国港」から仕入れた越前ガニが入った目利き体験専用の生簀を囲みながら、クイズ形式で楽しく蟹の目利きをして頂きます！「越前がに」と「ズワイガニ」の食べ比べ試…,"10名まで
※10名を超える場合は、別途お問い合せください。",,,"0776-82-8558（0776-82-8558
）",福井県坂井市三国町宿3-7-22(みくに隠居処内),"11:00~12:30
開催期間:2021年11月10日~2021年12月31日
(年末の営業日に関しては､別途お問合せ下さい｡",毎週木曜日,"入場料：無料
体験料：団体予約のみの受付です。3,300円/人",えちぜん鉄道(三国・東尋坊方面)終点「三国港駅」から徒歩7分,あり,https://inkyojo.jp/echizengani/,,越前ガニの目利き体験＆食べ比べ,,予約方法 : 電話,16,,店舗正面､裏､裏通り専用駐車場合計,受付時間 : 9:00～17:30,三国サンセットビーチの中央付近に位置します。みくに隠居処(いんきょじょ)という、建物の中にございます。,,,,
detail_2105,刃物の里,はもののさと,"丹南,越前市","ものづくり体験,歴史・文化体験",35.8759020312077,136.146455300347,16,https://www.fuku-e.com/experience/detail_2105.html,https://www.fuku-e.com/common/images/ogImg.png,南北朝時代の刀匠千代鶴国安から始まる700年の越前打刃物の歴史や、各工房で製作している包丁を展示しており、打刃物についていろいろ知ることができる施設です。また、越前打刃物を使った料理教室等のイベントを毎月実施するとともに、週末(不定期)には職人…,お問い合わせください。,,,0778-22-1241（刃物の里）,福井県越前市池ノ上町48-6-1,午前9時から午後5時まで,毎週火曜日　年末年始(12月29日から翌年1月3日),"入場料：無料
体験料：お問い合わせください",JR武生駅より車で15分/北陸自動車道武生ICより約15分,あり,https://www.hamononosato.com,,越前打刃物包丁での素材の試し切り、料理実演会、包丁研ぎ体験,,予約方法 : 事前のご予約が必要です。詳しくは、HPをご確認ください。,,,,,,,,,
detail_2106,天池の宿,あまいけのやど,"丹南,池田町",漁業体験・魚釣り,35.82783422112755,136.39141753348218,15,https://www.fuku-e.com/experience/detail_2106.html,https://www.fuku-e.com/lsc/upfile/spot/0000/2106/2106_1_l.jpg,志津原地区から国道417号線をのぼっていった冠山のふもとにある施設。ニジマスの釣り堀があり、釣り竿やエサも準備してくれるので、手ぶらで行っても大丈夫です。釣れやすいお子様専用の釣り場もあり、親子で楽しめます。釣ったお魚は焼いてもらったり、バー…,1～80名,,,0778-44-6468（天池の宿）,福井県池田町河内14-6,8:00～17:00,冬期(12月～3月頃),"1竿2,000円(えさ付き)",北陸自動車道「武生IC」または「鯖江IC」から車で45分/北陸自動車道「福井IC」から車で50分,あり,https://www.e-ikeda.jp/play/p004023.html,,釣り,,予約方法 : 電話予約,20,,,,,,,,
detail_2107,Nans sea(ナンシー),なんしー,"あわら・坂井・福井市,坂井市",自然・スポーツ体験,36.2251786608141,136.132968169968,17,https://www.fuku-e.com/experience/detail_2107.html,https://www.fuku-e.com/lsc/upfile/spot/0000/2107/2107_1_l.jpg,サーフィンスクール　SUPスクール　海女さんの手仕事体験,コースごとに異なります。詳しくはHPをご覧ください。,,,"0776-82-6918（Nans sea(ナンシー)
0776-82-6918）",福井県坂井市三国町米ｹ脇4-4-28,10:00~19:00(月)(金)のみ11:00~19:00,不定休,コースごとに異なります。詳しくはHPをご覧ください。,えちぜん鉄道　三国港駅より徒歩12分,あり,http://www.nansea.jp/,,複数のコースがございます。詳しくはHPをご覧ください。,,予約方法 : 電話、アソビュー、じゃらん(HPから予約サイトにとべます),,,,受付時間 : 電話10:00～19:00　　,体験は予約制です。詳しくはHPをご覧ください。,,,,
detail_2108,あかぐり海釣公園,あかぐりうみづりこうえん,"若狭路,おおい町",漁業体験・魚釣り,,,,https://www.fuku-e.com/experience/detail_2108.html,https://www.fuku-e.com/common/images/ogImg.png,海上に突き出た直径55ｍの円形釣桟橋で気軽に海釣り気分が味わえます。,150人,,,0770-77-4003（あかぐり海釣公園）,福井県おおい町大島21-110,"3月､12月 7:00~17:00
4月~11月 6:00~18:00",冬季休業12/25～2月末日,"入場料：中学生以上1,000円、小学生500円、小学生未満無料 ※車一台につき清掃協力金1,000円別途
体験料：入場料に同じ",JR若狭本郷駅から大島行き福鉄バス「塩浜海水浴場」下車徒歩2分/舞鶴若狭自動車道小浜西ICから20分、大飯高浜ICから30分,あり,,,海釣り体験,,予約方法 : 少人数であれば予約なしでOK。団体の場合は予め電話でご連絡下さい。,70,,,受付時間 : 3月、12月　7:00～17:00 4月～11月　6:00～18:00,釣った魚をバーベキュー広場で食べることもできます。(施設使用料金別途必要),,,,
detail_2109,海辺のいちご畑　ジョリーファーム,うみべのいちごばたけ　じょりーふぁーむ,"若狭路,高浜町",農業体験・フルーツ狩り,,,,https://www.fuku-e.com/experience/detail_2109.html,https://www.fuku-e.com/lsc/upfile/spot/0000/2109/2109_1_l.jpg,広大なハウスで数種のいちごを栽培しており、食べ比べができるいちご狩りスポット。お天気を気にしないで楽しめます。数種のいちごを栽培しており、販売もしています。,"1-50名
3月ー6月は最大100名",,,0770-50-9024（自然に大の字あそぼーや）,福井県高浜町和田55-101,1月中旬~6月中旬頃,月曜、金曜(ただし、祝日は除く),"大人(中学生以上)2,100円、シニア(70歳以上)1,600円、小学生1,500円、幼児1,000円、乳児(2歳以下)無料※ＧＷ終了後値段変更有",舞鶴若狭自動車道「大飯高浜IC」から約13分/JR若狭和田駅から車で約2分(徒歩:約13分),あり,"http://www.pamco-net.com/asobo-ya/,https://www.fuku-e.com/fukutabi/detail_19.html",,,,予約方法 : 電話またはネット予約,,,,受付時間 : 来園予定の1か月前より受付可,,,,,
detail_2110,パピィーフルーツパーク,ぱぴぃーふるーつぱーく,"若狭路,高浜町",農業体験・フルーツ狩り,,,,https://www.fuku-e.com/experience/detail_2110.html,https://www.fuku-e.com/lsc/upfile/spot/0000/2110/2110_1_l.png,寒暖の差がある青葉山の麓で栽培しており、甘いいちごが作られ、直売所やスーパーに並びます。いちご狩りも人気です。,最大30名,,,"0770-50-7729（合同会社内浦H＆Sクリエイト
0770-50-7729）",福井県高浜町鎌倉26-17,3月中旬~6月中旬頃,,"大人(中学生以上)1,500円、小学生1,000円、幼児(保育所、幼稚園児)500円、乳児(2歳以下)無料",舞鶴東ICより車で20分,あり,http://pappyfruitspark.com/,,,,予約方法 : 電話またはネット予約,,,,,,,,,
detail_2111,TOURISTORE,つーりすとあ,"丹南,鯖江市",ものづくり体験,,,,https://www.fuku-e.com/experience/detail_2111.html,https://www.fuku-e.com/common/images/ogImg.png,越前漆器は福井県鯖江市が誇る伝統工芸です。このプランでは工房見学や実演によって職人の技を間近で感じ、レクチャーを受けながら実際に漆塗りを体験することができます。体験に必要な道具や手袋はご用意しておりますので、手ぶらでご参加いただけます。旅…,"時間帯一組　1～4名まで
付き添いの方は何名でも可",,,"0778-25-0388（TOURISTORE
TELL　:　0778-25-0388
MAIL　:　info@touristore.jp）",福井県鯖江市河和田町19-8,12:00〜18:00(土日は11:00〜18:00),月～木,"入場料：無料
体験料：お椀(1個):5,500円(税込) ※料金に含まれるもの 体験料・材料費
※完成商品の郵送をご希望の場合、当日別途送料がかかります。
※商品のお渡しには約一か月かかります。",北陸自動車道鯖江ICより車で約10分,あり,https://touristore.jp/,,お椀漆塗り体験＊1500年の歴史の伝統工芸体験！,,予約方法 : https://www.jalan.net/kankou/spt_guide000000203997/,,,,受付時間 : 火・水以外の12:00〜18:00 (土日は11:00〜18:00),"・対象年齢　10歳以上 
・服装　　　　汚れてもかまわない服装でお越しください。 
・その他　　 漆を使用するため、肌がかぶれる可能性があります。あらかじめご了承ください。",,,,
detail_2112,若狭三方縄文博物館,わかさみかたじょうもんはくぶつかん,"若狭路,若狭町",歴史・文化体験,35.5589593,135.8965191,14,https://www.fuku-e.com/experience/detail_2112.html,https://www.fuku-e.com/lsc/upfile/spot/0000/2112/2112_1_l.jpg,縄文博物館では各種体験講座を行っております。実施日の1週間前までにご予約くださいますようお願いします。個人での参加も可能です。ただし他の行事が重なるなどの理由で実施できない場合もありますので、必ず事前にお問い合わせ、ご予約をお願いします。,1～54名(年縞博物館も入館の場合は、130名),,,0770-45-2270（若狭三方縄文博物館 0770-45-2270）,福井県若狭町鳥浜122-12-1,9:00~17:00(入館は16:30まで),毎週火曜日(祝日等の場合はその翌日) / 年末年始/燻蒸による臨時休館,"入場料：大人500円、高校生以下200円、小学生未満無料　隣接する年縞博物館との共通観覧券あり/団体割引あり(20名以上)
体験料：勾玉づくり250円、土笛づくり150円、土器づくり400円、火おこし150円、丸木舟乗船200円",JR三方駅から徒歩約25分/舞鶴若狭自動車道三方五湖スマートICから約5分,あり,http://www.town.fukui-wakasa.lg.jp/jomon/,,勾玉づくり(70分)、土笛づくり(30分)、土器づくり(120分)、火おこし(45分)、丸木舟乗船(60分)　※(　)所要時間　※丸木舟乗船体験は7月下旬～9月上旬まで　,,予約方法 : 電話またはメール,70,4,,受付時間 : 9時から17時,"体験講座はすべて事前予約が必要です。少なくとも1週間前までにお電話でご相談ください。
また博物館にご入館いただいた方を対象にしています。
諸事情により上記内容が変更になる場合があります。事前にお問い合わせください。",,,,
detail_2113,漁師体験(田烏:民宿浜乃家),りょうしたいけん,"若狭路,小浜市",漁業体験・魚釣り,35.536822,135.835556,20,https://www.fuku-e.com/experience/detail_2113.html,https://www.fuku-e.com/lsc/upfile/spot/0000/2113/2113_1_l.png,漁師さんが民宿を経営されている「漁師民宿」に泊まったお客様には特別に、船に乗って漁に出かける、漁師体験ができるコースが設けられています。,,,,0770-54-3206（民宿浜乃家:0770-54-3206）,福井県小浜市田烏,6月~10月,11月～5月,"・中学生以上:10,000円(1泊2食＋体験付き)
・小学生:8,000円(1泊2食＋体験付き)","JR小浜駅から車で約25分
JR大鳥羽駅から車で約10分",あり,,,定置網漁体験コース(乗船有)                                      ,,予約方法 : 民宿へお問合せ下さい,8,,,,,,,,
detail_2114,箸匠せいわ,はししょうせいわ,"若狭路,小浜市",ものづくり体験,35.47169,135.780893,15,https://www.fuku-e.com/experience/detail_2114.html,https://www.fuku-e.com/lsc/upfile/spot/0000/2114/2114_1_l.jpg,世界で一膳、自分だけのお箸が作れます。店内には伝統的な若狭塗箸をはじめ、夫婦円満箸や宝くじ当選箸など楽しいお箸が約400種類並べられています。,,,,0770-56-0884（0770-56-0884）,福井県小浜市竜前6-2,9:00~17:00,年中無休,一膳200円(税込),"JR小浜駅から車で約13分　　　　　　　
小浜ICから約6分",あり,https://www.e-hashiseiwa.com/,,研磨体験,,予約方法 : 団体の場合はHP、予約フォームにて申込,30,10,,受付時間 : 個人のお客様は16:30までの来店で体験可。旅行サイトじゃらんより予約も可,"個人のお客様は当日来店し体験することが可能。　　　　　　
お箸のお話は団体様向け。",,,,
detail_2115,漁師体験(阿納:民宿かわはら),りょうしたいけん,"若狭路,小浜市",漁業体験・魚釣り,35.534373,135.785405,19,https://www.fuku-e.com/experience/detail_2115.html,https://www.fuku-e.com/lsc/upfile/spot/0000/2115/2115_1_l.png,漁師さんが民宿を経営されている「漁師民宿」に泊まったお客様には特別に、船に乗って漁に出かける、漁師体験ができるコースが設けられています。,,,,0770-54-3046（民宿かわはら:0770-54-3046）,福井県小浜市阿納11-8,5月~10月,11月～4月,"・中学生以上:10,000円(1泊2食＋体験付き)
・小学生:8,000円(1泊2食＋体験付き)",JR小浜駅から車で約15分,あり,,,魚釣り＆魚さばき体験コース,,予約方法 : 各民宿へお問合せ下さい,10,,,,,,,,
detail_2116,漁師体験(犬熊:民宿浜岸),りょうしたいけん,"若狭路,小浜市",漁業体験・魚釣り,35.530147,135.789677,19,https://www.fuku-e.com/experience/detail_2116.html,https://www.fuku-e.com/lsc/upfile/spot/0000/2116/2116_1_l.png,漁師さんが民宿を経営されている「漁師民宿」に泊まったお客様には特別に、船に乗って漁に出かける、漁師体験ができるコースが設けられています。,,,,0770-54-3359（民宿浜岸:0770-54-3359）,福井県小浜市犬熊16-4,5月~9月,10月～4月,"・中学生以上:10,000円(1泊2食＋体験付き)
・小学生:8,000円(1泊2食＋体験付き)",JR小浜駅から車で約15分,あり,,,刺し網漁体験コース(乗船有),,予約方法 : 各民宿へお問合せ下さい,,,犬熊海水浴場無料駐車場,,"小型犬同伴で宿泊可能:1匹1,000円/2匹目から500円(大型犬は要相談)",,,,
detail_2117,越前陶芸村　BBQ　GARDEN,えちぜんとうげいむらばーべきゅーがーでん,"丹南,越前町",バリアフリー,35.935108,136.058512,14,https://www.fuku-e.com/experience/detail_2117.html,https://www.fuku-e.com/lsc/upfile/spot/0000/2117/2117_1_l.jpg,陶芸村で手軽にバーベキューを楽しもう！バーベキューセットも食材も用意してあるから、手ぶらでOK！もちろん面倒な後片付けもスタッフにおまかせ♪陶芸村ならではの越前焼陶板で焼いたお肉は、パリッと香ばしくジューシーに焼きあがります。,,,,0778-32-2174（福井県陶芸館　0778-32-2174）,福井県越前町小曽原120-61,"受付時間 11:00~13:00
利用時間 11:00~16:00",月曜日(祝日を除く)、祝日の翌日、年末年始,"設備貸出　1セット　3,500円
特選(若狭牛セット)　1人前　4,000円
松(黒毛和牛セット)　1人前　3,000円
竹(国産牛セット)　　1人前　2,000円　など","【公共交通機関の場合】JR武生駅からかれい崎行き福鉄バスで30分、「陶芸村口」下車後、徒歩10分
【車の場合】北陸自動車道武生または鯖江ICから車で30分",あり,https://www.tougeikan.jp/,,越前陶芸村　BBQ　GARDEN,,予約方法 : お電話でお申し込みください,250,,越前陶芸村総合駐車場､越前古窯博物館駐車場 合計,受付時間 : 9:00～17:00,,,,,
detail_2118,越前陶芸村グランドゴルフ,えちぜんとうげいむらぐらんどごるふ,"丹南,越前町",自然・スポーツ体験,35.935021,136.058308,0,https://www.fuku-e.com/experience/detail_2118.html,https://www.fuku-e.com/lsc/upfile/spot/0000/2118/2118_1_l.jpg,越前陶芸村に、お子様からお年寄りまで楽しんでいただけるグランドゴルフコースができました！起伏のあるアート広場のモニュメントを巡るオリジナルコースです。たっぷり遊べる8ホール！自然いっぱいの陶芸村で思いっきりプレーしてみませんか♪,,,,0778-32-2174（福井県陶芸館　0778-32-2174）,福井県越前町小曽原120-61,9:00~17:00(最終受付15:00),月曜日(祝日を除く)、祝日の翌日、年末年始,1人500円(スティック・ボール貸出付),"【公共交通機関の場合】JR武生駅からかれい崎行き福鉄バスで30分、「陶芸村口」下車後、徒歩10分
【車の場合】北陸自動車道武生または鯖江ICから車で30分",あり,https://www.tougeikan.jp/,,越前陶芸村グランドゴルフ,,予約方法 : お電話でお申し込みください,250,,越前陶芸村総合駐車場､越前古窯博物館駐車場 合計,受付時間 : 9:00～17:00,,,,,
detail_2119,明城ファーム,みょうじょうふぁーむ,"丹南,越前市",農業体験・フルーツ狩り,35.90493,136.20796,17,https://www.fuku-e.com/spot/detail_2119.html,https://www.fuku-e.com/lsc/upfile/spot/0000/2119/2119_1_l.jpg,1月上旬～5月下旬はいちご狩りが楽しめます。6月上旬～8月上旬にはブルーベリー狩り、10月中旬～12月下旬、4月下旬～7月下旬にはトマト狩りも楽しめます。詳しくはHPをご確認ください。20年の2月には直営店のカフェがオープンしました。明るい光が差し込み、…,お問い合わせください。,,,0778-42-7201（明城ファーム）,福井県越前市杉崎町3-9-1,"摘み取り園 10:00~16:00
直営店ｶﾌｪ 10:00~15:00",不定休 ・カフェは毎週火曜日,"入場料：無料
体験料：大人2000円、小学生1500円、幼児500円、3歳以下無料(時期、時間によって変動しますのでお問い合わせください)",JR武生駅より車で20分/北陸自動車道武生ICより約10分,あり,https://myojo-farm.jp/,,いちご狩り体験,,予約方法 : 事前のご予約が必要です。詳しくは、HPをご確認ください。,,,,,,,,,
detail_2120,山岸農園,やまぎしのうえん,"あわら・坂井・福井市,あわら市",農業体験・フルーツ狩り,36.23272,136.22956,16,https://www.fuku-e.com/experience/detail_2120.html,https://www.fuku-e.com/lsc/upfile/spot/0000/2120/2120_1_l.jpg,有機質肥料主体で安心と美味しさにこだわって、丁寧に育てたいちご「あきひめ」「紅ほっぺ」「恋みのり」,40名,,,090-2837-5957（山岸農園）,福井県あわら市青王6-55,10:00~16:00,,"大人(中学生以上)2,200円
子ども(小学生以上)1,600円
幼児(3歳以上)1,200円
3歳以下無料
30分食べ放題
(4/8よりそれぞれ200円引き)",北陸自動車道金津ICから車で10分,,https://yamagishifarm.localinfo.jp/,,いちご狩り,,予約方法 : 電話,,,,,,,,,
detail_2121,あわらベルジェ観光ぶどう園,あわらべるじぇかんこうぶどうえん,"あわら・坂井・福井市,あわら市",農業体験・フルーツ狩り,36.2551214598352,136.197205111084,15,https://www.fuku-e.com/experience/detail_2121.html,https://www.fuku-e.com/lsc/upfile/spot/0000/2121/2121_1_l.jpg,22品種のぶどうを販売、摘み取りができます,80名,,,0776-77-2930（あわらベルジェ観光ぶどう園）,福井県あわら市波松68-87-2,9:30~16:00,月曜日,"大人(中学生以上)600円、小人(小学生)400円、5歳以下無料
子ども600円",北陸自動車道金津ICから車で20分,あり,http://www.peerfarm.jp/,,ブドウ摘み取り、ナシ収穫、リンゴ収穫体験可能,,予約方法 : メール,50,,,受付時間 : 団体の方は土、日は受けません,,,,,
detail_2122,(有)あわら農楽ファーム いちごハウス「農楽里」,あわらのうがくふぁーむいちごはうすのらり,"あわら・坂井・福井市,あわら市",農業体験・フルーツ狩り,36.2374577330813,136.224351661377,15,https://www.fuku-e.com/experience/detail_2122.html,https://www.fuku-e.com/lsc/upfile/spot/0000/2122/2122_3_l.jpg,坂井北部丘陵地のフルーツライン沿いにいちごハウス「農楽里」があります。いちごハウスから見た丘陵地の景観が大変素晴らしいです。　　　　　　　　　　　　　　「いちご」は高設ステーションで栽培され、土に触れなく、立った姿勢で楽にいちご摘みができ…,予約制,,,"0776-63-6341（(有)あわら農楽ファーム
　TEL　0776-63-6341）",福井県あわら市山十楽58-22,9:30~15:30(予約制),毎週　火曜日,"2月～3月 (税込)
　大　人　2,000円
　小学生　1,400円
　幼　児　1,000円2歳以下無料)

4月～5月(税込)
　大　人　1,800円
　小学生　1,200円
　幼　児 　  800円　(2歳以下無料)","北陸自動車道金津ICから車で10分　　　
JR芦原温泉駅から車で10分",あり,http://www.awara-nougaku.jp,,いちご摘み体験,,予約方法 : 電話・HP,50,,,"受付時間 : 10:00～15:00
(但し、休園日は除きます)","いちごハウス「農楽里」は雨の日にもいちご摘み体験は出来ます。　　　　　
いちごハウス「農楽里」では、「いちごジャム」「手づくりかきもち」「特別栽培米コシヒカリ」「コシヒカリ」「ハナエチゼン」を販売しています。予約時にお米のご注文を頂ければ精米したてのお米を購入することもできます。",,,,
detail_2123,芦原温泉フルーツパークOKAYU,あわらおんせんふるーつぱーくおかゆ,"あわら・坂井・福井市,あわら市",農業体験・フルーツ狩り,36.23755,136.2231,15,https://www.fuku-e.com/spot/detail_2123.html,https://www.fuku-e.com/lsc/upfile/spot/0000/2123/2123_1_l.jpg,ブルーベリー・ぶどう狩りなど,50名,,,090-8098-8042（芦原温泉フルーツパークOKAYU）,福井県あわら市山十楽58-27,9時~16時,不定休,"入場料：2021年は無料
体験料：採った分を量り売り2円～／ｇ",北陸自動車道金津ICから車で10分,あり,https://oka-yu.com/,,ブルーベリー・ぶどう狩りなど,,予約方法 : 電話・HP,10,,,受付時間 : 随時,HPを確認してください。,,,,
detail_2124,森藤農園,もりとうのうえん,"あわら・坂井・福井市,坂井市",農業体験・フルーツ狩り,36.1358080385996,136.215890728836,18,https://www.fuku-e.com/experience/detail_2124.html,https://www.fuku-e.com/lsc/upfile/spot/0000/2124/2124_1_l.jpg,"約10年前より住宅街で観光ブドウ園(1,300㎡)を行っています。",30名,,,"0776-51-0713（森藤農園
0776-51-0713）",福井県坂井市春江町随応寺中央201,10:00~16:00(但し12:00~13:00休憩),シーズン中2～3日(不定期),"入場料：無料
体験料：量り売り",北陸自動車道丸岡ICから車で15分,あり,http://www.moritounouen.jp/,,ブドウ狩り,,予約方法 : 原則予約受付は行っていませんので随時ご来園可能です。,,,ブドウ園周囲に駐車可,,,,,,
detail_2125,Noraいちご園,のらいちごえん,"あわら・坂井・福井市,坂井市",農業体験・フルーツ狩り,36.237520786114,136.179886559525,17,https://www.fuku-e.com/experience/detail_2125.html,https://www.fuku-e.com/lsc/upfile/spot/0000/2125/2125_2_l.jpg,いちご園の他にも、いちごスイーツ専門店「Ｎｏｒａカフェ」を行っています。2階にはカフェスペース、外にはテラス席を完備しています。ゆったりとした雰囲気の中、くつろぎのひとときを堪能頂けます。是非、お立ちより下さい。,1～100人,,,"0776-97-8783（Noraカフェ
0776-97-8783）",福井県坂井市三国町池上53-1-1,10:00∼15:00,毎週火曜日,"大人　　2,000円
小学生　1,700円
4歳以上1,400円
3歳以下　無料",金津ICから車で15分/東尋坊から車で10分,あり,https://www.nora-farm.jp/strawberry/index.html,,いちご狩り30分食べ放題,,予約方法 : HP,100,,第1~5駐車場合計,"受付時間 : お問い合わせ
10:00～16:00",体験は予約制です。詳しくはHPをご覧ください。,,,,
detail_2126,Hau'oli Outdoor,はうおり　あうとどあ,"若狭路,おおい町",自然・スポーツ体験,,,,https://www.fuku-e.com/experience/detail_2126.html,https://www.fuku-e.com/lsc/upfile/spot/0000/2126/2126_1_l.jpg,おおい町　大島発　自社ボートを使ったマリンアクティビティツアー　サップや、フォイルトーイングなど、少人数制でマリンアクティビティーを、満喫できます！,5人,,,090-6343-9990（090-6343-9990）,福井県おおい町大島,9:00~12:00 13:00~16:00 の1日2回開催,10/1～5/31(ゴールデンウィークは除く),"大人￥12,000　小学生￥8,000",舞鶴若狭自動車道小浜西ICから約20分、大飯高浜ICから車で約30分,あり,https://hauoli-outdoor.amebaownd.com/,,ボートサップツアー,,予約方法 : ホームページ、電話にて。ツアー開催予定日の前日15:00までにご予約下さい。,3,,,受付時間 : 6/1～9/30期間のみ受付、8:30～18:00まで,サップ以外にもマリンアクティビティツアー開催しています。詳しくはホームページより御確認ください,,,,
detail_2127,青戸ベイサイドヒルズ,あおとべいさいどひるず,"若狭路,おおい町",自然・スポーツ体験,,,,https://www.fuku-e.com/experience/detail_2127.html,https://www.fuku-e.com/lsc/upfile/spot/0000/2127/2127_1_l.jpg,ふれあい広場ではポニーの引き馬体験・エサやり体験が可能(雨天中止)でお子様に人気です。ドッグランもあるので、わんちゃんと一緒に遊んでいただけます。また、アメリカンスタイルのグリルを使用したBBQ施設の他、多種多様なメニューが充実のレストランも併…,"引き馬体験→午前の部:10:30～11:30(約6名)、午後の部13:30～15:30(約12名)
エサやり体験→10:30～16:00",,,"0770-77-3761（おおい町犬見1-48
株式会社 青戸ベイサイドヒルズ　TEL:0770-77-3761）",福井県おおい町犬見1-48,"10:00~17:00
BBQ夕方の部のみ17:30~21:00まで利用可",水曜日,"入場料：無料
体験料：引き馬体験:750円/回、エサやり:100円/カップ",JR若狭本郷駅から車で10分/舞鶴若狭自動車道小浜西ICから10分、大飯高浜ICから20分,あり,"http://aoto-bayside.com/,https://www.fuku-e.com/fukutabi/detail_63.html",,"ポニー引き馬体験
エサやり体験",,予約方法 : お電話のみ,30,1,,受付時間 : 平日・土日祝→10:00～17:00まで,動物ふれあい広場の開放・引き馬体験は当日・前日の天気に左右されますので来園前にご確認ください。BBQは3日前までの事前予約が必須となります。,,,,
detail_2128,名田庄総合木炭,なたしょうそうごうもくたん,"若狭路,おおい町",ものづくり体験,,,,https://www.fuku-e.com/experience/detail_2128.html,https://www.fuku-e.com/lsc/upfile/spot/0000/2128/2128_1_l.jpg,お菓子の空き缶に、クリやマツボックリなどを入れて炭化させると…そのままの状態で「綺麗な飾り炭」になります。日本でここだけ「研磨炭」の職人が最後まで指導します。炭のいろんな話も聞けますよ！,10名～20名まで,,,0770-67-2908（名田庄総合木炭　0770-67-2908）,福井県おおい町名田庄井上49-20-1,10:00~15:00,不定休,"一人当たり2,300円",舞鶴若狭自動車道小浜ICから40分、大飯高浜ICから40分,あり,http://kenmazumi.com/,,炭焼き体験,,予約方法 : お電話にてお申し込みください。 ご予約は1か月前までにお願いします。,10,,,受付時間 : 10:00～15:00(営業時間に同じ),,,,,
detail_2129,裃工房　紀平,かみしもこうぼう　きひら,"若狭路,おおい町",ものづくり体験,,,,https://www.fuku-e.com/experience/detail_2129.html,https://www.fuku-e.com/lsc/upfile/spot/0000/2129/2129_1_l.jpg,裃や着物の柄を染める時に使う「伊勢型紙」をつかって、型友禅染でコースターを作ります。職人の指導のもと、お好きな柄の型紙作りから一連の流れに沿って、世界に一つだけのオリジナルコースター作りに挑戦！,3～30人,,,0770-59-1135（裃工房　紀平　0770-67-3855）,福井県おおい町名田庄納田終(コミュニティーハウスよざえもん内),13:00~16:00,不定休,"一人2,300円～3,000円(所要時間や体験内容による)　お気軽にお問い合わせ下さい。",舞鶴若狭自動車道小浜ICから45分、大飯高浜ICから35分,あり,,,コースターづくり,,予約方法 : 2週間前までに、お電話にてお申し込みください。,10,,,受付時間 : 13:00～16:00(営業時間に同じ),要望があれば、反物等の本格的な型友禅染の体験も可能です。,,,,
detail_2130,里山カルチャーガーデンOISAKO,さとやま かるちゃーがーでん おいさこ,"若狭路,おおい町",自然・スポーツ体験,,,,https://www.fuku-e.com/experience/detail_2130.html,https://www.fuku-e.com/lsc/upfile/spot/0000/2130/2130_1_l.jpg,かやぶき民家や古民家カフェ・体験農園・ビオトープ・里山林などで、里山の暮らしを楽しく体験します。,基本的に15名まで　(体験内容等によって違うのでご相談ください),,,"090-2122-9393（090−2122−9393(萩原)　0770−59−1135(よざえもんカフェ)　
FAX:0770−59−2350  メール:npomorinko@yahoo.co.jp）",福井県おおい町名田庄納田終57−4,9:00〜17:00(星空観察の場合は20:00まで),定休日なし,"入場料：各体験料に含む
体験料：2000円〜4000円",舞鶴若狭自動車道小浜ICから45分、大飯高浜ICから35分,あり,https://oisako.xsrv.jp,,"まきわり体験、丸太切り体験、ピザ作り体験、星空観察等　
里山の暮らしを体験したい方は、お気軽にお問い合わせください。",,予約方法 : 電話、メール、ファックス,7,,,受付時間 : 9:30〜18:00,"全ての体験・お食事には事前予約が必要です。
また、ゲストハウスよざえもんでは14名様までお泊まりもできます。(一棟貸切)",,,,
detail_2131,ジュエリーニシモリ,じゅえりーにしもり,"永平寺・奥越,大野市",ものづくり体験,,,,https://www.fuku-e.com/experience/detail_2131.html,https://www.fuku-e.com/lsc/upfile/spot/0000/2131/2131_1_l.jpg,日頃欲しいと思っていたリングを自在に楽しみながら作れます。取り付けたい宝石をお持ちください。また、作りたいデザインの写真があればお持ちください。,1人～3人,,,0779-65-1114（0779-65-1114）,福井県大野市春日1-3-7,10:00~12:00､13:00~15:00､16:00~18:00,日曜,"入場料：無料
体験料：4,500円/人",自家用車、バス、JR,あり,,,匠が直接指導する120分でペアリングをGET！,,予約方法 : TELまたは以下のじゃらんnetよりお申込みください。 https://www.jalan.net/kankou/spt_guide000000193916/,1,,,受付時間 : ・TELの場合　18時まで ・じゃらんnetの場合　いつでも,"・服装は自由です。
・準備物はありません。
・取り付けたい宝石や作りたいデザインがあれば持参ください。",,,,
detail_2132,奥越前まんまるサイト,おくえちぜんまんまるさいと,"永平寺・奥越,大野市",,,,,https://www.fuku-e.com/experience/detail_2132.html,https://www.fuku-e.com/lsc/upfile/spot/0000/2132/2132_3_l.jpg,六呂師高原の雑木林「ハックルベリーの森」を拠点に大野市の豊かな自然を楽しく体験する活動を行っています。森林での遊びや学びの受け入れ事業の他サイクリングやカヤック、ツリークライミング、スノーシューツアーなど季節ごとのアクティビティーも随時受…,1名～(団体の受入も可能),,,0779-67-1117（0779-67-1117）,福井県大野市南六呂師169-124,午前9時~午後8時 ※体験活動による｡,不定休,"入場料：体験による
体験料：アクティビティによる",中部縦貫大野ICより車で約20分/北陸自動車道福井ICよりR158経由約1時間10分。,あり,http://www.okuetu-manmaru.com,,➀ツリークライミング&森遊び　②森遊び&森カフェ　③カヤック体験　④大野里地里山サイクリング　⑤夏季シーズン「思いっきり川遊び」　⑥冬季スノーシュートレッキング　⑦冬季スノーボディボード,,予約方法：奥越前まんまるサイト<http://okuetu-manmaru.com/>,,,,受付時間 : いつでも※℡は午前9時～午後6時,,,,,
detail_2133,九頭竜湖　カヌ－体験,くずりゅうこ　かぬ－たいけん,"永平寺・奥越,大野市",自然・スポーツ体験,,,,https://www.fuku-e.com/experience/detail_2133.html,https://www.fuku-e.com/common/images/ogImg.png,九頭竜湖でのカナディアンカヌ－の体験(初心者でもＯＫ),2名～　(高校生以下は、保護者同伴),,,"（九頭竜カヌ-クラブ事務局　(道の駅「九頭竜」内　　担当:　稲郷)
ＴＥＬ　(0779)　78-2300　(道の駅「九頭竜」　8時30分～17時　問合せ可)
ＭＡＩＬ　　info@kuzuryu2300.com）",福井県大野市下半原 下半原ふれあい湖畔,午前10時から午後3時まで,6～9月の第4土・日 開催,"入場料：無料
体験料：大人 18歳以上(高校生を除く) 一人　3000円、子供 小学生以上 一人 1500円","中部縦貫自動車道　大野ICよりＲ158岐阜方面へ　約50分
東海北陸自動車道　白鳥ICよりＲ158福井方面へ　約15分",あり,,,,,予約方法 : 不要　(当日、現地にて受付)ただし、10名以上の場合は、事前問合せ必要。,6,不可,,,"下半原ふれあい湖畔キャンプ場入口よりお入り下さい。
濡れてもよい服装、着替え、帽子、水筒など持参。　雨天、強風など天候不良時は、中止。",,,,
detail_2134,七宝工房　宙　I❤工房,しっぽうこうぼう　そら　あいらぶこうぼう,"永平寺・奥越,大野市",ものづくり体験,,,,https://www.fuku-e.com/experience/detail_2134.html,https://www.fuku-e.com/lsc/upfile/spot/0000/2134/2134_1_l.png,①ここにしかない、大野ならではの転写紙を白磁に貼り、オリジナルの食器が作れます。電気炉で焼成し、1週間～10日後にお渡しできます。②自然豊かな風景の中、七宝焼体験が出来ます。出来上がった作品は、その日のうちにお持ち帰りいただけます。,2人～6人,,,090-8265-7347（090-8265-7347）,福井県大野市柿ｹ嶋28-20-1,9:00~17:00,不定休,"入場料：無料
体験料：①2500円～ (当日数種類の中からお選びいただけます)、②アクセサリー2000円～ (当日数種類の型からお選びいただけます)","車利用の場合　福井ICより約1時間　中部縦貫自動車道大野ICより約15分
公共交通機関利用の場合　　　JR越美北線柿ケ嶋駅より徒歩10分",あり,,,"①白磁に転写紙を切り貼りしてテーブルウエアを作るクラフト体験
②七宝焼体験",,予約方法 : お電話・HP等のメールにて(3日前まで)　　　　https://www.sippokobosora.com/,,,,受付時間 : 9時～17時,"恐竜博物館まで車で30分
越前大野城まで車で20分",,,,
detail_2135,手作り工房 もっこ,てづくりこうぼう もっこ,"永平寺・奥越,大野市",ものづくり体験,,,,https://www.fuku-e.com/experience/detail_2135.html,https://www.fuku-e.com/lsc/upfile/spot/0000/2135/2135_1_l.jpg,ガラス棒をガスバーナーの炎であぶって融かし、ガラスのしずくを1個作ります。後日、ストラップやネックレスに仕立てたものをご自宅に郵送します。名水の町・大野での旅の思い出が甦ります。,1～2人,,,0779-66-4341（もっこの会 櫻井）,福井県大野市元町4-10,開店時間9:00~16:00､体験午前の部…10:00~ 午後の部…13:00~,毎週月、木　　1月～春分の日まで冬期休業,"入場料：無料
体験料：1700円～2000円",越美北線越前大野駅から徒歩10分,,,,思い出甦る、＊旅の雫＊を作ろう,,予約方法 : 電話、もしくはインスタグラムⅮⅯ,,,城下町東広場駐車場や平成大野屋隣の駐車場などをご利用ください。,受付時間 : 9:00～16:00,作品の送料は別料金になります。,,,,
detail_2136,篠座神社,しのくらじんじゃ,"永平寺・奥越,大野市",,35.97161580029863,136.4887547492981,16,https://www.fuku-e.com/spot/detail_2136.html,https://www.fuku-e.com/lsc/upfile/spot/0000/2136/2136_3_l.jpg,・水の聖地　篠座神社で眼も心も洗われる参拝体験・「篠座神社のご霊泉」のお話・霊泉まいり・御守と願掛け絵馬の授与などができます。(篠座神社について)延喜式神名帳に掲載される古社。戦乱により一時荒廃するも、大野城主金森長近により再興され、歴代藩…,,,,0779-65-1455（篠座神社社務所　電話 0779-65-1455　メール info@shinokura.net）,福井県大野市篠座42-5,,,"2,000円(御守代、絵馬代等含む)",,あり,,,しのくら霊泉まいり,,予約方法 : 電話、メール,20,可,,,要予約,,,,
detail_2137,星空ハンモック,ほしそらはんもっく,"永平寺・奥越,大野市",自然・スポーツ体験,36.0201613,136.5730423,18,https://www.fuku-e.com/experience/detail_2137.html,https://www.fuku-e.com/lsc/upfile/spot/0000/2137/2137_4_l.jpg,ハンモックに揺られながらワンドリンク。天気が良いと満天の星空をお楽しみいただけるプランです。,100名迄,,,0779-67-1166（0779-67-1166）,福井県大野市南六呂師169字東上谷野,日没後の1時間,開催日指定,"体験料：1,７５０円(税込)～　※入場料込み、ワンドリンク付き","JR越前大野駅から六呂師行き京福バス「六呂師高原」下車/
北陸自動車道福井または福井北ICから車で60分",あり,"https://www.milk-koubou.com,https://star.ono-kankou.jp/",,星空ハンモック,,予約方法 : 個人様:じゃらん体験サイトより 団体様:電話にて,,,,,,,,,
detail_2138,大野観光自動車㈱　旅行事業部,おおのかんこうかぶ　りょこうじぎょうぶ,"永平寺・奥越,大野市",,,,,https://www.fuku-e.com/experience/detail_2138.html,https://www.fuku-e.com/lsc/upfile/spot/0000/2138/2138_1_l.jpg,大野市の絶景や名産、自然を体感できるアクティビティを存分に味わうことができるツアーを多数展開しています。,2名様以上1組,,,0779-66-3023（大野観光自動車㈱旅行事業部　　電話0779-66-3023　ＦＡＸ0779-66-1550　　　　　　　　　　　　　　　メールｏｋｔｏｕｒ＠ｏｎｏｋａｎｋｏ.ｃｏ.ｊｐ）,福井県大野市中野57-11-2,09:00~17:00,土・日・祝,"①大人・小人共3,500円②大人3,000円、小人1，500円(わさび漬け2瓶程度)③大人・小人共5,000円(里芋1キロと昼食付)④大人6,000円、小中高校生3,500円⑤大人・小人2,500円(撮獲れた鮎2匹付)⑥大人4,000円、小中高生2,500円(獲れた魚付)",中部縦貫道大野ICより5分。JR大野駅よりタクシーで約10分。,あり,,,しな～っと体験/①天空の大野城眺望と朝のごっつお②わさび新芽摘みとわさび漬け作り③大野の里いも収穫体験と昼のごっつぉ④大野の鮎釣り体験⑤大野の鮎網漁体験と鮎取り外し⑥大野の渓谷ヤマメ・イワナ釣り体験,,予約方法 : 体験希望日の7日前に弊社電話又はメールにて。それ以降につきましては担当まで携帯にご連絡ください。藤堂規行090-5175-9930,,,,受付時間 : 平日の9:00～17:00。メールの場合は24時間。,基本的に体験ツアーはお客様の自家用車を私たちが先導いたしますので大野市内のご要望の場所にお迎えにあがります。,,,,
detail_2139,(一社)大野市観光協会,いっしゃおおのしかんこうきょうかい,"永平寺・奥越,大野市",,,,,https://www.fuku-e.com/experience/detail_2139.html,https://www.fuku-e.com/lsc/upfile/spot/0000/2139/2139_1_l.jpg,福井県の東の玄関口、越前大野には情緒ある街並みを楽しむまちなか散策がおすすめです。大野市観光協会では、まちなか散策をより楽しめるアイテムをそろえています。,1人～,,,0779-65-5521（(一社)大野市観光協会）,福井県大野市元町10-23,8:30~17:00,年末年始,"入場料：無料
体験料：①1,000円②500円/5時間まで③ペットボトル100円、マイボトル400円④1,100円～(施設によって異なる)","公共交通機関:JR越前大野駅から徒歩約10分
車:中部縦貫自動車道大野ICより車で約10分",あり,https://www.ono-kankou.jp/,,①大野まちつむぎ～てぬぐい散歩～②レンタパラソルいろとりどり③オリジナル名水ボトルづくり(me+asu)④めぐみごはん,,予約方法 : 電話,,,,受付時間 : 8:30～17:00,,,,,
detail_2140,お手軽！『手ぶらde楽々・アウトドアキャンプ』,てぶらでらくらくあうとどあ,"永平寺・奥越,大野市",自然・スポーツ体験,,,,https://www.fuku-e.com/experience/detail_2140.html,https://www.fuku-e.com/lsc/upfile/spot/0000/2140/2140_1_l.jpg,1泊2食付き　夜はBBQ、朝食はロープパンにヨーグルト。食材込の手ぶらで楽々アウトドアキャンプが楽しめるプランです。オプションで化石発掘体験やバームクーヘン作りなど多彩なプログラムもご準備してます。夜は満天の星空の下焚火を囲みながらキャンプをお…,1組4名　最大16名,,,0779-78-2248（前坂キャンプ場　）,福井県大野市朝日前坂27,8:00~17:00,11月～4月上旬冬季間閉鎖,"入場料：300円
体験料：5000円～",大野東インターより国道158号線経由で50分　東海北陸自動車道白鳥インターより国道158号線経由で35分,あり,http://www.maesaka-camp.com,,お手軽！『手ぶらde楽々・アウトドアキャンプ』,,予約方法 : 電話・又はメールにて(手仕舞い3日前),200,,,受付時間 : メールは24時間　お電話受付は8:00～17:00,,,,,
detail_2141,平成大野屋　二階蔵,へいせいおおのや　にかいぐら,"永平寺・奥越,大野市",ものづくり体験,,,,https://www.fuku-e.com/experience/detail_2141.html,https://www.fuku-e.com/lsc/upfile/spot/0000/2141/2141_1_l.jpg,二階蔵は展示と体験の施設です。建物は明治20年頃、銀行の担保蔵として建てられたもので国の登録有形文化財となっています。二階蔵オリジナルのキットで、材料を貼り付けながらミニジオラマを作ります。鉄道・風景など種類も豊富でお好きなものを選べ、小さ…,1グループ　5人まで(以上は要相談),,,"0779-69-9200（(株)平成大野屋　二階蔵
echizen-ono＠h-onoya.co.jp）",福井県大野市元町1-2,9:00~17:00,毎火曜定休　(夏休み期間は定休無、冬期休館12/1～3/19(臨時開館有)),"入場料：無料
体験料：1,000円～",JR越前大野駅から車3分,あり,,,ジオラマ作り体験,,予約方法 : 個人は即受付可能　団体(5名～)は電話・メールにて要予約,,,,受付時間 : 9:00～18:00,冬期は不定期の為、要確認,,,,
detail_2142,沢登りアクティビティ,さわのぼりあくてぃびてぃ,"若狭路,若狭町",自然・スポーツ体験,35.4417045928657,135.899671061444,14,https://www.fuku-e.com/experience/detail_2142.html,https://www.fuku-e.com/lsc/upfile/spot/0000/2142/2142_1_l.jpg,若狭町にある自然豊かな美しい渓谷で天然のシャワーをうけながら、滝をよじ登ったりロープを使って下りたり、たまには真剣に遊んでみませんか？夏から秋にかけて開催します。それぞれの季節の景色を堪能しながら思いっきり楽しみましょう！,1名～,,,（PLUS WILD）,福井県若狭町熊川,,,"ガイド料金
参加者1名の場合…30,000円～
参加者2名の場合…お1人25,000円～
参加者3名の場合…お1人20,000円～
参加者4名の場合…お1人15,000円～
沢登り用品レンタル料3,000円/1式1人(ウエットスーツ、沢靴、ヘルメット)",,,https://pluswild.com/,,大人も子供も本気で川遊び！爽快・痛快のアドベンチャー沢登り！,,予約方法 : PLUS WILD HPよりお申込みください。,,,,,"コース例:
JR近江今津駅集合・・熊川ベース・・着替・・沢登り(3時間から4時間程度)・・着替え(※シャワー)・・JR近江今津駅解散
※シャワーはみかた温泉きららの湯にて
",,,,
detail_4109,旅館　浜富,りょかんはまとみ,"丹南,越前町",自然・スポーツ体験,35.893647,135.995664,16,https://www.fuku-e.com/spot/detail_4109.html,https://www.fuku-e.com/lsc/upfile/spot/0000/4109/4109_7_l.jpg,当館は、目の前の広大な日本海を一望できる、絶好のロケーションに建っています。夜には、雄大な日本海に浮かぶ漁火が心を癒してくれます。宿泊だけではなくダイビング施設としてもご利用いただけます。,,,,0778-39-1003,福井県越前町高佐35-79,,,"4月～10月／13,000円～
11月～3月／42,800円～",JR武生駅下車、武生市役所からかれい崎行き約50分、またはJR武生駅よりタクシー30分鯖江ICから約40分、または敦賀ICから約50分,あり,http://www.hamatomi.jp,,,,,,,,,ダイビングショップ併設,mailto:echizen@hamatomi.jp,,,
detail_4358,ニューサンピア敦賀,にゅーさんぴあつるが,"若狭路,敦賀市",クレジットカードOK,35.637467,136.05633,16,https://www.fuku-e.com/spot/detail_4358.html,https://www.fuku-e.com/lsc/upfile/spot/0000/4358/4358_1_l.jpg,リゾートホテルとして設計され、豪華な施設とゆったり広めのお部屋、豊富な湯種の大浴場が自慢です。会議、ご宴会はもちろん、レストランではフレンチから日本海の食材を使った会席をお楽しみいただけます。併設する施設には、冬はアイススケート場、夏には…,,,,0770-24-2111,福井県敦賀市呉羽町2,,,"宿泊：1泊2食:12,980円(税込)～
アイススケート：
　大人　1,400円
　中学・高校生　900円
　小学生以下　700円
　貸靴料　500円
　付添　　200円
　※団体割引あり(20名以上)",・JR敦賀駅前より「ぐるっと敦賀周遊バス」で約12分、「ニューサンピア敦賀」バス停下車・北陸自動車道 敦賀ICより約10分,あり,http://newsunpia-tsuruga.co.jp/,https://fuku-e.tabi-kura.com/dom/h/h007467.html?cp=2,アイススケート,,,220,,,,,,,,
detail_4557,オタイコ・ヒルズ,おたいこ・ひるず,"丹南,越前町",歴史・文化体験,35.9488703,136.0575174,16,https://www.fuku-e.com/experience/detail_4557.html,https://www.fuku-e.com/lsc/upfile/spot/0000/4557/4557_1_l.jpg,大自然に囲まれた閑静でゆったりくつろげる公共の宿！！地元食材を活用した料理が最高に美味しい。又、レストランでは「名物おたとうふ」を使った豆腐料理が大好評！海の幸、山の幸が堪能できます。大空に映える瓦（かわら）木造による柔らかな空間には、防…,,,,0778-36-2061,福井県越前町下河原37-19-1,"≪宿泊≫チェックイン 16:00／チェックアウト 10:00
≪太鼓体験≫9:00～12:00、12:00～17:00、17:00～22:00",毎週月曜日、月曜日が祝日の場合はその翌日,"1泊2食　7,560円～

≪太鼓練習館≫
練習場1：2,090円～
練習場2：1,040円～
太鼓体験料：1人につき200円（中学生以下は100円）",JR武生駅より、福鉄バスかれい崎行きで30分平等口下車徒歩3分北陸自動車道武生・鯖江ＩＣより約30分,,http://otaikohills.com/,,,,,,,,,,mailto:otaiko@town.echizen.fukui.jp,,,
detail_4839,レンタサイクルｰ福井市ｰふくチャリ(市内１５ヶ所),れんたさいくる-ふくいし-ふくちゃり,"あわら・坂井・福井市,福井市",乗り物体験,36.06150617306914,136.2224382162094,16,https://www.fuku-e.com/spot/detail_4839.html,https://www.fuku-e.com/lsc/upfile/spot/0000/4839/4839_2_l.jpg,「ふくチャリ」は、15箇所の貸出ポートで自由にレンタル・返却できるレンタサイクルです。ふくいのまちなか散策にぜひご利用ください。※「ふくチャリ」の事前予約は承っておりませんので、あらかじめご了承ください。,,,,080-8996-6996（福井市まちなかレンタサイクル運営協議会(事務局：福井市自転車利用推進課)）,福井県福井市,"8:00～21:00
※一部、施設の開館時間に準じます",,"4時間以内/200円
1日(～21:00まで)/500円
※1日ごとに500円の追加料金",,,"https://fukuchari.jimdosite.com/,https://fukuchari.jimdosite.com/%E8%B2%B8%E5%87%BA%E3%83%9D%E3%83%BC%E3%83%88/",,,,,,,,,電動アシスト37台,,/lsc/upfile/spot/0000/4839/4839_1_file.pdf,,
detail_4840,レンタサイクル-敦賀市-つるがシェアサイクル,れんたさいくる-つるがし-つるがしぇあさいくる,"若狭路,敦賀市",乗り物体験,35.6450218,136.0758723,17,https://www.fuku-e.com/spot/detail_4840.html,https://www.fuku-e.com/lsc/upfile/spot/0000/4840/4840_1_l.jpg,乗りたい時に借りて、行きたい場所で返すことができる自転車のシェア(共有)サービスです。サイクルポートにある自転車にICカードをタッチすることで誰でも借りることができます。電車、バス、車に次ぐ新しい交通手段として颯爽と赤い電動自転車でラクラクと…,,,,,福井県敦賀市,5：00〜24：00,年中無休,"【1回会員】最初の60分 220円/回、延長110円/30分、1,650円/日
【1日パス】1,650円(カード代込/つるがシェアサイクル
事務局)、1,430円(コンビニorWEBサイト)",,,"https://tsuruga-share-cycle.jp/,https://www.google.com/maps/d/u/0/viewer?mid=13y1bFoN9AKl_gcJ_G1FUWiryW4dbnsC7&ll=35.655080306277576%2C136.07458929101563&z=15",,,,,,,,,"電動アシスト自転車60台
ドコモバイクシェア",,,"【1回会員】クレジットカード、キャリア決済(ドコモ払い)
【1日パス】現金(つるがシェアサイクル事務局)、現金ほか(コンビニ)、クレジットカード必須(WEBサイト)",
detail_4841,レンタサイクル-おおい町−若狭本郷駅,れんたさいくる-おおいちょう-わかさほんごうえき,"若狭路,おおい町",乗り物体験,35.4826228,135.6193125,17,https://www.fuku-e.com/spot/detail_4841.html,https://www.fuku-e.com/lsc/upfile/spot/0000/4841/4841_1_l.jpg,若狭本郷駅ではレンタサイクルをご利用いただけます。※窓口の切符販売も同時に行っているため、列車の到着のタイミングによって、受付を多少お待ち頂く可能性があります。あらかじめご了承ください。・ご利用される際は、運転免許証や健康保険証などといった…,,,,0770-77-0026（若狭本郷駅）,福井県おおい町JR若狭本郷駅,8:30～17:00,,"【電動アシスト付】4時間以内/700円、4時間超過/1,400円
【自転車】4時間以内/500円、4時間超過/1,000円",,,https://www.wakasa-ohi.jp/hongo_station1/770774050/,,,,,,,,,電動アシスト付 7台、自転車(大人)7台、自転車(子供)2台,,,,
detail_4842,レンタサイクル-若狭町−JR三方駅,れんたさいくる-わかさちょう−じぇいあーるみかたえき,"若狭路,若狭町",乗り物体験,35.55574411047429,135.90965509414673,17,https://www.fuku-e.com/spot/detail_4842.html,https://www.fuku-e.com/lsc/upfile/spot/0000/4842/4842_1_l.jpg,三方湖〜水月湖には若狭自然歩道サイクリングコースがあり、レンタサイクルで湖畔の美しい景色を楽しめます。料金：※要問い合わせ利用時間：8:30〜17:00定休日：原則なし（※臨時休業などあり、要問合せ）919-1303 福井県三方上中郡若狭町三方39-5-2＜舞鶴若…,,,,0770-45-1661（きらやま茶屋(JR三方駅)）,福井県若狭町三方,8:30～16:30,,"4時間以上　500円
1日以内　1,000円
電動　半日800円　1日以内1,600円
",,,,,,,,,,,,19台,,,,
detail_4843,レンタサイクル-美浜町−若狭美浜観光協会 (JR美浜駅内),れんたさいくる−みはまちょう−わかさみはまかんこうきょうかい(じぇいあーるみはまえきない),"若狭路,美浜町",乗り物体験,35.605071,135.936535,15,https://www.fuku-e.com/spot/detail_4843.html,https://www.fuku-e.com/lsc/upfile/spot/0000/4843/4843_1_l.jpg,若狭美浜観光協会ではレンタサイクルも行っています。自転車に乗って美浜の風を思いっきり感じてみませんか？,,,,0770-32-0222（若狭美浜観光協会）,福井県美浜町松原35−7,8:30～17:00,,"ママチャリ
　4時間まで/500円
　4時間以上/1000円
電動アシスト自転車
　4時間まで/800円
　4時間以上/1600円
電動アシストスポーツ
　4時間まで/1500円
　4時間以上/3000円",JR美浜駅内にあります,あり,https://wakasa-mihama.jp/rental-bicycle/,,,,,,,,,"ママチャリ10台
電動アシスト自転車 18台
電動アシスト自転車スポーツタイプ 5台",,,,
detail_4844,レンタサイクル−南越前町−今庄の宿かねおり,れんたさいくる−みなみえちぜんちょう−いまじょうのやどかねおり,"丹南,南越前町",乗り物体験,35.7728806,136.2009277,17,https://www.fuku-e.com/spot/detail_4844.html,https://www.fuku-e.com/lsc/upfile/spot/0000/4844/4844_1_l.jpg,レンタサイクル、日帰り入浴、宴会、研修に利用できる多機能な宿泊施設です。,,,,0778-45-0073（今庄サイクリングターミナル）,福井県南越前町今庄85−2−18,8:30～16:00,"定休日 火 夏休み期間
※スキー場営業期間は無休
※火曜日が祝祭日場合はその翌日定休日","大人1回/770円
小人1回/660円",,,,,,,,,,,,"大人用50台
小人用20台",,,,
detail_4845,レンタサイクル−越前市−越前市観光協会,れんたさいくる−えちぜんし−えちぜんしかんこうきょうかい,"丹南,越前市",乗り物体験,35.90268990000001,136.1704826,17,https://www.fuku-e.com/spot/detail_4845.html,https://www.fuku-e.com/lsc/upfile/spot/0000/4845/4845_1_l.jpg,武生は寺社仏閣等の歴史や、越前そば、ボルガライス、武生駅前中華そばといったグルメ等、多くの見どころがあり、レンタサイクルには最適なエリアです。,,,,,福井県越前市府中1−2-3センチュリープラザ内,"9:00～17:00(最終受付時間16:00)
※12月～3月は天候や道路状況により貸出不可",,"4時間500円
8時間1,000円",,,http://welcome-echizenshi.jp/tourism_detail/rentacycle/,,,,,,,,,8台,,,,
detail_4846,レンタサイクル−福井市−福井駅西口駐車場,れんたさいくる−ふくいし−ふくいえきにしぐちちゅうしゃじょう,"あわら・坂井・福井市,福井市",乗り物体験,36.062619024135365,136.2195648998022,17,https://www.fuku-e.com/spot/detail_4846.html,https://www.fuku-e.com/lsc/upfile/spot/0000/4846/4846_1_l.jpg,駐車場利用者様と同乗者様は無料で利用可能です。※雨天・積雪時は利用不可,,,,0776-30-5511（福井駅西口地下駐車場）,福井県福井市大手2,8:00～20:00,,無料(駐車場利用者とその同乗者に限る),,,https://www.pref.fukui.lg.jp/doc/hozen/chikachu.html,,,,,,,,,5台,,,,
detail_4847,レンタサイクル−小浜市−若狭おばま観光案内所(JR小浜駅前),れんたさいくる−おばまし−わかさおばまかんこうあんないじょ(じぇいあーるおばまえきまえ),"若狭路,小浜市",乗り物体験,35.4924271,135.7453246,16,https://www.fuku-e.com/spot/detail_4847.html,https://www.fuku-e.com/lsc/upfile/spot/0000/4847/4847_1_l.jpg,若狭おばま観光案内所は、JR小浜駅の目の前にある、大きな &nbsp;i (インフォメーション)マークが目印の建物です。スタッフが、小浜の観光やイベントに関する情報をご案内いたします。観光パンフレットコーナーや、レンタサイクルの貸し出し、手荷物預か…,,,,0770-52-3844（若狭おばま観光案内所）,福井県小浜市駅前町6-1,"9:00～18:00(貸出は17:00まで)
（冬期営業時間あり）",年末年始休業,"2時間以内/500円
4時間以内/900円
8.5時間以内/1600円",,,https://www.wakasa-obama.jp/information-center/,,,,,,,,,電動アシスト12台,,,,
detail_4848,レンタサイクル−大野市−JR越前大野駅,れんたさいくる−おおのし−じぇいあーるえちぜんおおのえき,"永平寺・奥越,大野市",乗り物体験,35.9829994,136.4965025,16,https://www.fuku-e.com/spot/detail_4848.html,https://www.fuku-e.com/lsc/upfile/spot/0000/4848/4848_1_l.jpg,JR越前大野駅ではレンタサイクルをご利用出来ます。駅からの城下町の歴史やグルメ散策に最適。,,,,0779-66-3350（JR越前大野駅）,福井県大野市弥生町1,7:00～18:20,降雨時及び冬季(12月～3月)はレンタルは行っておりません,"2時間/300円、4時間/600円、1日/1,000円　※子供料金は半額",,,https://www.ono-kankou.jp/useful/rental.php,,,,,,,,,大人用／6台　子供用／1台,,,,
detail_4849,レンタサイクル-勝山市-えちぜん鉄道勝山駅,れんたさいくる-かつやまし-えちぜんてつどうかつやまえき,"永平寺・奥越,勝山市",乗り物体験,36.05627342015287,136.4921531192943,16,https://www.fuku-e.com/spot/detail_4849.html,https://www.fuku-e.com/common/images/ogImg.png,福井県観光の公式サイト。恐竜や福井ゆかりの幕末偉人から温泉・宿泊情報、おろしそば、ソースカツ丼、越前ガニなどのグルメ情報も掲載。桜、海水浴、花火、紅葉、スキー・スノボなど季節・イベント情報も満載！福井の旅に役立つ情報をたっぷりお届けします！,,,,0120-840-508（えちぜん鉄道）,福井県勝山市遅羽町比島,5:40～24:00,,"普通　1回100円
電動アシスト　1回500円
(えちぜん鉄道利用者に限る)",,,,,,,,,,,,"普通7台
電動アシスト5台",,,,
detail_4850,レンタサイクル-鯖江市-鯖江市観光案内所(JR鯖江駅内),れんたさいくる-さばえし-さばえしかんこうあんないじょ(じぇいあーるさばええきない),"丹南,鯖江市",,35.943297,136.188702,17,https://www.fuku-e.com/spot/detail_4850.html,https://www.fuku-e.com/common/images/ogImg.png,福井県観光の公式サイト。恐竜や福井ゆかりの幕末偉人から温泉・宿泊情報、おろしそば、ソースカツ丼、越前ガニなどのグルメ情報も掲載。桜、海水浴、花火、紅葉、スキー・スノボなど季節・イベント情報も満載！福井の旅に役立つ情報をたっぷりお届けします！,,,,0778-51-2229（鯖江市観光案内所）,福井県鯖江市,"10:00～16:00
年始年末休業
冬期間（12月〜2月）は貸出中止",,"4時間まで200円
4時間～1日まで500円",,,https://www.city.sabae.fukui.jp/kurashi_tetsuduki/kokyokotsu/rentasaikuru/rentasaikuru01.html,,,,,,,,,5台,,,,
detail_4851,レンタサイクル-あわら市-えちぜん鉄道あわら湯のまち駅,れんたさいくる-あわらし-えちぜんてつどうあわらゆのまちえき,"あわら・坂井・福井市,あわら市",乗り物体験,36.22317040135672,136.1937345566119,17,https://www.fuku-e.com/spot/detail_4851.html,https://www.fuku-e.com/common/images/ogImg.png,福井県観光の公式サイト。恐竜や福井ゆかりの幕末偉人から温泉・宿泊情報、おろしそば、ソースカツ丼、越前ガニなどのグルメ情報も掲載。桜、海水浴、花火、紅葉、スキー・スノボなど季節・イベント情報も満載！福井の旅に役立つ情報をたっぷりお届けします！,,,,,福井県あわら市二面,6:25～19:00,,1回100円(えちぜん鉄道利用者に限る),,,http://www.echizen-tetudo.co.jp/station/rent-cycle.html,,,,,,,,,普通4台,,,,
detail_4853,レンタサイクル-永平寺町-えちぜん鉄道 永平寺口駅,れんたさいくる-えいへいじちょう-えちぜんてつどう えいへいじぐちえき,"永平寺・奥越,永平寺町",乗り物体験,36.09591682142621,136.3267927765364,18,https://www.fuku-e.com/spot/detail_4853.html,https://www.fuku-e.com/lsc/upfile/spot/0000/4853/4853_1_l.jpg,最大約220kmアシスト走行可能な、電動アシスト付ロードバイクをレンタルできます。スポーツタイプの電動アシスト付き自転車で楽に周遊観光を楽しむことができます。 大本山永平寺はもちろんのこと近隣の観光地への周遊観光などにも最適です。【貸出場所】・…,,,,0120-840-508（えちぜん鉄道）,福井県永平寺町,9:00～17:00,,"2時間　禅の里笑来宿泊者　無料、平日1,500円、休日2,000円
4時間　禅の里笑来宿泊者800円、平日1,500円、休日2,000円
8時間(1日)　禅の里笑来宿泊者1,500円、平日1,500円、休日2,000円",,あり,https://e-machidukuri.co.jp/tourism/rental-bicycle/,,,,,,,,,3台,,,,
detail_4855,レンタサイクル-高浜町-若狭高浜駅(若狭高浜観光協会）,れんたさいくる-たかはまちょう-わかさたかはまえき(わかさたかはまかんこうきょうかい),"若狭路,高浜町",乗り物体験,35.4864074,135.5475844,16,https://www.fuku-e.com/spot/detail_4855.html,https://www.fuku-e.com/lsc/upfile/spot/0000/4855/4855_1_l.jpg,高浜町では、若狭和田駅、若狭高浜駅、青郷駅の3つの駅で自転車の貸し出しをしています。,,,,0770-72-1140（若狭高浜観光協会）,福井県高浜町,"9:00～18:30
駅施設の休館日(火・第3水)のレンタル時間は9:00～17:15",,"3時間以内/500円
1日以内/1000円
※1台につき1,000円の預り金が必要",,,https://wakasa-takahama.jp/rental-bicyclecar/,,,,,,,,,電動自転車4台,,,,
detail_5043,焚き火de星空ハンモック,たきびでほしぞらはんもっく,"永平寺・奥越,大野市",自然・スポーツ体験,36.0201613,136.5730423,13,https://www.fuku-e.com/experience/detail_5043.html,https://www.fuku-e.com/lsc/upfile/spot/0000/5043/5043_1_l.jpg,環境省の調査で 2年連続日本一きれいな星空に選ばれた大野市。焚き火、マシュマロ焼き夕食、ハンモックで贅沢に星空を満喫してみませんか。&nbsp; &nbsp; &nbsp; &nbsp; &nbsp; &nbsp; &nbsp; &nbsp; &nbsp; &nbsp;…,40名迄,日没後2時間,,,福井県大野市福井県大野市南六呂師169字東上谷野,    日没後の２時間,開催日指定,５，０００円,"前大野駅から六呂師行き京福バス「六呂師高原」下車/
北陸自動車道福井または福井北ICから車で60分",あり,"https://www.ono-kankou.jp/tourism/detail.php?cd=639,https://star.ono-kankou.jp/",,環境省の調査で 2年連続日本一きれいな星空に選ばれた大野市。焚き火、マシュマロ焼き夕食、ハンモックで贅沢に星空を満喫できます,1人,,,,,,,,,,
detail_5056,レンタパラソルいろとりどり,レンタパラソルいろとりどり,"永平寺・奥越,大野市",歴史・文化体験,35.98509924465751,136.49093806743622,18,https://www.fuku-e.com/experience/detail_5056.html,https://www.fuku-e.com/lsc/upfile/spot/0000/5056/5056_1_l.jpg,歩くのが楽しくなるようなカラフル（彩豊か） な傘を持って、４００年前の趣が残る城下町で散策を楽しむ！&nbsp;&nbsp;,20人,６０分,大野市城下町,０７７９-６５-５５２１　,福井県大野市,8：３０～１６：３０,年末年始,"利用料金 500円/5時間まで
（料金には200円の破損保険金を含みます）",JR越前大野駅から徒歩5分/北陸自動車道福井ICから車で40分,あり,https://www.ono-kankou.jp/season/detail.php?cd=156,,レンタパラソル,1人,,２０,,,8：３０～１６：３０,,,,,
detail_5061,大野まちつむぎ～てぬぐい散歩～,おおのまちつむぎ　てぬぐいさんぽ,"永平寺・奥越,大野市",歴史・文化体験,35.98509924465751,136.49093806743622,18,https://www.fuku-e.com/experience/detail_5061.html,https://www.fuku-e.com/lsc/upfile/spot/0000/5061/5061_2_l.jpg,大野まちつむぎ～てぬぐい散歩～は、オリジナルデザインの手ぬぐいをスタンプカードに見立て、飲食店や文化施設を散策しながらスタンプを押して手ぬぐいを完成させる街歩きアイテムです。完成した手ぬぐいはSNS映え間違いなしのカワイイお土産に♪,1人～,1から2時間,"大野市内
大野市観光協会など",０７７９−６５−５５２１,福井県大野市,8:30～17:00,年末年始,１０００円,JR越前大野駅から徒歩５分/北陸自動車道福井ICから車で40分,あり,https://www.ono-kankou.jp/season/detail.php?cd=133,,１０００円,1人～,,２０台,,,8:30～17:00,,,,,
detail_5062,越前おおのはしごスイーツ～おかしな街歩き～,えちぜんおおの　はしごすいーつ　おかしなまちあるき,"永平寺・奥越,大野市",歴史・文化体験,35.9853687,136.4897702,18,https://www.fuku-e.com/experience/detail_5062.html,https://www.fuku-e.com/lsc/upfile/spot/0000/5062/5062_5_l.jpg,天空の城、「越前大野城」。そのお膝元に碁盤目状に広がる城下町は武家屋敷や昔ながらの日本家屋が佇み、かつての風情を満喫できます。スイーツクーポンを使えば、いろんなお店のお菓子をはしごしながらお得に味わえ、街歩きのお供にうれしい特典も。城下町…,1人,８：３０～１７：００,大野市観光協会など,０７７９−６５−５５２１,福井県大野市,８：３０～１７：００,年末年始,１０００円,JR越前大野駅から徒歩5分/北陸自動車道福井ICから車で40分,あり,https://www.ono-kankou.jp/season/detail.php?cd=174,,地元菓子店でスイーツを買ったり、武家屋敷にいったり城下町散策を楽しめます,1人～,,２５台,,,,,,,,
detail_5098,九頭竜ぐるっとペダル,くずりゅうぐるっとぺだる,"永平寺・奥越,大野市",自然・スポーツ体験,35.97161580029863,136.55216217041016,13,https://www.fuku-e.com/experience/detail_5098.html,https://www.fuku-e.com/lsc/upfile/spot/0000/5098/5098_1_l.jpg,九頭竜ぐるっとペダルは、九頭竜川沿いの大野市・勝山市・永平寺町で高原や田園、城下町や門前町などの風景をたのしみながらのんびりサイクリングで楽しめます！,1人,1時間～1日,,,福井県大野市,9:15から16:45,各レンタルスポットで異なります。,"クロスバイクレンタル：半日2,000円（税込）　1日2,500円（税込） 	
へッドポーチレンタル500円（税込）
※延長：500円（税込） 乗り捨て：2,100円（税込）
","道の駅越前おおの 荒島の郷：JR越前下唯野駅から徒歩１０分/北陸自動車道福井ICから車で５０分
城下町東広場：JR越前大野駅から徒歩5分/北陸自動車道福井ICから車で40分
道の駅恐竜渓谷かつやま：中部縦貫自動車道勝山IC下車後、市内方面へ車で約1分
えちぜん鉄道勝山駅：えちぜん鉄道勝山駅から徒歩5分/中部縦貫自動車道勝山ICから約5分
魅力発信交流施設えい坊館：えちぜん鉄道「松岡駅」下車徒歩10分/北陸自動車道福井北ICから車で5分

",あり,https://www.ono-kankou.jp/cycle/,,広域レンタサイクル,1人,,,,,,,,,現金,
detail_5101,道の駅 越前おおの 荒島の郷,みちのえきえちぜんおおのあらしまのさと,"永平寺・奥越,大野市",自然・スポーツ体験,35.97161580029863,136.55216217041016,13,https://www.fuku-e.com/spot/detail_5101.html,https://www.fuku-e.com/lsc/upfile/spot/0000/5101/5101_1_l.jpg,県内最大級の道の駅が百名山「荒島岳」の麓にオープン。大野産コシヒカリ100％使用した米粉バームクーヘンなど地元産食材にこだわったグルメや新鮮な農林水産物や加工品など地場産品を豊富に揃え、一年を通して購入することができます。また、アウトドアブラ…,1人～,1時間～,道の駅　越前おおの荒島の郷周辺,0779-64-4500,福井県大野市,9時～18時（冬期間は短縮予定）,12月31日・1月1日,,JR越前下唯野駅から徒歩１０分/北陸自動車道福井ICから車で５０分,あり,https://arashimanosato.com/,,"レンタサイクル
カヌー体験
クライミング体験",1人,,普通車169台,33台,,,,,,,
detail_5104,めぐみごはん,めぐみごはん,"永平寺・奥越,大野市","公共交通機関で行ける,駅から徒歩10分以内,雨でもOK(屋根つき)",,,,https://www.fuku-e.com/experience/detail_5104.html,https://www.fuku-e.com/lsc/upfile/spot/0000/5104/5104_1_l.jpg,水が豊富で、お米や野菜が美味しい大野市。各旅館のこだわりの食材や調味料を堪能し、充実した1日のスタートを！,,,"(1)扇屋旅館：大野市泉町6-10 TEL：0779-65-5858
(2)俵屋旅館：大野市日吉町1-1 TEL：0779-66-3807
(3)旅館ふじや：大野市明倫町6-18 TEL：0779-66-2259
(4)Cafe & Guest house Name came Ono(ナマケモノ)
大野市篠座町7-2 TEL：090-5220-5800
(5)阿さひ旅館：大野市錦町5−12 TEL:0779-66-2075
(6)農家民宿このは：
大野市南六呂師169-52 TEL:0779-67-1217",,福井県大野市,,,１１００円～１５００円,,,https://www.ono-kankou.jp/tourism/detail.php?cd=636,,名水の街の旬とこだわりの朝ご飯を味わう,,"(1)前日の各宿の指定時間までにご利用予定の施設にお電話ください。
(2)本プランのご予約はお電話でのみ受け付けさせていただきます。
(3)キャンセルの場合、各宿の指定時間までならばキャンセル料はいただきません。
(4)各宿の指定時間を過ぎてのキャンセルや、当日のキャンセルについては後日料金の全額を指定の方法でお支払いいただきます。
(5)宿泊状況により、ご希望の日程で対応できない場合があります。
(6)料理のメニューは季節によって変わります。",,,,各施設に直接予約の電話をしてください。 ,,,,現金,
detail_5109,星空探検隊～星降る雪原散歩～,ほしぞらたんけんたい　ほしふるせつげんさんぽ,"永平寺・奥越,大野市",自然・スポーツ体験,36.02052277328343,136.57328629325346,18,https://www.fuku-e.com/experience/detail_5109.html,https://www.fuku-e.com/lsc/upfile/spot/0000/5109/5109_1_l.jpg,スノーシューを履いてマジックアワーの雪原を散策します。散策後にはあったかい食事を楽しみ最後に星空観察会までセットになったスペシャルプランをお楽しみください。,定員：10名,3時間,,"ミルク工房奥越前
0779-67-1166",福井県大野市,日没1時間前～日没後1時間,指定日に開催,７０００円,,あり,"https://www.ono-kankou.jp/tourism/detail.php?cd=713,https://star.ono-kankou.jp/",,"（1）受付・準備（30分）
（2）ガイド付きスノーシューでの雪上散策（1時間）
（3）夕食（1時間）
（4）星空観察会（30分）
",最小催行：2名以上 ,,,,,申込締切：前日12時まで,,,,,
detail_5115,越前おおの名水めぐり「ミタス（ Me+asu）」,えちぜんおおのめいすいめぐりみたす,"永平寺・奥越,大野市",歴史・文化体験,35.982873,136.486321,16,https://www.fuku-e.com/spot/detail_5115.html,https://www.fuku-e.com/lsc/upfile/spot/0000/5115/5115_4_l.jpg,大野市は、名水百選の『御清水』をはじめまちなかに沢山湧水スポットがあります。趣きある城下町と一緒に巡って利き水してみては？湧水めぐりを楽しむボトルサービス「ミタス（ Me+asu）」をぜひご利用ください水を足す容器としてだけでなく、利用者の心と身…,,,大野市内,"（一社）大野市観光協会
 0779-6５-５５２１",福井県大野市泉町4-10,,,,JR越前大野駅から徒歩15分/北陸自動車道福井ICから車で40分,あり,https://www.ono-kankou.jp/tourism/detail.php?cd=624,,"越前おおの名水めぐり「ミタス（ Me+asu）」
こんこんと湧き出る名水の街の湧水スポットをめぐる",1人,,14,,,,,,,,
detail_5116,人力車 越前こぶし組,じんりきしゃ　えちぜんこぶしくみ,"永平寺・奥越,大野市",歴史・文化体験,35.985194,136.490955,13,https://www.fuku-e.com/spot/detail_5116.html,https://www.fuku-e.com/lsc/upfile/spot/0000/5116/5116_9_l.jpg,週末や休日ともなれば、観光客を乗せて走る人力車の姿が見られる大野市のまちなか。これは地元ボランティア「越前こぶし組」が昔懐かしい人力車で観光客を案内するサービスです。もちろん車夫は観光ガイド兼任です。車では味わえない風と景色が流れ、観光客…,１～３人,20分～40分,大野市内,0779-65-5521　（一般社団法人大野市観光協会）,福井県大野市元町,8：30～17：00,春分の日～11月末の土・日・祝日営業（雨天中止）,"人力車体験コース1,000円（約15分）
歴史の路体験コース2,000円（約25分）
街中観光コース3,000円（約35分）など",,あり,https://www.ono-kankou.jp/,,車夫と会話しながらのんびり城下町散策,1人,,451台,"城下町東広場駐車場　20台
城下町南広場駐車場　27台
事前に予約をお願いいたします
大野市観光交流課　TEL：0779-66-1111
受付時間／9：00～16：00
","結ステーション多目的広場駐車場　103台／大型バス8台（乗降のみ）
城下町東広場駐車場　78台／椅子用4台
城下町西広場駐車場　43台
城下町南広場駐車場　167台／大型バス27台／電気自動車急速充電機（無料 午後4時まで）
亀山南第一駐車場　12台／車椅子用2台
亀山西駐車場　23台
元町駐車場　25台",1週間前までの要予約となります, 【予約可能日】1週間前まで,,,当日現金払い,
detail_5124,清流での渓流釣り,せいりゅうでけいりゅうつり,"永平寺・奥越,大野市",自然・スポーツ体験,,,,https://www.fuku-e.com/experience/detail_5124.html,https://www.fuku-e.com/lsc/upfile/spot/0000/5124/5124_1_l.jpg,&nbsp; &nbsp; &nbsp; &nbsp; &nbsp; &nbsp; &nbsp; &nbsp; &nbsp; &nbsp; &nbsp; &nbsp; &nbsp; &nbsp;&nbsp;大野市では真名川、九頭竜川、清滝川などの河川でアユやイワナ、アマゴなどの渓流…,,,,大野市漁業協同組合　090-1396-5420,福井県大野市,"【大野市漁業協同組合】
アマゴ・ヤマメ・イワナ:2月1日 ～ 9月30日
コイ・フナ:1月1日 ～ 12月31日
アユ:公示した解禁日 ～ 11月30日
【奥越漁業協同組合】
ヤマメ・イワナ：3月1日～ 9月30日
コイ・フナ：1月1日 ～ 12月31日
アユ:公示した解禁日 ～ 11月30日
",,"【大野市漁業協同組合】
コイ、イワナ、フナ、ヤマメ、アマゴ    日券:1,500円   年券:4,000円
アユ   日券:3,000円 年券:12,000円
【奥越漁業協同組合】
コイ、イワナ、フナ、ヤマメ日券：1,000円年券：4,500円※中学生以下無料
アユ日券：1,500円年券：4,000円
",,,"https://www.ono-gyokyo.com/,https://okuetsu.fish/",,,,,,,,,漁業エリアにより料金、期間、遊漁券の取り扱い先が異なりますのでご注意ください,,,,
detail_5141,米糠酵素風呂太右衛門,こめぬかこうそぶろたうえもん,"永平寺・奥越,大野市","公共交通機関で行ける,雨でもOK(屋根つき)",35.9823054,136.4875914,13,https://www.fuku-e.com/experience/detail_5141.html,https://www.fuku-e.com/lsc/upfile/spot/0000/5141/5141_1_l.jpg,&nbsp; &nbsp; &nbsp; &nbsp; &nbsp; &nbsp; &nbsp; &nbsp; &nbsp; &nbsp; &nbsp; &nbsp; &nbsp; &nbsp;&nbsp;米糠酵素風呂とは・・・温度が60～70度の温かい米糠に約15分入っていただき、体の…,,,,0779-66-5131,福井県大野市,"平日／10：00～18：30
土・日・祝／9：00～16：00", 	木、金,"初回料金・・・2,750円（税込）
基本料金・・・3,850円（税込）
手ぶら料金・・・4,400円（税込）
(バスローブ、バスタオル、フェイスタオル、ペーパーショーツ、ペーパーブラ付き)
",R越前大野駅から徒歩20分/北陸自動車道福井ICから車で40分,あり,https://www.ono-kankou.jp/tourism/detail.php?cd=643,,,,,,,,,,,,,
detail_5142,酒蔵見学＆地酒オリジナルラベル体験,さかぐらけんがく　おりじなるらべるたいけん,"永平寺・奥越,大野市","ものづくり体験,歴史・文化体験",35.9896836,136.4888072,13,https://www.fuku-e.com/spot/detail_5142.html,https://www.fuku-e.com/lsc/upfile/spot/0000/5142/5142_1_l.jpg,名水のまち大野市にある1673年創業の老舗酒蔵。職人さんが丁寧に醸す工程の見学と、自分でデザインしたラベルを貼ったオリジナルラベルの日本酒が作れる体験。,１人～12人,40分,源平酒造,0779-66-5712,福井県大野市,AM9:00～PM5:00,"日・祝
年末年始
不定休",,,あり,https://www.ono-kankou.jp/tourism/detail.php?cd=370,,酒蔵見学＆地酒オリジナルラベル体験,1人,,4台,,,"2日前迄の17時
10時～15時",,,,,
detail_5145,勝原園地,かどはらえんち,"永平寺・奥越,大野市",自然・スポーツ体験,35.97258828288747,136.59507751464844,13,https://www.fuku-e.com/spot/detail_5145.html,https://www.fuku-e.com/lsc/upfile/spot/0000/5145/5145_1_l.jpg,大野市の勝原にある、BBQ＆キャンプ場。九頭竜川沿いにあり、夏場には川遊びを楽しむ人たちでにぎわう。※美しい自然は汚せばすぐに壊れてしまいます。ゴミの持ち帰りなどご協力をお願いします。,,,勝原園地,0779-66-1111,福井県大野市,,,,JR越前勝原駅から徒歩１０分/北陸自動車道福井ICから車で６０分,あり,https://www.ono-kankou.jp/tourism/detail.php?cd=579,,川遊び,,,20台,,,,,,,,
detail_5219,パドリングビレッジ ナミノバ,ぱどりんぐびれっじ なみのば,"永平寺・奥越,永平寺町",自然・スポーツ体験,36.0781698640845,136.4173756228446,17,https://www.fuku-e.com/experience/detail_5219.html,https://www.fuku-e.com/lsc/upfile/spot/0000/5219/5219_1_l.jpg,中島河川公園上流に設置されたフリースタイルカヤックの競技場。『関西電力市荒川発電所』の放水を利用しており、年間を通じて最大毎秒80トンが流れ出ます。安定した流れが特徴で、練習だけでなく世界大会の開催を目指すコースです。,,,,"「九頭竜川かわとまち協議会」事務局 0776-33-1850（NPO法人ドラゴンリバー交流会）、
0776-61-3948（永平寺町産業建設部門建設課）",福井県永平寺町荒川,,,,,,https://paddlingvil.jp/,,フリースタイルカヤック。安定した流れが特徴で、練習だけでなく世界大会の開催を目指すコースです。,,,,,,※必ず1週間前までに利用申請を,,,,,
detail_5228,えちぜん鉄道永平寺口駅,えちぜんてつどうえいへいじぐちえき,"永平寺・奥越,永平寺町",乗り物体験,36.09591682142621,136.3267927765364,18,https://www.fuku-e.com/spot/detail_5228.html,https://www.fuku-e.com/lsc/upfile/spot/0000/5228/5228_1_l.jpg,国の登録有形文化財となっている旧駅舎の雰囲気を採り入れた、白を基調とした洋風デザインの駅舎。駅前に建つ旧京都電燈古市変電所（レンガ館）と共に整備され、どちらもフォトスポットとしても人気です。,,,,0120-840-508（えちぜん鉄道）,福井県永平寺町,6:50～20:20,,"1回100円
(えちぜん鉄道利用者に限る)",,あり,http://www.echizen-tetudo.co.jp/station/rent-cycle.html,,,,,,,,,3台,,,,
detail_5253,べり果,べりか,"永平寺・奥越,勝山市",農業体験・フルーツ狩り,36.07123292374298,136.47982835769653,17,https://www.fuku-e.com/spot/detail_5253.html,https://www.fuku-e.com/lsc/upfile/spot/0000/5253/5253_1_l.jpg,土づくりから生まれる、濃い深い甘い苺。品種は甘みが強く酸味が穏やかな「かおり野」果実が大きく香りが良いのが特徴です。他の品種に比べて収穫が始まるのが早いので長い期間、いちご狩りが楽しめます。冬でも暖かい全天候型のハウスで、立って摘み取れる…,10名以上のご予約はお電話でお問合せください。,30分,,"0779-64-5152
（電話での予約は行っておりません）",福井県勝山市荒土町新保２１－１,10:00~16:00(最終受付１５：３０）,毎週火曜日,"●いちご狩り体験　30分間食べ放題　＊完全予約制
大人（中学生以上）/2000円　小学生/1700円
4歳～小学生未満/1400円　　 3歳以下無料

●自家製ソフトクリーム　400円
",中部縦貫自動車道勝山IC下車後、市内方面へ約1分,あり,"https://strawberika.jp/,https://www.instagram.com/berika.strawberry_official/","https://select-type.com/rsv/?id=pNmDrzmjQEc,https://www.jalan.net/kankou/spt_guide000000215289/activity_plan/","いちご狩り体験
30分間食べ放題（品種　かおり野）",,,88台,11台,勝山市道の駅「恐竜渓谷かつやま」の駐車場,12月中旬～5月下旬,"10名様以上のご予約はお電話でお問い合わせください。
バリアフリー対応です。車いすの方もご一緒にいちご狩りを体験していただけます。
感染症対策のためハウス内ではご飲食以外でのマスク着用、食べ放題終了時は速やかにご体質をお願いいたします。

予約開始や営業日のお知らせはInstagramで行っております。",,,,
detail_5262,越前蕎麦倶楽部,えちぜんそばくらぶ,"あわら・坂井・福井市,福井市",食品づくり体験,36.0611524,136.2208108,0,https://www.fuku-e.com/experience/detail_5262.html,https://www.fuku-e.com/lsc/upfile/spot/0000/5262/5262_1_l.jpg,JR福井駅から徒歩すぐの好立地で、福井名物の本格的な「手打ちそば」を体験と食事の両方楽しめるお店。 ランチ営業では、厳選された素材で作られた越前蕎麦を味わえ、人気メニューは、「あげおろしそば」。,,,,050-3637-3101,福井県福井市中央1丁目10ー21,"１０：００～２０：００
ランチ営業は１１：００～１４：００",月曜日・火曜日,,JR福井駅から徒歩５分,,https://echizensoba.club/,https://www.jalan.net/kankou/spt_guide000000193999/,そば打ち体験,,,,,,,,,,,
detail_5264,手ぶらでOK！ 船上からのイカ釣り体験,,"丹南,越前町",漁業体験・魚釣り,35.92941415294395,135.997416973114,15,https://www.fuku-e.com/experience/detail_5264.html,https://www.fuku-e.com/lsc/upfile/spot/0000/5264/5264_1_l.jpg,港町越前町はカニ漁で知られていますが、イカ釣り漁も盛んです。夏の時期になると沖合に漁火が煌々と灯ります。このプログラムでは、約３時間のイカ釣り漁を楽しむことができます。今年の夏は本格船釣りにチャレンジしてみよう！&nbsp;※７月・８月の土曜…,,約3時間,越前漁港（漁船による集合所が異なる）,,福井県越前町,,,,,,https://www.town-echizen.jp/locotabi/archives/product/202004_006,,船上でのイカ釣り体験,最小催行人数／2名以上（小学生以上）から,,,,,,,,,,
detail_5279,恐竜バス,きょうりゅうばす,"あわら・坂井・福井市,永平寺・奥越,福井市,勝山市",恐竜,36.0614066,136.2240489,17,https://www.fuku-e.com/spot/detail_5279.html,https://www.fuku-e.com/lsc/upfile/spot/0000/5279/5279_1_l.jpg,京福バスでは、福井駅から恐竜博物館へ直通となる恐竜バスを運行しています。恐竜バスには、「恐竜号」と「海竜号」の２台があり、大迫力のトリックアートデザインは写真映え間違えなしです。車内では、探検隊キャプテンにふんした添乗員が出迎え、探検隊ク…,,,,0776-57-7700（平日（８：３０～１７：００））,福井県福井市手寄１丁目１,,,"おとな（中学生以上）　２，０００円
こども（小学生）　　　１，０００円",,,https://bus.keifuku.co.jp/topix/20210327_dinosaur/,,,,,,,,,"・車両故障等で恐竜バスが運行できず、車内コンテンツも提供できない場合がございます。予めご了承ください。
・座席定員制のため、満席の場合はご乗車いただけない場合がございます。
・手荷物はお客様ご自身で取扱いをお願いいたします。
・車内は全席禁煙です。
・定刻出発になりますので、お時間に余裕をもってお越しください。",,,,
detail_5335,【福井県陶芸館】陶あかりを作ろう2022,とうあかりをつくろう2022,"丹南,越前町",ものづくり体験,35.935443,136.0591405,13,https://www.fuku-e.com/experience/detail_5335.html,https://www.fuku-e.com/lsc/upfile/spot/0000/5335/5335_1_l.jpg,釣り鐘型の粘土の土台を抜き型などでくり抜いて、オリジナルの陶製のあかりとりを作ります。2個のうち1個は秋冬のイルミネーションイベントで展示します。期日　7月1日（金）～8月31日（水）受付時間　9:00～15:00所要時間　1時間30分場所　福井県陶芸館　陶…,,1時間30分,福井県陶芸館　陶芸教室,,福井県越前町小曽原120-61,,,,,あり,,,,,,,,,,,,,,2022年7月1日（金）～8月31日（水）
detail_5480,勝山自然塾,かつやましぜんじゅく,"永平寺・奥越,勝山市",,36.072689800161065,136.55559539794922,13,https://www.fuku-e.com/spot/detail_5480.html,https://www.fuku-e.com/lsc/upfile/spot/0000/5480/5480_1_l.jpg,【恐竜博物館から車で10分！】46億年の地球に触れる、勝山自然塾日本の恐竜化石の８割が発見されている地球史上重要な福井　勝山。勝山自然塾では、大自然の中で「自然・環境・地形」のフィールドを生かしながら五感を使って楽しく地球の成り立ちや自然環境…,"催行人員　2名～20名
（団体20名～100名）",2時間,"スキージャム勝山
（ショップリリウムにて受付）",,福井県勝山市170-70,"午前の部　10:00～12:00
午後の部　13:30～15:30",,"個人
中学生以上　3,000円
小学生　2,000円

団体
1,500円／1名",中部縦貫自動車道勝山ICから法恩寺山有料道路経由で車で20分,あり,"https://www.skijam.jp/lp/shizenjyuku/,https://www.skijam.jp/green/,https://www.skijam.jp/green/activity/",https://www.jalan.net/kankou/spt_18206ca3470058112/activity/l00003E14C/,"＜４つの体験型学習プログラム＞
　●緑の教室
　　人間にとってなくてはならない酸素を供給する葉、
　　水を供給する森の大切さを緑あふれる自然の中で学びます。
　　環境問題を自分ごとに体感できる機会です。

　●石の地球
　　マントルなどの内部構造を地球の模型を用いて
　　説明しながら、宇宙からの視点で地球の存在を解説します。
　　「奇跡の星・地球」の偉大さとその仕組みを学びます。

　●地球の道
　　地球誕生から46億年の歴史を460mの自然道で解説します。
　　誕生時の熱いマグマに覆われていた地球や、恐竜が棲んでいた
　　地球、氷河期の凍てついた地球などを体感しましょう。

　●裸足の道
　　目隠しをし、裸足になって芝生や砂利、丸太などの上を
　　歩くことにより、五感で自然環境を感じてもらいます。
　　音や匂い、触感…様々な感覚で地球を再認識しましょう。
",2名,団体での申し込みはお問い合わせください,3400,あり,,"7月16日（土）～8月28日（日）
※20名様以上の団体は10月30日まで受け付け",,,,"・現地現金支払い
・現地カード支払い（VISA、Master Card、American Express、JCB、銀聯（ぎんれん）、ダイナースクラブ、UCS、TS3、MUFG）
そのほか、各種QR決済、IC決済が可能",
detail_5496,泰澄の杜「ぶどう狩り2022」,たいちょうのもりぶどうがり,"丹南,越前町",農業体験・フルーツ狩り,35.99772974395497,136.0931396484375,15,https://www.fuku-e.com/spot/detail_5496.html,https://www.fuku-e.com/lsc/upfile/spot/0000/5496/5496_1_l.png,秋の味覚を味わおう！「泰澄の杜」に隣接する広いぶどう園の敷地には、「デラウェア」「ナイアガラ」「巨峰」「スチューベン」と全部で4種類のぶどうが育てられており、時期を変えながら旬の時期に食べることができます。デラウェア【小粒・種無】／食べ頃：…,,60分間,泰澄の杜ぶどう園,0778-34-2322（泰澄の杜）,福井県越前町小倉 88-55-1,9時〜16時(15時受付終了),火曜日,"※園内食べ放題・60分制限

＜巨峰・ナイアガラ＞
・大人／1,800円
・こども／1,000円
・３歳児以上／800円

＜デラウェア・スチューベン＞
・大人／1,000円
・こども／600円
・３歳児以上／400円","★公共交通機関の場合：JR福井駅下車　京福バス織田線乗車約50分　泰澄の杜下車後すぐ
★車の場合：北陸自動車道鯖江I.Cから約40分",あり,http://taichou-no-mori.jp/budo/index.html,,"・デラウェア【小粒・種無】／食べ頃：８月中旬～８月下旬
　小粒で食べやすく最も親しまれている大衆種
・スチューベン【大粒・種有】／食べ頃：８月中旬～
　酸味が少なく蜂蜜に似た甘みを持つ 非常に甘い品種
・巨峰【大粒・種無】／食べ頃：８月下旬～９月下旬
　味は濃厚で、上品な香りがある 1 番人気の品種
・ナイアガラ【大粒・種有】／食べ頃：８月下旬～９月中旬
　透き通った黄緑色をした甘みの強いぶどう",,,,,,,,,,,2022年8月11日(木)～9月25日(日)
detail_5513,若狭美浜HAMABERRY～いちごの郷みはま～,わかさみはまはまべりー～いちごのさとみはま～,"若狭路,美浜町",農業体験・フルーツ狩り,35.6037305,135.9363676,13,https://www.fuku-e.com/experience/detail_5513.html,https://www.fuku-e.com/lsc/upfile/spot/0000/5513/5513_1_l.jpg,どなたにでも好まれる甘みと酸味のバランスのとれた『紅ほっぺ』、甘味・酸味・風味が四つ星級においしい『よつぼし』など、多品種のいちごを揃えています。ハウスの中でいちご狩り体験ができ、またその日に取れたいちごのパック販売も行っています。,,,福井県三方郡美浜町郷市14−11,,福井県美浜町郷市14-11,9：00～17：00,"月曜日
（不定休がありますので、若狭美浜HAMABERRYのホームページで御確認ください。）","いちご狩り料金（45分食べ放題）
・大人（中学生以上）2,800円　・小人（小学生）1,500円
・幼児（満3歳以上）700円　　 ・シニア（満65歳以上）1,300円","ＪＲ美浜駅から徒歩約5分
舞鶴若狭自動車道「若狭美浜IC」から約10分",あり,https://hamaberry.com,,いちご狩り,,若狭美浜HAMABERRYのホームページからご予約ください。,,,,"9：00〜17：00
（定休日：月曜日※不定休あり）",,,,,
detail_5582,ワタリグラススタジオ,わたりぐらすすたじお,"あわら・坂井・福井市,福井市",ものづくり体験,36.0988437,136.0347453,15,https://www.fuku-e.com/experience/detail_5582.html,https://www.fuku-e.com/lsc/upfile/spot/0000/5582/5582_1_l.jpg,越前海岸沿いの小高い場所にあり、工房の窓から越前海岸が一望できるガラス工房。吹きガラス体験や小皿作り体験、工房見学もできます。素晴らしい景色の中、あなただけの作品を作ってみませんか？,,３０分～,ワタリグラススタジオ,0776-88-2025（ワタリグラススタジオ）,福井県福井市鮎川町17-14,9:00～17:00,"水曜日
※火曜日はショップ営業のみ、体験休み",,JR福井駅から車で５０分,あり,"https://watariglass.com/,https://www.fukunone.online/",https://www.jalan.net/kankou/spt_guide000000201199/,モザイク画作り体験,１人,,,,,,,,,,
detail_5603,小大黒屋商店,こだいこくやしょうてん,"あわら・坂井・福井市,福井市","ものづくり体験,歴史・文化体験",36.0655508,136.2128199,16,https://www.fuku-e.com/spot/detail_5603.html,https://www.fuku-e.com/lsc/upfile/spot/0000/5603/5603_1_l.jpg,越前和蝋燭の原料は、植物のハゼの美で、芯は特別に漉いた和紙。一般的な棒型の他、様々な形や模様、色を取り入れたものがあり、最近ではインテリアやパーティ演出などにも利用されています。小大黒屋商店は、江戸時代、慶応年間に和ろうそくづくりを手がけ…,1人～4人,９０分,小大黒屋商店,0776-22-0986（小大黒屋）,福井県福井市順化2-15-9,9:00~18：00,日曜定休　　　◎祝日は事前にお問い合わせください,"2,500円～（塗香づくり体験）","・JR福井駅より徒歩で12分
・北陸自動車道福井ICより車で15分
・北陸自動車道福井北ICより車で20分",,https://www.kodaikokuya.co.jp/,"https://www.jalan.net/kankou/spt_guide000000203298/?screenId=OUW3701,https://www.rousokuya.com/",塗香作り体験,１人,"塗香（ずこう）とは、体に塗ることで身を清めるとされるお香です。
お好みの香りを加えて、自分好みの塗香を作ることができます。",,,,,,,,,
detail_5644,南越前ダイビングパーク,みなみえちぜんだいびんぐぱーく,"丹南,南越前町",自然・スポーツ体験,35.8339398,136.0569956,10,https://www.fuku-e.com/experience/detail_5644.html,https://www.fuku-e.com/lsc/upfile/spot/0000/5644/5644_1_l.jpg,河野の海は、どの海にも似ていないオリジナルな魅力に溢れています。海のきれいさや、魚の種類、景色のすばらしさなど、見たことのない風景に出会える、そんな雰囲気を持っているのです。ゆったりとくつろげる広々とした施設はもちろん、沿岸には約１ｋｍに…,,,,0778-48-3300,福井県南越前町甲楽城15-28,8:30～17:30,,,北陸自動車道敦賀ICもしくは武生ICから約30分,あり,http://www.divingpark.jp/,,,,,,可能（要事前連絡）,,,,,,,
detail_5705,日野川・鮎釣り,ひのがわ・あゆつり,"丹南,南越前町",漁業体験・魚釣り,35.7753106,136.1989006,16,https://www.fuku-e.com/experience/detail_5705.html,https://www.fuku-e.com/lsc/upfile/spot/0000/5705/5705_1_l.jpg,美しい姿かたち、味の良さで「川魚の女王」と表される鮎。日野川・田倉川で育った鮎は大きさ、身のしまりなどは最高級です。シーズンは毎年6月上旬から9月上旬で、毎年県内外から多くの鮎つりファンが訪れます。,,,,0778-45-1791（日野川漁協 今庄支所）,福井県南越前町今庄朝鮮淵71−1,,,,,,http://fukui-hinogawa.com/,,,,,,,,,,,,,
detail_5712,今庄365スキー場【現在、災害復旧工事のため休業中】,いまじょう365すきーじょう,"丹南,南越前町",自然・スポーツ体験,35.7232687,136.1483891,13,https://www.fuku-e.com/spot/detail_5712.html,https://www.fuku-e.com/lsc/upfile/spot/0000/5712/5712_1_l.jpg,日本海はもとより、晴れた日には、遠く白山連峰や、琵琶湖までが見渡せる大自然のパノラマが魅力の今庄365スキー場。シーサイトコースをはじめ、最大斜度33度のチャレンジコースやビギナー向けのセンターゲレンデなど多彩なコースも自慢のひとつです。小さな…,,,,0778-45-1115（今庄365スキー場／電話対応時間：8:00〜17:00）,福井県南越前町板取85-36,,,,,あり,http://imajyo365.jp/,,,,,,,,,,,,,
detail_5713,馬借街道,ばしゃくかいどう,"丹南,南越前町",自然・スポーツ体験,35.83098359221241,136.06462240219116,15,https://www.fuku-e.com/spot/detail_5713.html,https://www.fuku-e.com/lsc/upfile/spot/0000/5713/5713_1_l.jpg,明治時代まで、北前船と並んで交通の重要な役割を果たしていたのが、府中(武生)と河野を結んだ「西街道」通称「馬借街道」です。馬借とは、室町時代に発達した、馬の背を利用して物資を輸送した運送業者のことで、交通の要であったといわれています。道中は…,,,,,福井県南越前町今泉,,,,,,,,,,,,,,,,,,,
detail_5735,真冬の大冒険　in ツリーピクニックアドベンチャーいけだ,まふゆのだいぼうけんいんつりーぴくにっくあどべんちゃーいけだ,"丹南,池田町",自然・スポーツ体験,35.86216114101435,136.36735796928406,17,https://www.fuku-e.com/experience/detail_5735.html,https://www.fuku-e.com/lsc/upfile/spot/0000/5735/5735_1_l.jpg,世界一軽いそりづくりをしたり、スノーシューズを履いて銀世界へ探検にでかけましょう。スノーシュは、雪あそびの恰好でご参加いただけます。※会場は、ツリーピクニックアドベンチャーいけだになります,定員10名,約90分,ツリーピクニックアドベンチャーいけだ,080-2961-9051(ツリーピクニックアドベンチャーいけだ),福井県池田町志津原２８−１６,①10：30～12：00　②13：30～15：00,,"1人2,500円（おとな・こども）",,あり,,,,,,,,,予約不要（センターハウスにて当日受付）,,mailto: info@picnic.ikeda-kibou.com,,,2月3日(金)～27日(月) の土・日・祝日(※2月18日・19日を除く)
detail_5736,もりのたからさがし　in　ツリーピクニックアドベンチャーいけだ,もりのたからさがしいんつりーぴくにっくあどべんちゃーいけだ,"丹南,池田町",自然・スポーツ体験,35.86220461578635,136.36728286743164,13,https://www.fuku-e.com/experience/detail_5736.html,https://www.fuku-e.com/lsc/upfile/spot/0000/5736/5736_1_l.jpg,大人気、もりのたからさがし冬バージョン！自然大好きなスタッフが作った森のクイズです。森に隠されているヒミツの暗号を見つけ出せば、宝箱の宝を1つプレゼント。小学生のみの参加もOK！※会場は、ツリーピクニックアドベンチャーいけだになります。ツリー…,,15分～30分（子どもの歩くペース目安）,ツリーピクニックアドベンチャーいけだ,080-2961-9051(ツリーピクニックアドベンチャーいけだ),福井県池田町志津原２８−１６,10：00～16：00,,1人500円（付き添いは無料ですが、宝は当たりません),,あり,,,,,,,,,予約不要（センターハウスにて当日受付）,,mailto: info@picnic.ikeda-kibou.com,,,2月3日(金)～27日(月) の金・土・日・月・祝日(※2月18日・19日を除く)
detail_5738,～冬を遊びつくす～　雪あそび&つんぼり大根堀り,～ふゆをあそびつくす～ゆきあそびあんどつんぼりだいこんほり,"丹南,池田町",自然・スポーツ体験,35.86216114101435,136.36735796928406,17,https://www.fuku-e.com/experience/detail_5738.html,https://www.fuku-e.com/lsc/upfile/spot/0000/5738/5738_1_l.jpg,池田町は、福井県でも屈指の豪雪地帯。2月でも雪は沢山あるので、思いきり雪あそびを楽しめます（しめ縄リースづくりをしてもOK）。自分たちで作ったカレーライスを食べた後、午後は「つんぼり大根」を掘りに池田町農業公社へ（各自の車で移動）。果たして、…,1日15人限定,４時間30分,ツリーピクニックアドベンチャーいけだ,080-2961-9051(ツリーピクニックアドベンチャーいけだ),福井県池田町志津原２８−１６,10：00～14：30,,"1人4,000円（2歳児以下 無料）",,あり,https://treepicnic.edisone.jp/#menus,,,,"※要予約
持ち物：防寒着のみ",,,,,,mailto: info@picnic.ikeda-kibou.com,,,2月11日(土)・12日(日)
detail_5748,ICHIGOOJI,いちごおうじ,"あわら・坂井・福井市,坂井市",農業体験・フルーツ狩り,36.14855583400594,136.18541034340822,16,https://www.fuku-e.com/experience/detail_5748.html,https://www.fuku-e.com/lsc/upfile/spot/0000/5748/5748_1_l.jpg,温かなハウスの中には、真っ赤な完熟いちごがいっぱい。宙にぶら下がってなっている高設栽培なので、小さなお子様からお年寄りまで、誰もがラクな姿勢でいちご摘み取り体験が楽しめます。品種は、人気の「紅ほっぺ」「章姫（あきひめ）」の2種。甘くみずみず…,お問合せください。,45分程度,,080-3747-5111,福井県坂井市春江町石塚20字2,9:00～15:00（ナイト営業 18:00～21:00 も実施）,年末年始,詳しくは、ホームページをご確認ください。,北陸自動車道丸岡ICから車で約20分,あり,https://www.ichigooji.com/,,いちご摘み取り体験,,完全予約制です。,30台,,,3月上旬～6月中旬,詳細につきましてはホームページをご覧ください。,,,,
detail_5756,地域まるっと体感宿 玉村屋,ちいきまるっとたいかんやど たまむらや,"丹南,南越前町","農業体験・フルーツ狩り,ものづくり体験,歴史・文化体験",35.77123154652664,136.1987516283989,16,https://www.fuku-e.com/spot/detail_5756.html,https://www.fuku-e.com/lsc/upfile/spot/0000/5756/5756_1_l.jpg,今庄宿にある築90年の古民家をリノベーションした宿。「地域の日常にお邪魔する」をコンセプトに、地域の様々な暮らしを体感できるコンテンツがあります。,,,,,福井県南越前町今庄８２－１０,,,,JR今庄駅から徒歩5分,あり,https://tamamuraya.jp/,,花はす収穫、今庄つるし柿づくり、ドライフラワーづくり、野菜収穫など、各種「地域の日常」を体験できます！,,,,,,,,,,事前決済（クレジットカード、銀行振込）,
detail_5769,～冬を遊びつくす～　木に触れる1日,～ふゆをあそびつくす～きにふれるいちにち,"丹南,池田町",ものづくり体験,35.8903475,136.3389543,17,https://www.fuku-e.com/experience/detail_5769.html,https://www.fuku-e.com/lsc/upfile/spot/0000/5769/5769_1_l.jpg,池田町は、町の9割が森林。そんな池田町で、木を触ったり、匂いを嗅いだりと五感で遊びながら学ぶ1日を過ごしてみませんか。集合場所はウッドラボいけだ。午前中は、1人1膳お箸をつくります。昼食は、ウッドラボから車で1分の「こってコテいけだ」で食べるの…,1日15人限定,４時間,ウッドラボいけだ,080-2961-9051(ツリーピクニックアドベンチャーいけだ),福井県池田町池田９−６−１,10：30～14：30,,"1人4,000円（2歳児以下 無料）",,あり,https://treepicnic.edisone.jp/#menus,,,,※要予約,,,,,,mailto: info@picnic.ikeda-kibou.com,,,2月25日(土)・26日(日)
detail_5777,餅つき体験【リトリートたくら】,,"丹南,南越前町","漁業体験・魚釣り,食品づくり体験",35.7921739,136.2672023,13,https://www.fuku-e.com/experience/detail_5777.html,https://www.fuku-e.com/lsc/upfile/spot/0000/5777/5777_1_l.jpg,杵と臼でもちつきしませんか？ 原料のもち米は、南越前町今庄の美味しい水で作ったものです。出来立てのおもちはもちもちで別格においしいですよ。 トッピング（別途費用）には大根おろし、きなこを用意しています。,50名,60,リトリートたくら,0778-45-1310（リトリートたくら）,福井県南越前町古木５９−５２,9:00－17:00,毎週水曜日・年末年始,"白もち　2,780円
とちもち　5,440円
よもぎもち　3,260円
豆もち　3,140円

お召し上がりの場合のトッピング（大根おろし、きなこ）
お一人様110円

＊最新の料金については予約時にご確認ください。",北陸自動車道今庄ICから車で20分,あり,http://www.r-takura.com/contents/retreat/index.html,,"餅つき体験

餅つき（各約30個くらいできます）
白もち　
とちもち　
よもぎもち　
豆もち　

お召し上がりの場合のトッピング（大根おろし、きなこ）


＊最新の料金については予約時にご確認ください。",,電話で要予約,,可能,,"第1回10:00~､第2回13:30~､第3回14:30~
＊詳しくは予約時にご相談ください。",,,,,
detail_5778,そば打ち体験【リトリートたくら】,そばうちたいけん,"丹南,南越前町","農業体験・フルーツ狩り,食品づくり体験",35.7921739,136.2672023,13,https://www.fuku-e.com/experience/detail_5778.html,https://www.fuku-e.com/lsc/upfile/spot/0000/5778/5778_1_l.jpg,自分の手でそば粉をこね、切り、茹でておいしくいただくことができます。手打ちの味をご家族やグループでワイワイ楽しんでください。,30名,60分,リトリートたくら,0778-45-1310（リトリートたくら）,福井県古木５９−５２,9:00－17:00,毎週水曜日・年末年始,,北陸自動車道今庄ICから車で20分,あり,http://www.r-takura.com/contents/retreat/index.html,,"そば打ち体験

１玉（5~6食分）　2,420円
※最大21玉まで

お召し上がりの場合：だし、薬味代　お一人様110円",,,,可能,,9：00～17：00,,,,,
detail_5779,河野北前船主通りガイドツアー,こうのきたまえせんしゅどおりがいどつあー,"丹南,南越前町",歴史・文化体験,35.826251,136.068248,13,https://www.fuku-e.com/spot/detail_5779.html,https://www.fuku-e.com/lsc/upfile/spot/0000/5779/5779_1_l.jpg,日本遺産になっている北前船。その北陸5大船主の一人である右近権左衛門。彼の自宅である右近家をはじめ、北前船の歴史、世界恐慌後、河野の町の人たちに雇用を作ったとされる西洋館などを、わかりやすくご案内いたします。 見ているだけではわからない、北…,,60分～90分,北前船主の館右近家,0778‐48‐2196（北前船主の館右近家）,福井県河野２−１５,9：00～16：00,,"入館料　500円

ガイド料金：
１グループ（1名～9名）　1,000円
１グループ（10名～）　　1,500円",,あり,,,河野北前船主通りガイドツアー,,,,３台,,9:00－16:00,,,,,
detail_5780,浮き球の網掛け体験【河野北前船主通り】,うきだまのあみかけたいけん,"丹南,南越前町",,35.826251,136.068248,13,https://www.fuku-e.com/experience/detail_5780.html,https://www.fuku-e.com/lsc/upfile/spot/0000/5780/5780_1_l.jpg,右近家の倉庫もあった小樽から取り寄せたガラスの浮き球を使用した網掛け体験。一輪挿しにもなり、お土産にも最適です。,,,,0778‐48‐2196（北前船主の館右近家）,福井県南越前町河野２−１５,9：00－16:00,"水曜
年末年始","1,400円
（西洋館での体験を希望の場合は、入館料が別途500円必要）",,あり,,,浮き球の網掛け体験,,,,3台,,,,,,,
detail_5781,越前和紙クラフト体験【河野北前船主通り】,えちぜんわしくらふとたいけん,"丹南,南越前町",ものづくり体験,35.826251,136.068248,13,https://www.fuku-e.com/experience/detail_5781.html,https://www.fuku-e.com/lsc/upfile/spot/0000/5781/5781_1_l.jpg,越前和紙を使ったペーパークラフトで自分だけの北前船を完成させましょう。河野北前船主通り案内の会のガイドなどが講師となって、親切に教えます。,,,,0778‐48‐2196（北前船主の館右近家）,福井県南越前町河野２−１５,9:00－16:00,水曜日、年末年始,"1400円

西洋館での体験を希望の場合は、別途入館料500円必要",,あり,,,越前和紙でつくる北前船クラフト体験,,電話にて要予約,,3台,,,,,,,
detail_5782,日本でここだけの燻し製法！今庄特産「つるし柿」づくり☆,にほんでここだけのいぶしせいほう！いまじょうとくさんつるしがきづくり,"丹南,南越前町","農業体験・フルーツ狩り,食品づくり体験",35.75276160791864,136.1599527362088,12,https://www.fuku-e.com/experience/detail_5782.html,https://www.fuku-e.com/lsc/upfile/spot/0000/5782/5782_1_l.jpg,秋も深まる晩秋の山里に広がる柿の木。「桃栗3年、柿8年・・・」とことわざに登場するほど柿は昔から身近な果実として育てられていました。そんな柿は大きく分けて二種類あります。「甘柿」と「渋柿」です。自然界には元々は渋柿しか存在せず、突然変異で甘…,10名,90分,,,福井県南越前町二ツ屋119字6-2,9:00－18:00,,"4,500円（ご自身で作られたつるし柿５個のお土産付き）",,あり,"https://tamamuraya.jp/,https://www.jalan.net/kankou/spt_guide000000201670/",,今庄特産「つるし柿」づくり,1名,"・作られたつるし柿は、お預かりして加工し、体験日の２週間後以降に受け取れます。
・現地受け取りもしくは発送（別途送料）にてお渡しします。
・予約はWEBサイトからお願いします",,不可（待機可能場所から歩いて3分程度）,,,,,,,
detail_5783,泥だらけ！ピンクに彩られた田んぼで、花はす収穫！,,"丹南,南越前町","農業体験・フルーツ狩り,自然・スポーツ体験",35.8207271,136.2147981,13,https://www.fuku-e.com/experience/detail_5783.html,https://www.fuku-e.com/lsc/upfile/spot/0000/5783/5783_1_l.jpg,南越前町堂宮。ここは夏になると田んぼがピンク色の花に染まる集落です。 ここでは、お盆に飾られる仏花として知られる「蓮」を日本有数の栽培規模で行っています。 そんな花ハスの田んぼに入って、自分で蓮の花を収獲できます。 田んぼの中で土に触れて、泥…,,,,,福井県南越前町堂宮２７−１９,,,"１人：4,500円
２人：7,500円
3人以上は1人あたり2,000円追加
※見学希望の方の分も体験料は頂戴致します。",,あり,"https://tamamuraya.jp/,https://www.jalan.net/kankou/spt_guide000000201670/",,,,,,要相談,,,,,,,
detail_5784,若手花農家と花畑探検,,"丹南,南越前町",農業体験・フルーツ狩り,35.82872610225741,136.2040307361721,16,https://www.fuku-e.com/experience/detail_5784.html,https://www.fuku-e.com/lsc/upfile/spot/0000/5784/5784_1_l.jpg,移住して就農した若手花農家の野村さんの日常にちょこっとおじゃまします♪ 種を蒔いたり、間引きしたり、収穫したりと、季節にあわせた花農家の日常を体験できます。お土産にはご自身が収穫された花束をプレゼント！＊季節によってはドライフラワーに変更し…,10名,60分～90分,,,福井県南越前町上野41-22,,,"基本料金　3,700円
ただし２人目以降は、１人あたり中学生以上は一人1400円、小学生は一人800円の追加となります。",,あり,"https://tamamuraya.jp/,https://www.jalan.net/kankou/spt_guide000000201670/",,季節の農家作業体験,1名,,,要相談,,5月1日～11月30日,,,,,
detail_5785,日本酒仕込み体験！発酵を見極める蔵人の仕事を体験,,"丹南,南越前町",食品づくり体験,35.7712301,136.1987536,13,https://www.fuku-e.com/experience/detail_5785.html,https://www.fuku-e.com/lsc/upfile/spot/0000/5785/5785_1_l.jpg,冬の気配が訪れる南越前町今庄宿。古くは宿場町として栄え、今でも面影が残る街道沿いにある酒蔵では、日本酒仕込みが始まります。全国では約1500の蔵があると言われていますが、作業のほとんどが機械化されている大手酒蔵は13蔵程度に過ぎず、その他中小の…,,,,,福井県南越前町今庄８２－１０,,,"7,900円
＊参加日数によって割引",JR今庄駅から徒歩5分,あり,"https://tamamuraya.jp/,https://www.jalan.net/kankou/spt_guide000000201670/",,,,,,要相談,,,,,,,
